name,address,access,remarks,latitude,longitude
アドアーズ札幌狸小路店,札幌市中央区南3条西4丁目12-1アルシュビル5・6F,すすきの駅,,,
タイトーステーション札幌狸小路2丁目店,札幌市中央区南3条西2丁目14,すすきの駅,,,
ディノスパーク札幌中央,札幌市中央区南3西1丁目8番地ディノス札幌中央（旧スガイビル）B1F～2F,豊水すすきの駅だがすすきの駅でもそう変わりません,,,
ディノスパークノルベサ,札幌市中央区南3条西5丁目ノルベサ5F,すすきの駅,,,
namcoサッポロファクトリー店,札幌市中央区北1条東4丁目1-1サッポロファクトリー1条館2F,,,,
namco札幌エスタ店,札幌市中央区北5条西2丁目1-1札幌エスタ9F,札幌駅,旧・ワンダーパーク札幌,,
モーリーファンタジー札幌桑園店,札幌市中央区北8条西14丁目28イオン札幌桑園店2F,,,,
ラウンドワン札幌すすきの店,札幌市中央区南5条西3丁目6番地1,,,,
アドアーズ北42条店,札幌市東区北42条東7丁目1-1,麻生駅からバス,,,
キャッツアイ東苗穂店,札幌市東区東苗穂6条2丁目1-25,新道東駅からバス,,,
ソユーゲームフィールド札幌苗穂店,札幌市東区東苗穂2条3丁目1-1イオンモール札幌苗穂2F,,旧・SOYU PHYSIスポ札幌苗穂店,,
モーリーファンタジー札幌苗穂店,札幌市東区東苗穂2条3丁目1-1イオンモール札幌苗穂2F,,,,
モーリーファンタジー札幌元町店,札幌市東区北31条東15丁目1-1イオン札幌元町店3F,,,,
ラウンドワンスタジアム札幌北21条店,札幌市東区北21条東1丁目1-21,北24条駅,北海道のラウンドワン4店舗はいずれも送迎バスあり,,
ソユーゲームフィールド札幌発寒店,札幌市西区発寒8条12丁目1番地イオンモール札幌発寒3F,,旧・Famiu HASSAMU,,
プラボ札幌西町店,札幌市西区西町北13丁目1ワンダーシティ札幌内,,,,
モーリーファンタジー札幌琴似店,札幌市西区琴似2条4丁目2-2イオン琴似店3F,,,,
モーリーファンタジー札幌発寒店,札幌市西区発寒8条12丁目1-1イオンモール札幌発寒店3F,,,,
キャッツアイ麻生店,札幌市北区北40条西4丁目1-1パッテス麻生1F（旧パボッツ）,麻生駅,,,
キャッツアイ篠路店,札幌市北区篠路1条4丁目6-30,,,,
キャッツアイ新川店,札幌市北区新川2条7丁目1-7,,,,
G-Baoa.g（ジーバオアグー）,札幌市北区北23条西5丁目1-33,北24条駅,旧・ゲームインセブンイレブン,,
MAXIM HERO店,札幌市北区北区北6西6丁目鉄道高架下,札幌駅が圧倒的に近いです,,,
モーリーファンタジー札幌麻生店,札幌市北区北39条西4丁目1-5イオン札幌麻生店4F,,,,
キャッツアイ新札幌店,札幌市厚別区厚別東5条1丁目,,,,
モーリーファンタジー新さっぽろ店,札幌市厚別区厚別中央2条5丁目6-2新札幌アークシティduo22F,,,,
キャッツアイ清田店,札幌市清田区清田1条1丁目20-1,福住駅からバス,,,
タイトーステーションイオンモール札幌平岡店,札幌市清田区平岡3条5丁目3-1イオンモール札幌平岡2Ｆ,,,,
ベガジオ美しが丘店,札幌市清田区美しが丘1条7丁目6-10,,,,
モーリーファンタジー札幌平岡店,札幌市清田区平岡3条5丁目3-1イオンモール札幌平岡2F,,,,
キャッツアイ栄通店,札幌市白石区栄通19丁目11-43,,,,
ゲームインピエロ,札幌市白石区北郷3条2丁目,,金・土・日曜のみの営業なので注意,,
モーリーファンタジー東札幌店,札幌市白石区東札幌3条2丁目1イオン東札幌店2F,,旧・らんらんらんど東札幌店,,
ラウンドワンスタジアム札幌白石本通店,札幌市白石区本通16丁目北1-50,,,,
キャッツアイ手稲店,札幌市手稲区前田3条10丁目2-21,,,,
キラキラAsobox札幌手稲店,札幌市手稲区前田5条13丁目3-1トライアル手稲2F,,,,
キラキラAsoboxドン・キホーテ手稲店,札幌市手稲区 前田5条11丁目7-10ドン・キホーテ手稲店1F,,,,
ディノスパーク札幌手稲,札幌市手稲区前田1条11丁目西友手稲店3F,手稲駅は絶対に近い,,,
モーリーファンタジー手稲山口店,札幌市手稲区明日風6丁目1-1イオンSC手稲山口店1F,,,,
モーリーファンタジー星置店,札幌市手稲区星置1条2丁目ラッキー星置駅前店1F,,,,
キャッツアイミュンヘン大橋店,札幌市豊平区平岸1条23丁目,,,,
G-Baoa.g平岸店,札幌市豊平区平岸5条9丁目,,旧・ゲームインポパイ,,
アミューズメントスペース遊ランド旭川店,旭川市西御料5条2丁目,西御料駅が近いでしょう,,,
アミューズメントスペース遊ランド春光店,旭川市春光1条7丁目2-25,,旧・フラミンゴパラダイス,,
キラキラAsobox旭川店,旭川市永山12条3丁目122-39ウエスタンパワーズ2F,,旧・ユニックス,,
ソユーゲームフィールド旭川駅前店,旭川市宮下通7丁目2-5イオンモール旭川駅前4F,,,,
ソユーゲームフィールド旭川西店,旭川市緑町23丁目2161-3イオンモール旭川西3F,,旧・SOYU遊戯街ロマン通り旭川西店,,
ディノスパーク旭川,旭川市大雪通5丁目496-5第8山本ビル1F,旭川駅近辺からバス,,,
ファンタジープラザ旭川店,旭川市春光1条8丁目1-65MEGAドン・キホーテ旭川店2F,,,,
モーリーファンタジー旭川西店,旭川市緑町23丁目2161-3イオンモール旭川西2F,,,,
モーリーファンタジー旭川パルプ店,旭川市パルプ町1条2丁目505-2ショッピングセンターパルプタウン内,,旧・らんらんらんど旭川パルプ店,,
ラウンドワンスタジアム旭川店,旭川市永山3条1丁目4-7,旭川駅近辺からバス,最北端ラウンドワン,,
PALO網走店,網走市駒場北5丁目83番地駒場ショッピングタウン内,,,,
モーリーファンタジー石狩緑苑台店,石狩市緑苑台中央1-2イオンSC石狩緑苑台店1F,,,,
キャッツアイ恵庭店,恵庭市住吉町2丁目9-1,バスは千歳から乗るとよいでしょう（福住からでは運賃がかなりかかります）,,,
キラキラAsobox江別店,江別市野幌町10-1イオンタウン江別SC2F,,,,
PALO江別店,江別市幸町35イオン江別店3F,,旧・モーリーファンタジー江別店,,
ナムコランド小樽店,小樽市築港11番5号 WING BAY OTARU5番街 2F,小樽築港駅徒歩6分,,,
プラボ小樽店,小樽市築港11番5号WING BAY OTARU5番街 3F,小樽築港駅徒歩6分,2Fと3Fは法的にも違う店舗。どちらも閉店早いので注意,,
namcoウィングベイ小樽店,小樽市築港11番5号WING BAY OTARU1番街 3F,小樽築港駅徒歩2分,NL小樽店、PLABO小樽店とはいずれも違います。小樽のナムコ3店舗はいずれも閉店早いので注意,,
ディノスパーク帯広,帯広市白樺16条西2丁目2-5ドリームタウン白樺内,帯広駅からバス,,,
ディノスパーク帯広稲田,帯広市稲田町南8線西12-1スズランボウル内,帯広駅からバス,旧・セガワールドスズラン,,
ファンタジープラザ帯広店,帯広市西4条南12-3長﨑屋帯広店,,,,
ファンタジープラザ西帯広店,帯広市西21条南4-1MEGAドン・キホーテ西帯広店2F,,,,
ディノスパーク北見,北見市西三輪5丁目1-16,北見駅からバス西北見駅から徒歩も可,旧・ゲオパーク北見,,
BIGBANG北見店,北見市三輪町7丁目446-1,北見駅からバス,旧・セガワールド北見,,
ギャラクシーゲート星が浦,釧路市星が浦2丁目5,釧路駅からバス,旧・セガワールド星が浦,,
タイトーステーションイオンモール釧路昭和店,釧路市昭和中央4-18-1イオンモール釧路昭和2F,釧路駅からバス本数的にはGG星が浦より多いでしょう,,,
ハロータイトー釧路貝塚,釧路市貝塚3丁目2-28コープさっぽろ貝塚店内,,,,
モーリーファンタジー釧路昭和店,釧路市昭和中央4-18-1イオンモール釧路昭和2F,,,,
アミューズメントスペース遊ランド士別店,士別市大通東8丁目,士別駅徒歩11分,旧・スターボウル,,
PALO滝川店,滝川市東町2丁目19-1イオン滝川店内,滝川駅からバス,旧・らんらんらんど滝川店,,
BIGBANG滝川店,滝川市東町1丁目8-14,滝川駅からバス,,,
ディノスパーク伊達,伊達市末永町66-1,伊達紋別駅徒歩18分,旧・ゲオパーク伊達,,
アピナ新千歳空港店,千歳市美々1新千歳空港(国内線)旅客ターミナルビル4F,,,,
タイトーステーション千歳店,千歳市北栄2-12-5,,旧・セガワールド千歳,,
ディノスパーク苫小牧,苫小牧市柳町3丁目8-182イオンモール苫小牧2F,苫小牧駅から無料シャトルバスあり,,,
PALO苫小牧店,苫小牧市糸井135-1,,,,
ファンタジープラザ苫小牧店,苫小牧市木場町1丁目6-1MEGAドン・キホーテ苫小牧店2F,,,,
モーリーファンタジー苫小牧店,苫小牧市柳町3丁目8-182イオンモール苫小牧2F,,,,
モーリーファンタジー名寄店,名寄市字徳田80番地1イオン名寄ショッピングセンター2F,,,,
モーリーファンタジー登別店,登別市若山町4-33-1イオン登別店2F,,,,
ギャラクシーゲート函館,函館市昭和3丁目31-12,,,,
ディノスパーク函館昭和,函館市昭和3丁目24-18ゲオ函館昭和店内,,旧・ゲオパーク函館昭和,,
BIGBANG函館店,函館市梁川町9丁目3テキサス函館3F,,,,
モーリーファンタジー湯ノ川店,函館市湯川町3丁目14-5イオン湯川店1・2F,,旧・らんらんらんど湯ノ川店,,
ラウンドワンスタジアム函館店,函館市西桔梗町848-11,,,,
深川セントラルボウル,深川市音江町字豊泉3,深川市立病院からバス(深川駅からは出ていません）,毎週水曜定休日,,
アミューズメントスペース遊ランド富良野店,富良野市弥生町5-50,,旧・アミューズメントAER,,
キラキラAsobox函館七重浜店,北斗市七重浜7丁目15ー13七重浜ドン・キホーテ2F,,,,
ディノスパーク上磯,北斗市七重浜7丁目14番地1スーパーセンタートライアル上磯店内,,旧・アミューズメントシティトライアル上磯,,
モーリーファンタジー上磯店,北斗市七重浜4丁目44-1イオン上磯店1F,,旧・らんらんらんど上磯店,,
モーリーファンタジー三笠店,三笠市岡山1059-1イオンSC三笠店,,,,
ディノスパーク室蘭,室蘭市東町4丁目31-2,東室蘭駅からバス、徒歩,旧・室蘭グランドボウル,,
ディノスパーク室蘭中央,室蘭市中央町3丁目1-8スーパーアークス室蘭中央店3F,,,,
BIGBANG室蘭店,室蘭市中島本町2丁目8-1,東室蘭駅からバス、徒歩,,,
アミューズメントスペース遊ランド紋別店,紋別市本町4丁目1-35旭川第一興商紋別ビル2F,,,,
光速憧路,稚内市港町5丁目8-15,南稚内駅が近いですが稚内駅からバスのほうが有利,,,
ディノスパーク音更,河東郡音更町木野大通西15丁目2-12ビッグマートB棟,,,,
PALO釧路店,釧路郡釧路町桂木1丁目1-7イオン釧路店2F,,旧・モーリーファンタジー釧路店,,
BIGBANG釧路店,釧路郡釧路町木場2丁目,釧路駅からバス,,,
モーリーファンタジー中標津店,標津郡中標津町南町3番地10東武サウスヒルズ1F,標茶駅からバスになりますが…,旧・らんらんらんど中標津店,,
モーリーファンタジー八雲店,二海郡八雲町東雲町20-5マックスバリュー八雲店1F,,旧・らんらんらんど八雲店,,
T/S青森アムゼ店,青森市緑3-9-2 サンロード青森内,青森駅からバス,旧：アムゼ,,
青森メトロポリス本館,青森市三好1-15-8ガーラタウン内,R7沿い。青森駅からバス,新青森駅からの徒歩はかなり距離があるでしょう。,,
ラウンドワン青森店,青森市浜田3-1-1 ドリームタウンアリー内,青森駅からバス,,,
T/S青森ガーラモール店,青森市三好2-3-19 マエダ西バイパス店2F,R7沿い。青森駅からバス,旧：ゲームプラザカーニバル,,
アオモリボウル,青森市安方1-9-15,,,,
モーリーファンタジー平賀店,平川市小和森上松岡193-1マックスバリュ平賀店1F,平賀駅が近い,,,
スペースファンタジーインフィニ,弘前市城東北3-10-1さくら野弘前店本館4F,アラモード同様,,,
友栄ファミリーランド弘前店,弘前市駅前3-3-1 イトーヨーカドー弘前店4F,駅東口から右方面へ,,,
ゲームフェスタミタマ,弘前市大字駅前町5-5,弘前駅西口前すぐ目の前,,,
スペースイン,弘前市土手町39 土手町商店街,中三弘前店近くしたどてスカイパーク駐車場隣り,,,
セガ弘前,弘前市大字末広1-3-3,R7沿い、弘果隣り弘前駅東口から100円バスあり,旧：セガワールドアクティバセガ直営では最北端になります,,
パロ 黒石店,黒石市富士見103番地3 アクロスプラザ黒石内,,,,
らんらんらんど 鶴田店,北津軽郡鶴田町大字鶴田字中泉245-1 鶴田フットリバーモール1F,,,,
モーリーファンタジー藤崎店,南津軽郡藤崎町大字西豊田1-7-1　イオン藤崎店1F,,,,
パロ五所川原店,五所川原市唐笠柳字藤巻641-1アクロスプラザ五所川原内,,交通機関があまりないのでエルム街近くを目印に,,
namcoエルムの街ショッピングセンター店,青森県五所川原市大字唐笠柳字藤巻517番1エルムの街ショッピングセンターC棟2F,五所川原駅からバス,旧：NL五所川原エルム店,,
プラサカプコンつがる柏店,つがる市柏稲盛幾世41　イオンモールつがる柏シネマ館1F,R101沿い。公共交通なら五所川原駅からバス,旧：～柏村店毎週土・日・祝の日にはカプコン直営店恒例のビンゴ大会を開催している,,
モーリーファンタジーつがる柏店,つがる市柏稲盛幾世41　イオンモールつがる柏1F,,,,
セガワールド八戸R45,八戸市城下4-1-29,本八戸駅徒歩15分だがバスも可八戸駅からでは乗継になります,,,
らんらんらんど 三春屋店,八戸市十三日町13 三春屋5F,,,,
モーリーファンタジー八戸田向店店,八戸市大字田向字毘沙門平27-1イオン八戸田向店1F,,,,
チーノランド八戸,八戸市十三日町16 cino6F,八戸駅からバスは圧倒的に楽,ビデオゲームは無い レースゲー・音ゲーは最新のものがあるただし営業時間に注意（10:00～19:00）,,
らんらんらんど 三沢店,三沢市松園町3-10-1 ビードルプラザ三沢店1F,,,,
モーリーファンタジー十和田店,十和田市大字相坂字六日町山166-1イオンスーパーセンター十和田店1F,,,,
ルック・ワールド,十和田市大沢田池ノ平124-2,R4沿い,,,
ユーズランド下田店,上北郡おいらせ町中野平40-1イオンモール下田内,R45沿い。公共交通は下田からのほうがいいでしょう（八戸からのバスは休日の運転が劇的に減っています）,旧：Ｆ．Ｗ．シーマーク青森下田店,,
モーリーファンタジー下田店,上北郡おいらせ町中野平40-1イオンモール下田内,同上,,,
H/T新七戸店,上北郡七戸町字荒熊内67番地990　イオン七戸十和田駅前店内,R4沿い。最寄駅は七戸十和田です,新規開店。ただしT/Sを名乗っていません,,
H/Tむつ,むつ市小川町2－4－8 マエダストア4Ｆ,R338沿い。公共交通では下北駅になります。,,,
パロむつ店,むつ市中央2-7-8,,,,
ラウンドワンスタジアム盛岡店,盛岡市盛岡駅西通2-1-35,,盛岡駅の裏,,
サンシャイン,盛岡市大通2-7-21ソレントビル 1F-2F,,閉店時間に注意,,
みらい夢津志田店,盛岡市津志田南３丁目１５－４５,,旧「DEAD BALL」、経営母体の倒産及び名義変更により改名,,
T/S盛岡南店,盛岡市津志田町2-1-77,R4沿い。公共交通なら盛岡からバス「津志田北」下車,旧：S/T盛岡南,,
T/S盛岡マッハランド店,盛岡市上堂1-2-38,IGR青山駅が最寄ですがバスのほうが楽?,旧：S/T マッハ,,
パロ盛岡店,盛岡市上堂4-13-14 ステーションパーク盛岡内,,,,
ソユーゲームフィールド盛岡南店,盛岡市本宮七丁目1番1号　イオンモール盛岡南1F,,イオンモール盛岡と間違えないように!!,,
プラサカプコン盛岡店,盛岡市前潟4-7-1　イオンモール盛岡2F,,イオンモール盛岡南と間違えないように!!,,
ゲームヴィクト盛岡,盛岡市大通2-6-11　日興産業ビル地下1階,,旧：ハイテクセガ盛岡25時まで営業,,
テクノワールド,奥州市江刺区愛宕梁川１２７−１,,同市水沢区佐倉河字後通41-1より移転,,
セガワールド水沢,奥州市水沢区佐倉河字鎧田4-1,,,,
アミューズメント Nexus(ネクサス),奥州市水沢区佐倉河道下26-1　アミューズメントボックスLIVE １F,4号線沿い,旧：ジャンボボウル,,
サンキング,奥州市水沢区字横町2番1号 メイプル 4F,,,,
G3ポロスイオンタウン北上店,北上市里分4-20-1,,旧：～ロックタウン～。母体店舗名の変更に伴い、名前が変わっています,,
グレア,北上市藤沢20-35,,,,
アミューズメントゾーン北上店,北上市本通り2-2-1 さくら野百貨店北上店4F,,,,
チャットタウン,北上市北鬼柳19-68 江釣子ショッピングセンターパル2F,,,,
ソユーファミリーゲームフィールド花巻店,花巻市高木16-68-6,,,,
ＢＩＮＧＯ一関店,一関市山目字中野92-1,,旧：セガワールド一関,,
Game's-11,滝沢市巣子123-1,R4沿い。盛岡からバス,,,
バギバギ,宮古市新川町3-17,宮古駅徒歩15分だがバスも可,被災したが1F含め再開,,
宮古総合レジャーランド,宮古市大通2-5-10,,,,
歌ジオあみい 大船渡店,大船渡市立根町岩脇23-1,,,,
パロ久慈店,久慈市長内町30-54-4 久慈ショッピングセンター 1F,久慈駅が最寄ですが、徒歩では20分以上,,,
アルコ,紫波郡矢巾町南矢幅7-140,矢幅駅が近いでしょう,,,
エスレ,紫波郡紫波町北日詰字東ノ坊64,,,,
オートスナックラベンダー,紫波郡紫波町北日詰字東ノ坊10-11,,,,
プレーゴ金ヶ崎,胆沢郡金ケ崎町三ケ尻荒巻165,R4沿い。六原駅が最寄ですが少し歩きます,,,
MS仙台南,仙台市太白区中田町杉の下34,JR東北本線 南仙台駅,,,
T/S仙台ベガロポリス店,仙台市太白区西多賀5-24-1 ベガロポリス内,,旧：TAC仙台,,
THE 3RD PLANET Bivi仙台店,仙台市宮城野区榴ヶ岡2-1-25,仙台駅東口,,,
セガ仙台コロナワールド,仙台市宮城野区福室字田中前1-53-1,産業道路南側,仙台にセガが返り咲き,,
アミューズパーク仙台港,仙台市宮城野区中野字田中106,JR仙石線 中野栄駅,,,
あそびのくに仙台港,仙台市宮城野区出花218カインズホーム仙台港店 1F,,,,
ラウンドワン仙台苦竹,仙台市宮城野区苦竹1-7-10,JR仙石線 苦竹駅,,,
ビーカム 松森店,仙台市泉区松森字斎兵衛58-1,,元アクライム泉店、パインズ,,
MS仙台泉,仙台市泉区松森字斎兵衛58-9,仙台市営地下鉄 南北線黒松駅,,,
スイーツ・ハートイオンタウン仙台泉大沢,仙台市泉区大沢1-5-1イオンタウン仙台泉大沢 2F,東北自動車道 泉JC付近,,,
GAME BANK 泉店,仙台市泉区大沢2-5-4,龍泉寺の湯　仙台泉店の横,駐車場あり,,
namcoアリオ仙台泉店,仙台市泉区泉中央1-5-1　5F,地下鉄泉中央駅,Ario駐車場あり,,
namcoヨークタウン市名坂店,宮城県仙台市泉区市名坂字中道100-9,免許センター近く,,,
モーリーファンタジー仙台中山,仙台市泉区南中山 1-35-40イオン仙台中山SC 3F,JR仙山線 北山駅,,,
ミラクルポケット,仙台市泉区八乙女中央1-1-6,,名取市に移動,,
ゲームコーナー東部,仙台市若林区六丁の目中町26-60,産業道路北側,駐車場あり営業は24時まで。,,
GAME epris,仙台市青葉区中央1-7-2,名掛丁アーケード,全席禁煙。旧ジョイランド金ちゃん。,,
T/S仙台名掛丁店,仙台市青葉区中央1-7-13,名掛丁アーケード,旧：ZOOOP,,
T/S仙台クリスロード店,仙台市青葉区中央2-3-6,クリスロード商店街,旧：T/S仙台,,
プレイランドF1R,仙台市青葉区中央2-6-6 ダイヘイビルB1,名掛丁アーケード,プレイランドF1とはオペレータが違います,,
namco仙台一番町店,仙台市青葉区一番町4-2-10 東映プラザ BF,一番町アーケード,"旧：シルクハット仙台店,NL仙台一番町店",,
仙台レジャーランド一番町店,仙台市青葉区一番町4-3-27,一番町アーケード,旧：AD仙台一番町店,,
わいわいランド石巻あけぼの,石巻市あけぼの1-1-2イトーヨーカドー石巻あけぼの店 2F,JR仙石線 蛇田駅,,,
プラザカプコン石巻,石巻市茜平4-104イオンモール石巻 2F,,,,
セガワールド石巻,石巻市門脇字東上野町3-16,,,,
モーリーファンタジー石巻東,石巻市流留字七勺1-1イオン石巻東SC 1F,JR石巻線 万石浦駅,,,
モーリーファンタジー塩釜,塩竈市海岸通15番100号イオンタウン塩釜2F,仙石線本塩釜駅すぐそば,,,
プライズハンター塩釜杉の入,塩釜市杉の入3-3-1-宮城生協杉の入店2F,,,,
遊楽館ジョイフル,宮城県気仙沼市田中前3-8-12,BRT南気仙沼駅,,,
モーリーファンタジー気仙沼,気仙沼市赤岩舘下6-1外イオン気仙沼店　2F,,,,
ロッキーワールド 仙台空港店,名取市下増田字南原,,,,
namcoイオンモール名取,名取市杜せきのした5-3-1イオンモール名取2F,仙台空港鉄道「杜せきのした駅」,駐車場あり,,
モーリーファンタジー新名取,名取市杜せきのした5-3-1イオンモール名取 イオン新名取店3F,,,,
セガ名取セッツウイングス,名取市飯野坂土城堀57-1,４号バイパス上り沿い,旧：SWセッツウィングス,,
ラッキーボックス 名取店,名取市田高字沢目110,４号バイパス下り沿い,駐車場あり,,
こころっこ名取,名取市愛島塩手字前野田48-10ホームセンタームサシ名取店2F,JR東北本線 名取駅,,,
アミューズパーク名取りんくう,名取市美田園6-24,,,,
MS多賀城,多賀城市明月1-168-1万代多賀城店1F,,,,
モーリーファンタジー多賀城,多賀城市町前4-1-1イオン多賀城店3F,,,,
セガワールド佐沼,登米市迫町佐沼字中江2-5-8,,,,
ファミリーランド加賀野,登米市中田町石森字加賀野3-6-1みやぎ生協加賀野店1F,,,,
プラサカプコンイオンタウン佐沼,登米市南方町新島前46-1イオンタウン佐沼1F,,,,
モーリーファンタジー栗原志波姫,栗原市志波姫新熊谷11イオン栗原志波姫SCイオンスーパーセンター栗原志波姫店1F,,,,
ロードインオアシス高清水,栗原市高清水大沢1-1,,ドライブイン,,
セガワールド古川,大崎市古川字城西15,,,,
PALO古川,大崎市古川沢田字筒場浦82番外イオンタウン古川 ザ・ビッグ古川店1F,,,,
プレイスペーストップ,大崎市古川江合寿町3-6-2,,,,
モーリーファンタジー古川,大崎市古川旭2-2-1イオン古川店2F,,,,
ユーズランド大河原,柴田郡大河原町小島2-1フォルテくらし館2F,,,,
アミューズメントパークサムワン,柴田郡村田町大字沼辺牡丹山42-1,,サムワンはセガのお店ではない,,
テイクゼロ サンコア店,柴田郡柴田町西船迫2-1-15 サンコア内,,,,
ビッツ,柴田郡大河原町小島3-1 SCフォルテ楽し館 1F,,,,
ニコニコキッズランド中新田店,加美郡加美町中新田字大門93,,,,
namcoイオンモール利府店,宮城郡利府町利府字新屋田前22 イオンモール利府2階,,旧：NL利府店,,
スーパーノバ 仙台利府店,宮城郡利府町加瀬字新前谷地55-1 利府ペアガーデン内,,,,
ロードインオアシス 大衡店,黒川郡大衡村大衡字はぬ木125,,一部、24時間営業EMBED採用,,
ペニーポット,秋田市中通2-8-1 フォンテAKITA 4F,,旧イトーヨーカドー秋田店,,
プレイランドソピア 御所野店,秋田市御所野地蔵田111 イオンモール秋田,,,,
さとみ温泉,秋田市添川境内川原142-1,,,,
ポート秋田,秋田市土崎港西1-9-1,,,,
ロックンボウル,秋田市広面字長沼31,秋田駅徒歩14分,,,
ラウンドワンスタジアム秋田店,秋田市卸町1-1-2,R13沿い。羽後牛島駅から徒歩14分,土休は9:00から（秋田県ではゲームセンターの日の出営業は禁止）秋田駅東口からの送迎バスの利用も考慮に,,
セガワールド秋田,秋田市茨島1-3-1,R13沿い。秋田からバス「川元小川町」下車徒歩4分,改装後もセガワールドです。,,
ビッグワールド横手店,横手市前郷字在家69-4,,,,
キッズパーク リスコ,横手市雄物川町沼館字佐田25,,,,
プレイランドソピア 十文字店,横手市十文字町仁井田海道東22-1 スーパーモールラッキー,十文字駅が最寄,,,
ファンタジア大曲店,大仙市大曲通町8-31,,,,
プラサカプコン大曲店,大仙市和合字坪立177イオンモール大曲2F,,,,
プレイランドソピア能代店,能代市寺向70 いとくアクロス能代店内,,,,
大館メルヘンランド,大館市御成町3-7-58 いとくSC内,大館駅は比較的近隣,,,
namcoイオンタウン大館西店,大館市下戸新町18-121,R7沿い。公共交通は大館からバス,旧：NL大館店,,
ファンタジア男鹿店,男鹿市船越字内子247-1,,,,
ファンタジア本荘店,由利本荘市出戸町岩渕下103,,,,
ソユープレイランドソピア鹿角店,鹿角市花輪字下夕町164 いとく鹿角SC,鹿角花輪駅が最寄ですが…,,,
秋北プラザ,北秋田市花園町2-32,,,,
やすだ,南秋田郡八郎潟町上沖谷地67,,,,
キッズランド にしもない店,雄勝郡羽後町字南西馬音内213,,,,
Be-come成沢店,山形市成沢西5-3-27,,,,
Spoint,山形市小白川町1-1-10,,,,
カレッジスクエア,山形市小白川町1-1-7,,,,
セガワールド北山形,山形市北町1-3-20 Be-in内,北山形駅から近い,,,
namcoイオンモール山形南店,山形市若宮3-7-8イオンモール山形南2F,,旧：NLジャスコ山形南店,,
モーリーファンタジー山形南店,山形市若宮3-7-8イオンモール山形南2F,,イオン棟の中です,,
ヤマコーボウル,山形市香澄町3-2-1,,,,
ゲームゾーントレジャー北町店,山形市北町2-2-45,,,,
ゲームゾーントレジャー吉原店,山形市大字前明石1352-5 Be-in2内,,,,
パルケデアミーゴ,山形市嶋北1-3-1,,,,
わくわくランドバイパス店,山形市上山家町760-1ヤマザワバイパス店内,,,,
モーリーファンタジー山形北店,山形市馬見ケ崎2-12-19イオン山形北店2F,,イオン棟の中です,,
セガワールドヨーク山形,山形市浜崎67,,,,
ネクスト・ワン米沢店,米沢市金池5-3-18,,,,
セガワールド米沢,米沢市大字花沢字タナコ原177,,,,
プレビプレイランドコーナー米沢店,米沢市駅前3-1-18ヨークベニマル米沢店内,,,,
モーリーファンタジー米沢店,米沢市春日2-13-4イオン米沢店2F,,,,
ナムコランド S-MALL店,鶴岡市錦町2-21 S-MALL 2階,,,,
アピナ鶴岡店,鶴岡市文下字広野1-1,,,,
わくわくランドくしびき店,鶴岡市丸岡字鳥飼121-2ヤマザワくしびき店内,,,,
遊パラダイス,酒田市泉町214 イオンタウン内,,,,
モーリーファンタジー酒田店,酒田市あきほ町120-1イオン酒田南店1F,,,,
ズーム21,新庄市沖の町6-6,,,,
ゲームゾーントレジャー新庄店,新庄市金沢字沖1068ゼスト新庄店内,新庄駅,,,
プレビジョイカム新庄店,新庄市金沢字吉袋853-3ヨークタウンアクロスプラザ新庄内,新庄駅,,,
わくわくランド新庄店,新庄市金沢2033-4ヤマザワ新庄店内,,,,
スーパーノバ天童,天童市南町1-5-26,,,,
ソユーゲームフィールドイオンモール天童店,天童市芳賀土地区画整理事業地内34街区イオンモール天童専門店棟2F]],,2014年3月開店予定区画整理中なので住所はこの通りです,,
モーリーファンタジー天童店,天童市芳賀土地区画整理事業地内34街区イオンモール天童イオン棟2F]],,2014年3月開店予定区画整理中なので住所はこの通りです,,
モーリーファンタジー東根店,東根市さくらんぼ駅前3-7-15イオン東根店2F,さくらんぼ東根駅ですがそう近くはありません,,,
わくわくランド上山店,上山市南町3-37 ヤマザワ上山店内,,,,
ロッキーワールド南陽店,南陽市郡山578,,,,
ソユープレイランドソピア三川店,東田川郡三川町大字猪子字和田庫128外 イオンモール三川1F,,,,
モーリーファンタジー三川店,東田川郡三川町大字猪子字和田庫128-1 イオンモール三川2F,,,,
AGスクエア庄内店,東田川郡三川町大字猪子字大堰端326-6,,,,
THE 3RD PLANET ピポット福島店,福島市栄町1-1 パワーシティピボット内,福島駅新幹線高架の下!!,ピボット駐車場３時間無料,,
セガワールド福島,福島市本内中井6-1,４号線、鎌田,,,
スーパーノバ福島,福島市黒岩字中島7-2,４号線、黒岩,,,
アミューズパーク福島店,福島市黒岩字堂の後78,,,,
ディノスパーク南福島店,福島市黒岩字中沖43-2,,,,
ラウンドワンスタジアム福島店,福島市太田町14-18,福島駅徒歩4分,(一部)深夜営業あり,,
モーリーファンタジー福島,福島市南矢野目字西荒田50-17イオン福島店3F,,,,
万SAI堂福島,福島市黒岩字浜井場5-1,,,,
SUPER NOVA会津インター店,会津若松市町北町大字上荒久田字宮下142,,,,
ファミリーランドカーニバル,会津若松市中町3-53,,,,
プリプリステーション,会津若松市栄町1-25,,,,
アミューズパーク会津店,会津若松市神指町大字南四合幕内503-2,西若松駅,,,
大江戸温泉 あいづ,会津若松市神指町北四合字東神指77-1,会津若松駅からバス,,,
スイーツファクトリーパックン会津若松,会津若松市神指町大字南四合字幕内南154アピタ会津若松店2F,西若松駅,,,
パロ喜多方店,喜多方市字押切南2-42-1,喜多方駅徒歩15分,,,
キラキラAsoboxイオン塩川店,喜多方市塩川町小府根字曽谷田1イオンタウン塩川,姥道駅,,,
マジカルランド郡山駅前店,郡山市駅前1-16-7 アティ 8F,,,,
TFS郡山アティ店,郡山市駅前1-16-7 アティ 7F,,旧：H/T郡山アティ直営からFC店に移行,,
ドリームファクトリーN2,郡山市八山田5-228サウススクェアビル3F,,ALL.Netゲーム機での「DFN2」はこのお店です。,,
フリーダム,郡山市徳定字下河原77-1,,,,
namcoイオンタウン郡山店,郡山市松木町2-88,,旧：ナムコランドイオンタウン郡山店,,
namco郡山西部プラザ店,郡山市西ノ内2-11-35 西部プラザ内,,旧：ナムコランド郡山西店,,
ゲームプラザAGS,郡山市西ノ内2-11-40,イトーヨーカドー郡山店4階,旧：セガワールド郡山,,
東洋健康センター,郡山市善久田町字松ケ作15-1,,,,
TAC 郡山,郡山市安積町荒井字南千保40,,「TAC」という名前は全国唯一になりました。フランチャイズ店舗ですがTFS…ではありません,,
アミューズパーク郡山店,郡山市安積町日出山2-80,,,,
鈴屋,郡山市西田町太田字金堀131-1,,,,
セガ日和田,郡山市日和田町字西中島7-1,,旧：セガワールド日和田,,
アミューズパーク郡山バイパス店,郡山市静町2-1,,,,
セガワールド小名浜,いわき市小名浜林城字塚前18-1,,,,
セガワールド勿来,いわき市勿来町四沢字鍵田13,勿来駅徒歩7分,,,
ドリームファクトリーいわき,いわき市中央台飯野4-1,,,,
アミューズパークいわき店,いわき市常磐関船町宮下4-1,,,,
アミューズパークいわき神谷店,いわき市平下神谷字馬洗7-1,,,,
スポルト平,いわき市平字正月町61-3,いわき駅が近いです,,,
嶺宝スポーツセンター,いわき市小名浜住吉折返2-2,,,,
H/Tイオンいわき店,福島県福島県いわき市平字三倉６８－１　イオンいわき店3F,,,,
こころっこ平店,いわき市平6-6-2イトーヨーカドー平店内,いわき駅,,,
らくだのせなか鹿島エブリア店,いわき市鹿島町米田字日渡5鹿島エブリアショッピングセンター2F,,,,
あひるのたまご泉店,いわき市泉町滝尻町折返57ヨークベニマルいわき泉店内,,,,
ちびっこザウルス,いわき市小名浜大原字東田96ヨークタウンアクロスプラザ大原店1F,,,,
セガワールド白河,白河市新高山1-1,新白河駅徒歩10分,,,
G3ポロス原町店,南相馬市原町区北原字本屋敷188,,,,
エンターテイメントスタジオ須賀川店,須賀川市古河87,,,,
G3ポロス船引店,田村市船引町船引字川代105,,,,
あひるのたまご猪苗代店,耶麻郡猪苗代大字梨ノ木西92ヨークベニマル猪苗代店内,,,,
プレビジョイカム塩川店,耶麻郡塩川町大字小府根字,,,,
ゲームスペースA-3,西白河郡西郷村字豊作西15-16-17,新白河駅徒歩6分,白河市ではありません,,
ファンタジー浪江,双葉郡浪江町幾世橋斉藤屋敷41-2,,避難指定地域,,
ジョイプラザ,双葉郡浪江町上川原88サンプラザ内,,避難指定地域,,
ファンタジープラザ,茨城県水戸市上水戸２丁目９−１０　MEGAドン・キホーテ 上水戸店,R50松ヶ丘交差点入る,,,
ピンクパンサー水戸けやき台店,水戸市酒門町3276−1,R6酒門町交差点,,,
セガ水戸,水戸市宮町1-7-44　コムボックス310 3F,水戸駅南口前,,,
ピンクパンサー水戸赤塚店,水戸市河和田1-1,JR常磐線赤塚駅フレスポ赤塚内,,,
ユーズランド水戸内原店,水戸市中原町字西135イオンモール水戸内原2F,,,,
モーリーファンタジー水戸内原店,水戸市中原町字西135イオンモール水戸内原3F,,子供向け,,
水戸鑑定団,水戸市大塚町１５９０,R50,プライズマシンあり,,
スタジオプリモ水戸店,水戸市宮町1-2-4 マイム 1F,水戸駅北口前,,,
北茨城バッティングセンター,北茨城市大津2688,国道6号線沿い,,,
大子マギーゴ,久慈郡大子町池田森平1598-2,R118,,,
アミューズメントパーク,常陸太田市金井町２９１８ ゲオ常陸太田店内,,プライズのみ,,
ゆうゆうランド,常陸大宮市下村田２３８７　ジャスコ常陸大宮店,R118,,,
セガワールド日立,日立市田尻町3-26-1,,,,
ピンクパンサー日立店,日立市東多賀町5-10-10,JR常陸多賀駅西口から徒歩10分,,,
こころっこ日立店,日立市幸町1-16-1イトーヨーカドー日立店5F,,,,
こころっこ日立城南店,日立市城南町3-4-3ゼビオ日立城南店2F,,,,
夢大陸 日立南店,日立市森山町４丁目１０−３２,国道6号線沿い,プライズのみ,,
日立ボウルクレーン,茨城県日立市鮎川町６丁目７−２５,国道6号線沿い,,,
K-1 BOWL日立店,日立市石名坂町2-2-10,国道6号線沿い日立南大田IC下り北上し3km,プライズ、パチスロのみ旧からしまボウル日立店,,
モーリーファンタジー東海店,那珂郡東海村舟石川駅東４丁目１番１号 イオン東海店2F,JR東海駅そば,子供向け,,
ドリームランド,那珂市菅谷1618-2,R6工業団地入口交差点を西へ,旧：セガワールド那珂→タクトワールド,,
アミューズビバ,ひたちなか市東大島2-11-11 ミナミボウル,勝田駅東口より北へ1km,旧：ハイテクランドセガ ミナミスポーツプラザ,,
JAMJAMひたちなか本店・本館,ひたちなか市田中後40-11,,本店と新館は隣接しているが法的にも明らかに別店舗,,
JAMJAMひたちなか本店・新館,ひたちなか市田中後40-2,,本店と新館が隣接,,
ぷれいらんど３７３勝田店,ひたちなか市石川町１−１　メガドンキホーテ2F,勝田駅そば,,,
プレイランド　ＰＩＣＯ,茨城県ひたちなか市栄町2-13-25 ピアポート,那珂湊駅から徒歩10分,小さなゲームコーナー,,
セイミヤ馬渡店,茨城県ひたちなか市大字馬渡2563−1,,子供向けの小さなゲームコーナー,,
勝田パークボウル,ひたちなか市田彦1600 2F,田彦二本松交差点角,一角に小さなゲームコーナー,,
らんらんらんど 城里店,東茨城郡城里町大字那珂西1427-4 城里ショッピングプラザ,,,,
TFSイオンタウン水戸南店,東茨城郡茨城町長岡3480-101,イオンタウン水戸南内,旧：ザ・ロック水戸南,,
イオンタウン水戸南ゲームコーナー,東茨城郡茨城町長岡3480-101,フードコート脇,管理はTFSイオンタウン水戸南店,,
ゆにろーず友部店,笠間市友部町小原字前田4437-1,,,,
ピンクパンサー友部店,笠間市,,,,
ゆにろーず 茨城T.S店,小美玉市西郷地1390,R6,ラーメン+ゲームコーナー,,
AGスクエア石岡店,石岡市東大橋中峯1976-1,,,,
こころっこ石岡店,茨城県石岡市大字石岡2752−2 イオン石岡店2F,,,,
ゆにろーず千代田店,かすみがうら市千代田町上稲吉1986,R6,ラーメン+ゲームコーナー,,
千代田スポーツセンター,かすみがうら市千代田町下稲吉字大塚1624-11,R6下稲吉交差点から県道197,,,
お宝あっとマーケット土浦店,かすみがうら市千代田町下稲吉2654-1,R6,,,
フエゴワールド新治店,土浦市大畑風谷1611さんあぴお,R125,旧H/T 新治,,
森の散歩道 土浦店,土浦市木田余4585-3 木田余ショッピングモール,日立電線の裏,,,
プラサカプコン土浦店,土浦市真鍋2-1-29,JR土浦駅より徒歩20分バス7分車5分,,,
楽市楽座 イオン土浦ショッピングセンター店,土浦市上高津367イオンモール土浦3F,JR土浦駅から直通バスで10分,ワイドレジャー最東端。店舗名は～イオン土浦ショッピングセンター店,,
ファンタジーアイランド,土浦市上高津367　イオン土浦,,,,
ポマト,土浦市中1078,R6,,,
ゲームパニックつくば,土浦市中村東1-1-1 サンタスワールド内,,,,
ゲームグース つくば店,つくば市小野崎字千駄苅278-1LALAガーデンつくば2F,,旧プラザカプコンつくば店,,
フエゴワールドつくば店,つくば市大字上横場2143ショッピングセンターアッセ2F,R354,旧H/T つくば,,
ピンクパンサー つくば店,つくば市小野崎177-2,R408 TXつくば駅,,,
JAMJAM つくば店,つくば市竹園1-9-2デイズタウンつくばB1F,TXつくば,,,
ナムコランドイーアスつくば店,つくば市研究学園C50街区1イーアスつくば2F,TX研究学園駅,,,
ゆにろーずつくば店,つくば市小田4781,R125,ラーメン+ゲーム,,
namcoイオンモールつくば店,つくば市稲岡66-1イオンモールつくば専門店棟3F,つくば駅からバス,,,
モーリーファンタジーつくば店,つくば市稲岡66-1イオンモールつくばイオン棟3F,つくば駅からバス,,,
ピンクパンサー みらい平店,つくばみらい市小張3095,TXみらい平駅,,,
お宝鑑定館牛久店,茨城県牛久市さくら台４丁目３８−８,,プライズマシンあり,,
ぐるぐる大帝国牛久店,茨城県牛久市栄町３丁目１３６−１,,プライズマシンあり,,
ジョイプラザ龍ヶ崎店,龍ヶ崎市小通幸谷町288 Qizモール,常磐線佐貫駅,,,
セガワールド龍ヶ崎,茨城県龍ケ崎市藤ケ丘4-2-8,,,,
らんらんらんど 取手店,取手市新町1-9-1 取手とうきゅう 6F,,,,
ゆにろーず取手店,取手市桑原1224041,R6,,,
アピナ下館店,筑西市玉戸1012,,,,
ピンクパンサー結城店,結城市結城10520-1,,旧：ピン・パン・デュオ,,
ピンクパンサー下妻店,下妻市小島884-10,,,,
GAME GOOSE下妻店,茨城県下妻市堀籠972-1 イオンモール下妻2F,,,,
ゲームパドック+1,古河市小堤1916-1,,,,
ジャンボリー古河店,古河市雷電町1-18イトーヨーカドー古河店内,,←プレイランドプレビ古河店,,
モーリーファンタジー古河店,古河市旭町1-2-17 イオン古河店2F,,,,
ピンクボム三和店,茨城県古河市諸川１２２４,,,,
FESTA古河店,古河市松並2-18-10,,旧：THE 3RD PLANET古河店,,
TFSヨークタウン坂東店,坂東市辺田字原新1104-1,,旧：AMPLEX坂東,,
ザ・ゴリラ 石下店,常総市本石下字松並4421-1 アピタ石下店2F,石下,,,
アミューズメント・ソアル,茨城県守谷市御所ケ丘2丁目11-12,新守谷駅,新守谷駅から歩いてすぐ。,,
らんらんらんど 行方店,行方市麻生3288-50 セイミヤ麻生店1F,,,,
ゆにろーず 鹿嶋店,茨城県鹿嶋市小山５９５−１,R51,ゲーセン+ラーメン店,,
宝島 鹿嶋店,鹿嶋市宮中290-1,,イオン内,,
ジャンボリー潮来ＳＣ店,潮来市潮来前6065アイモア潮来ショッピングセンター内,,←プレイランドプレビ潮来店,,
ジャンボリー牛堀ＳＣ店,潮来市永山沼田777ララルー牛堀ショッピングセンター内,,←プレビランドジャンボリー,,
茨城鑑定団神栖店,茨城県神栖市大野原２丁目１１−５,,プライズマシンあり。,,
スポーツランドＫＹ,神栖市筒井1470-32,,バッティングコーナーにゲーム機少々。,,
JAMJAM 神栖店,神栖市神楢1-8-1,潮来ICから約10分,,,
チアフル,神栖市知手中央2-4-27,,駄菓子店。奥にゲーム機少々。,,
ゆにろーず角崎店,稲敷市新利根町角崎1649-15,国道408号線 角崎交差点際,ゲーセン+ラーメン,,
T/S佐原東店,稲敷市西代1495 パルナ(アピタ)2F,,旧：H/T佐原東,,
こころっこJ’S新利根ＳＣ店,稲敷市角崎1678新利根ショッピングセンター内,,←プレイランドプレビ新利根店,,
セガ霞ヶ浦,稲敷市西代1473-1,,旧：セガワールド霞ヶ浦,,
プレイランド 54ストリート,猿島郡境町122 T-PLACE内2F,,,,
ゆにろーず旭店,鹿島郡旭村樅山592-1（鉾田市樅山592-2か?）,,,,
テクモピア ロックダム・インターパーク店,宇都宮市インターパーク6-1-1 FKDショッピングモールインターパーク店2F,北関東自動車道宇都宮上三川IC近く,,,
インターパークプラスワン,宇都宮市インターパーク6-5-1,北関東自動車道宇都宮上三川IC近く,,,
T/S宇都宮ベルモール店,宇都宮市陽東6-2-1 ベルモール宇都宮2F,,旧：ラクガキ王国in宇都宮,,
ハーマン御幸店,宇都宮市御幸町2891,JR宇都宮駅から北東に3km,シングルロケ,,
極楽湯 宇都宮店,宇都宮市御幸本町4880,,シングルロケ,,
E3陽東店,宇都宮市陽東2-6-2,,ベイシア前,,
らんらんらんど宇都宮店,宇都宮市睦町5-5 スーパーセンタートライアル宇都宮店1F,,,,
シーサイドリゾートAMP,宇都宮市睦町7-3,鹿沼街道トライアル近く,朝4時まで営業,,
ハッピープラス,宇都宮市駅前通り1-4-6ララスクエア宇都宮B1F,,,,
BeeHive,宇都宮市曲師町2-18宇都宮フェスタB1F,,,,
アミューズメントスペース,宇都宮市江野町2-10,オリオン通り沿い,AMUSEMENT TATSUMIのこと?,,
アミューズメント ヒカリ,宇都宮市江野町7-13 プラザヒカリ1F,東武宇都宮駅徒歩2分,,,
モアイ宇都宮店,宇都宮市馬場通り2-3-12 ラパーク長崎屋B1F,,21時まで営業,,
セガワールド宇都宮,宇都宮市東宿郷5-1,宇都宮駅東口徒歩10分,,,
遊:ING,宇都宮市石井町下平出境2707-4,,,,
プラボ宇都宮店,宇都宮市簗瀬町1606-1 フェドラP&Dビル,国道4号沿い・宇都宮中央卸売市場近く,,,
モアイ,宇都宮市川田町1000-1 ソーレ21,,旧グッドヒル,,
ラウンドワン 宇都宮店,宇都宮市江曽島町2072-1,宇都宮駅から送迎バスあり,,,
オータニ江曾島店,宇都宮市江曽島町1062-1,,シングルロケ,,
ファンタジーランド ガルー,宇都宮市江曽島本町22-7　アピタ宇都宮店,,,,
ヨークベニマル若松原店,宇都宮市北若松原1丁目14-15,,シングルロケ,,
テクモピアパルテロン宇都宮店,宇都宮市今泉町2371福田屋ショッピングプラザ,,,,
ザ・グランドスパ南大門,宇都宮市今泉町3-2-18,,シングルロケ,,
宇都宮第二トーヨーボウル,宇都宮市鶴田町3430-3,,,,
ランドサービス,宇都宮市上金井552　宇都宮動物園内,,,,
ジャンボリー岡本店,宇都宮市下岡本2123-1 とりせん岡本店内,,←プレイランドプレビ 岡本店,,
ジャンボリー御幸ケ原店,宇都宮市御幸が原50-1 ヨークベニマル御幸ヶ原店内,,←プレイランドプレビ 御幸ヶ原店,,
氏家バッティングセンター,さくら市桜野921-8,,シングルロケ,,
オータニ 喜連川店,さくら市喜連川323,,シングルロケ,,
パロ石橋店,下野市下古山北原3362-1 ヨークタウン石橋店内,「下古山入口」バス停徒歩1分,,,
BAZZ,国分寺町医大前3-1-1,,,,
かましん石橋店,石橋町石橋649,,,,
セガワールド小山,小山市東城南1-1-18,国道50号線南側,アピナ小山ははす向かい,,
TFS小山店,小山市喜沢1475-172ハーベストウォーク内,,2014年2月開店,,
アピナ小山店,小山市駅南町4-27-18,国道50号沿い,SW小山はす向かい,,
こころっこJ’S小山店,小山市駅東通り2-3-15 イトーヨーカドー小山店内,,←プレイランドプレビ 小山店,,
あぐりーず小山店,小山市中央町3-7-1 ロブレ専門店街5F,小山駅西口駅ビルVALと直結,,,
KOKADO TOWN　小山店,小山市中久喜１４６７－１,県道33号,イオン小山,,
モーリーファンタジー,小山市中久喜１４６７－１,県道33号,イオン小山,,
ピンクボム間々田,小山市大字間々田807,R4,ファミリーＢＯＯＫ間々田店,,
アーバンスクエア安佐エース店,佐野市堀米町614-8,東武堀米駅徒歩7分,,,
ハーマン佐野店,佐野市大橋町3183-2,県道270号線沿い,,,
ゲームパニック佐野,佐野市高萩町52 フェドラP&D 1F,イオンモール佐野新都市の隣,現在は大家のブルーヒルズが経営,,
T/S佐野新都市店,佐野市高萩町1324-1 イオンモール佐野新都市専門店街2F,,旧：H/T佐野新都市、T/Sイオン佐野新都市店,,
E3栃木店,栃木市平柳町2-26-26,県道2号線沿い,,,
グッドヒル栃木店,栃木市万町9-25 福田屋百貨店栃木店3F,,,,
ジャスコシティ栃木店,栃木市箱森町 38-40,,,,
ROUND 1 栃木・樋ノ口店,栃木県栃木市樋ノ口町55番地1,,,,
足利ファンタジークラブ,足利市大前町841,,,,
ドラマ足利店,足利市朝倉町244-1,,,,
E3足利店,足利市上渋垂町905,上渋垂町交差点角,,,
大リーグバッティングスタジアム,足利市元学町826,足利市総合運動場近く,,,
サンライズスポーツ,足利市鹿島町820,県道67号線沿い,,,
PALO足利店,足利市朝倉2-21-16 ヨークタウン足利店 1F,県道293号線沿い,,,
ドリームファクトリー アロハ！,鹿沼市睦町字西城下287-1,ビバモール鹿沼店(旧イトーヨーカドー鹿沼店)内,,,
鹿沼トーヨーボウル,鹿沼市千手町2501,,ヤングボウル,,
テクモピア鹿沼店,鹿沼市東末広町1073　福田屋鹿沼店3階,,旧：グッドヒル鹿沼店,,
セガ今市,日光市芹沼1448-1 センショープラザ内,国道461号線沿い,旧：SW今市,,
モーリーファンタジー,日光市豊田79-1,,イオン今市,,
日光市営霧降スケートセンター,日光市所野2854,,,,
ランランド,日光市今市456 ショッピングプラザ日光,,かましんの入っているビル,,
あさやホテル,日光市鬼怒川温泉滝813,,シングルロケ,,
鬼怒川グリーンパレス,日光市鬼怒川温泉滝857-15,,シングルロケ,,
鬼怒川パークホテルズ,日光市鬼怒川温泉大原1409,,シングルロケ,,
鬼怒川グランドホテル,日光市鬼怒川温泉大原1021,,シングルロケ,,
鬼怒川第一ホテル,日光市藤原2,,シングルロケ,,
鬼怒川温泉ホテル,日光市鬼怒川温泉滝545,,シングルロケ,,
あひるのたまご矢板店,矢板市富田168-1ヨークベニマル矢板店内,,,,
らんらんらんど大田原店,大田原市山の手2-15-1 トライアル大田原店1F,,,,
E3大田原店,大田原市美原1-3539-109,,,,
王冠ボウル,大田原市美原1-16-18,,,,
大田原スポーツランド,那須塩原市一区町104,大田原ゴルフセンター入口付近,,,
ファンタジーパーク,那須塩原市二区町352-7,国道4号線 那須自動車学校入口,,,
メディアランド西那須野,那須塩原市下永田1-1009-5,,,,
E3西那須野店,那須塩原市太夫塚1-195,国道4号線西三島交差点を西那須野駅方面,,,
セガ西那須野,那須塩原市南郷屋2-106-27,,旧：セガワールドクロノス旧西那須野町,,
ゲームパーク,那須塩原市末広町64-62,,,,
ゆかいらんど,那須塩原市若葉町66-75,,,,
黒磯ボウル,那須塩原市若葉町66-75,,,,
アミューズメントブーム,那須塩原市下赤田7-7,,,,
ホテルニュー塩原ゲームコーナー,那須塩原市塩原705,,シングルロケ,,
ホテル松屋ゲームコーナー,那須塩原市塩原168,,シングルロケ,,
ホテル明賀屋ゲームコーナー,那須塩原市塩原270,,シングルロケ,,
かもしか荘ゲームコーナー,那須塩原市塩原1256,,シングルロケ,,
明賀屋本館ゲームコーナー,那須塩原市塩原353,,シングルロケ,,
祇園原バッティングセンター,河内町薬師寺3398,,,,
ホテルサンバレー那須,那須町湯本203,,シングルロケ,,
ホテルサンバレーフォレストビラ,那須町湯本203,,シングルロケ,,
ホテルエピナール那須,那須町高久丙1,,シングルロケ,,
茂木健康温泉,茂木町町田2031,,シングルロケ,,
南平台観音湯,馬頭町小口1712,,シングルロケ,,
那須ホテル,那須町,,シングルロケ,,
namcoけやきウォーク前橋店,前橋市文京町2-1-1,けやきウォーク2F,旧：NLダルマトピア,,
ハローズガーデン前橋店,前橋市文京町2-1-1,けやきウォーク2F,アピタ側,,
ROUND1スタジアム前橋店,前橋市天川大島町1101-1,県道2号 松並木沿い前橋大島駅徒歩6分,,,
Ｍ－１,前橋市国領町2-200-6,国道17号線 前橋リリカ向かい,旧：アミュージアム前橋,,
マトリクス前橋,前橋市小相木町558,快活CLUB 新前橋店(旧・文真堂)の横,旧：S/T新前橋、ボストン系列,,
シティ大友,前橋市大友町3-7-3,国道17号線「NHK前」信号北,元シティボストン,,
EauRouge,前橋市西片貝町1-319-3,,ドライブイン形式の店舗のようです,,
前橋バッティングセンター,前橋市天川大島町128,県道2号 松並木沿い,,,
BREAK,群馬県前橋市荒牧町649-4,国道17号沿いフレッセイと丸亀製麺の裏の昔まねきねこだったとこ,小、旧住所：群馬県前橋市北代田町649-4から移転,,
MMC 大胡西店,前橋市堀越町234-1,県道3号沿い,,,
MMC H2O,前橋市富士見町時沢100-1,,旧：オレンジハット前橋北,,
モーリーファンタジー,前橋市小屋原町472-1 ガーデン前橋,駒方バイパス,旧ハッピープラス,,
プレイランド,前橋市新堀町18,,パワーモール前橋みなみ,,
ユーズランド高崎,高崎市棟高町1400番地,イオンモール高崎２階,,,
モーリーファンタジー高崎店,高崎市棟高町1400番地,イオンモール高崎3階,,,
モーリーファンタジー倉賀野店,高崎市倉賀野町4691-1,ミスターマックス倉賀野店1F,旧らんらんらんど倉賀野店,,
住商高崎ナムコランド,高崎市中尾町字鳥羽前44-1,前橋ICそば アカマル2F,アカマルナムコランドとも言います,,
大栄ホール,高崎市新紺屋町45,,,,
ハローズガーデン,高崎市矢中町字渕ノ内668-1,アピタ高崎店内,旧ドリームタウン,,
群馬レジャーランド高崎駅東口店,高崎市江木町333-1 2F,高崎駅徒歩15分,,,
THE 3RD PLANET 高崎店,高崎市下和田町5-3-8,メディアメガ高崎内 JR高崎駅徒歩1分,,,
プレイタウン,高崎市島野町701-1,,,,
ラッキー,高崎市下小塙町1616,,,,
ドライブイン アクエリアス,高崎市綿貫町297-1,群馬の森近く,,,
ゲームセンター コルソ,高崎市棟高町1868,県道10号沿い,,,
100円ランド,高崎市北原町15-1,,元AMペペ北原店？,,
榛名スポーツセンター,高崎市中里見町173-1,パワーセンター向かい側,,,
わくわくらんど,高崎市中里見町373,はるなパワーセンター内,,,
めだまや高崎店,高崎市江木町30-1,高崎駅東口すぐ,,,
万代書店高崎店,高崎市上中居町239-2,,プライズマシン多数,,
アピナ太田店,太田市内ヶ島町907-1,富士重工近く,大；バッティングセンター併設,,
エブリデイ太田店,太田市飯田町1404-1 ドン・キホーテ太田店,,プライズマシンのみ,,
ユーズランド太田店,太田市石原町81,イオンモール太田 ２Ｆ,,,
モーリーファンタジー,太田市石原町81,イオンモール太田,,,
群馬レジャーランド太田店,太田市西矢島町162-2,国道407号沿い,,,
セガワールド太田,太田市西矢島575-1,,,,
オレンジハット沖の郷店,太田市沖之郷町447-3,,,,
ワンダーランド薮塚店,太田市大原町1267-3,,,,
薮塚バッティングセンター,太田市大原町2256-6,大原交差点そば,,,
サカタ新田店,太田市新田村田町271,前橋館林線「村田」信号近く,,,
こころっこ新田店,太田市新田市野井町592-13ニコモール新田店内,,,,
太田バッティングセンター,太田市高林東町１６７５,,,,
アミュージアム伊勢崎店,伊勢崎市連取町1507 イトーヨーカドー伊勢崎店2階,,,,
インターワールド伊勢崎店,伊勢崎市宮子町3425-4,伊勢崎オートレース向かい,,,
namco伊勢崎店,伊勢崎市宮子町3402-6,サントノーレそば,旧：伊勢崎ナムコランド店,,
群馬レジャーランド伊勢崎店,伊勢崎市連取町3066-1,トイザらス近く,,,
ワンダーランド２,伊勢崎市東小保方町3464,県道伊勢崎足利線沿い,,,
アクツベンディングサービス,伊勢崎市東小保方町1225-1,県道伊勢崎足利線沿い,,,
あそびのくに,伊勢崎市中央町19-1,ベイシア内,,,
あそびの国伊勢崎西部店,伊勢崎市宮子町3423-15,ベイシア内,,,
プレイセブン,伊勢崎市境上淵名1102-19,県道2号前橋館林線沿い、旧オレンジハット上淵名店,,,
オレンジハット茂呂店,伊勢崎市茂呂1423,,,,
万代書店伊勢崎店,伊勢崎市連取町868-1,,プライズマシン多い,,
モーリーファンタジー,伊勢崎市宮子町3556番地1 MrMax,,,,
ドリームスタジアムバッティングセンター,伊勢崎市連取町３０９３−１６,,,,
CINEMA&GAMESプレビ劇場,伊勢崎市西小保方町368 スマーク伊勢崎,,,,
ハローズガーデン 伊勢崎東店,伊勢崎市三室町5330 アピタ伊勢崎東店,,,,
新町オートレストラン,藤岡市立石638-1,国道17号,オレンジハット新町の向い&br看板にSEGAとある,,
オレンジハット新町店,藤岡市立石635,国道17号線沿い藤岡IC近く,,,
MMC藤岡,藤岡市本郷小里1773-3,,,,
群馬レジャーランド藤岡店,藤岡市中2002-1 pit100 2F,藤岡ＩＣそば,,,
ハローズガーデン,藤岡市藤岡416-4,ピアゴ藤岡店,旧にこにこらんど,,
ピンクボム藤岡店,藤岡市藤岡892-1,GEO横,,,
ファンタジーランド ガルー,館林市楠町3648-1,アゼリアモールB館2階,,,
セガワールド館林,館林市小桑原町949-1,文真堂書店隣,,,
関東スポーツセンター,館林市近藤町840,館林ICより館林市内方面2km,,,
ピンクボム桐生店,桐生市相生町5-472-1,ファミリーBOOK？,,,
フィーバー２,桐生市巴町2-1114-1,,,,
フィーバー３,桐生市境野町6-491-1,,,,
ぷれいらんど373,桐生市永楽町5-10,MEGAドン・キホーテ内,,,
ドリームたいむ,新里村新川173-5,73号線沿い,,,
セガワールド沼田,沼田市下久屋町1100-1,沼田ＩＣそば,,,
ファミリーワールド,沼田市下之町888,グリーンベル21内,,,
なんでもLAND,渋川市八木原1364,国道17号半田北信号を西へ,今はレジャランになってます,,
ファンタジーランド ガルー,渋川市渋川1815-42,サティ内,,,
ホワイトボックス,渋川市上白井2216-2,国道17号上白井小近く,小,,
山仁屋,渋川市伊香保町伊香保61,,,,
こがね,渋川市伊香保町伊香保65,,,,
柳香軒,渋川市伊香保町伊香保70,,,,
ワカサヤ遊技場,渋川市伊香保町伊香保131,,,,
伊香保ガーデン,渋川市伊香保町,,,,
ベルパーク,安中市原市362,国道18号沿い,,,
オートレスト越中屋,安中市郷原250,国道18号沿い,,,
AMペペ松井田店,安中市松井田町新堀1449-1,,,,
フィーバータウン,みどり市笠懸町阿左美1275,,,,
オアシス,みどり市笠懸町阿佐美1843-4,岩宿遺跡近く,？,,
宝島 大間々店,みどり市大間々町大間々40-218 さくらもーる2F,,,,
わくわくらんど大間々,みどり市大間々町大間々401-1,ショッピングプラザ内,,,
（株）奥利根館,利根郡みなかみ町大穴甲丑,,,,
かめや遊技場,利根郡みなかみ町湯原721,,7号の可能性あり,,
松竹遊技場,利根郡みなかみ町湯原722,,7号の可能性あり,,
アイリス遊技場,利根郡みなかみ町湯原809,,7号の可能性あり,,
（株）草津ナウリゾートホテル,吾妻郡草津町草津白根７５０,,,,
中之条パーク,吾妻郡中之条町中之条９３７,,7号の可能性あり,,
柳屋遊技場,吾妻郡中之条町大字四万4145,,7号の可能性あり,,
吉田屋遊技場,吾妻郡中之条町大字四万4145,,↑と同じ住所だが？7号の可能性あり,,
WING玉村店,佐波郡玉村町板井1331,国道354線沿い,,,
ルパン122,邑楽郡邑楽町中野1593,国道122号沿い,小,,
カーニバル中野店,邑楽郡邑楽町中野2995-2,,ファミリーブック？,,
館林ドライブイン,邑楽郡邑楽町中野3543,国道122号沿い,小,,
ジャンボリー,邑楽郡邑楽町中野4435,カムル内,,,
ルパンオーラ,邑楽郡邑楽町狸塚３３４,,？,,
ドライブインレスト,邑楽郡大泉町寄木戸7-8,いずみ公園前,,,
カーニバル板倉店,邑楽郡板倉町大字岩田1329,フジマート内？,,,
ウェアハウス三橋店,さいたま市西区三橋6-955-1,R17新大宮バイパスより,三橋6丁目交差点入る,,
モーリーファンタジー大宮西店,さいたま市西区三橋6-607-13 イオン大宮西店4F,R17新大宮バイパスより,旧ファンタジーアイランド大宮店,,
namcoステラタウン店,さいたま市北区宮原町1-1-1 ステラタウン3F,今羽駅,旧：NLさいたまステラタウン,,
モーリーファンタジー大宮店,さいたま市北区櫛引町2丁目574-1 イオン大宮店3F,鉄道博物館駅,旧ポップンパーク大宮サティ店,,
キャロム大宮,さいたま市大宮区仲町1-17　大東商事仲町ビル1F/B1F,大宮駅東口,,,
Spica 大宮南銀店,さいたま市大宮区仲町1-57,大宮駅東口,実質上はGG大宮店の移設だが店舗は別,,
ラウンドワン大宮店,さいたま市大宮区宮町4-90-7,大宮駅東口,,,
タイトーステーション大宮店,さいたま市大宮区大門町1-1,大宮駅東口,,,
GIGA大宮,さいたま市大宮区上小町639,,,,
キャラポートさいたま新都心,さいたま市大宮区吉敷町4-267-2コクーン新都心西館1F,,,,
モーリーファンタジー東大宮店,さいたま市見沼区春野2-8パトリア東大宮店3F,R16,旧らんらんランド,,
セガ与野,さいたま市中央区本町西5-2-9 イオンモール与野3F（北側）,R17/北与野駅,旧セガスタジアムイオン与野,,
モーリーファンタジー与野店,さいたま市中央区本町西5-2-9 イオンモール与野3F（南側）,R17/北与野駅,キッズゲーム中心,,
ハローズガーデン西浦和店,さいたま市桜区田島5-18-15ダイエー西浦和店3F,西浦和駅,,,
アミューズメントクラブ浦和店,さいたま市浦和区仲町1-10-7,浦和駅,,,
プレイスポットビッグワン セカンド,さいたま市南区南浦和2－27－12 アビアントビル2F,南浦和駅,2012/12/15open,,
丸広南浦和店,さいたま市南区南本町1-7-4,南浦和駅,,,
ベネクス 浦和店,さいたま市南区辻7-2-8,R17,,,
新宝島浦和美園店,さいたま市緑区大字大門3710イオンモール浦和美園2F,浦和美園駅,旧：マリオファクトリー浦和美園,,
ぷれいらんど373浦和店,さいたま市緑区原山4丁目3-3 サンシティ長崎屋浦和店,R463,,,
ウェアハウス岩槻,さいたま市岩槻区加倉3-3-63,R16/R122/岩槻駅,,,
あひるのたまご岩槻,さいたま市岩槻区本丸3-20-53マミーマート岩槻店内,,,,
