name,address,access,remarks,latitude,longitude
GAME PIA川口,川口市栄町3-1-16 川口共同ビル 3F,川口駅,旧：AM PIA川口,,
ゲームシティ川口,川口市栄町1-10-5,川口駅徒歩10分,,,
プレイランドこころっこ,川口市本町2丁目7-25 ミエル川口3F,,,,
セガ川口,川口市東領家2-2-10,,旧：セガワールド川口,,
ソユーゴールドフィッシュ川口店,川口市並木元町1番79号アリオ川口3F,川口駅県道35産業道路,,,
楽市楽座 イオンモール川口前川店,川口市前川1丁目1-11 イオンモール川口前川,,旧：～川口キャラ店イオンモールでは母体名に愛称がつかなくなりました。,,
川口スプリングレーンズ,川口市川口6-3-34,県道68,1Fアミューズメントコーナー,,
デイトナIII,川口市芝新町4-30 星野ビル B1F,蕨駅,,,
ゲーム・イン・ヒューストン,川口市西川口1-6-3 西川口ビル 1F-2F,西川口駅,,,
ゲオ川口駅前店,川口市本町4-2-3友愛センタービル,川口駅,実質はリトルパーク旧：ウェアハウス川口駅前店,,
カンカン 娯楽場（ぷらっと）,川口市並木3丁目25-15,JR京浜東北線西川口駅東口,7号営業。,,
アドアーズ蕨,蕨市塚越1-4-4 ラ・セーヌビル 2F,蕨駅,1Fはなくなった,,
ソユーパイレーツキッズ錦町店,蕨市錦町1丁目12-1 イトーヨーカドー錦町店2F,戸田駅,,,
ラウンドワンわらび店,蕨市北町5-1-6,北戸田駅,,,
namcoイオンモール北戸田店,戸田市美女木東1-3-1イオンモール北戸田3F,北戸田駅,旧：ナムコ縁起町二丁目、namcoイオン北戸田店,,
モーリーファンタジー北戸田店,戸田市美女木東1-3-1イオンモール北戸田3F,北戸田駅,イオン棟の中です,,
ゲームシティ戸田,戸田市笹目3-21-9,R17バイパス,,,
ギガステーション戸田店,戸田市大字美女木943-7,,旧ヒューケット戸田店,,
ウェアハウス上尾,上尾市上尾村1044,,,,
FESTA上尾,上尾市愛宕3-1-40 バリュープラザ上尾愛宕店内2F,上尾駅,旧：THE 3RD PLANET上尾店ザ・サードプラネットとのFC契約解消により店舗ブランド統一,,
上尾ミナミボウル,上尾市緑丘1-4-5,北上尾駅,東口徒歩10分,,
ラウンドワンスタジアム上尾店,上尾市平塚917-1,,,,
オートパーラー上尾,上尾市大字久保７０－２,北上尾駅,徒歩10分,,
アピナ上尾店,上尾市緑丘3-311-2上尾ショッピングアベニューP・A・P・A PRINCESS(B棟)内,北上尾駅,旧：ガロパ北上尾店2014年2月開店,,
桶川バッティングセンター,桶川市北１丁目２４−２５,,ゲーム機少々,,
タイトーステーション,北本市深井６丁目８７　Hey World,,旧こころっこ,,
モーリーファンタジー,北本市中央４丁目６３イオン北本店,,旧ハローズガーデン,,
アイビーボウル北本,北本市東間４丁目６０,,ゲーム機少々,,
アミュージアム鴻巣,鴻巣市本町1-1-2 エルミこうのすショッピングモール3F,鴻巣駅前,音ゲー多数,,
邦英ジョイ,鴻巣市神明１丁目８－１０,,,,
ぷれいらんど373北鴻巣店,鴻巣市箕田３１１１－１メガドンキ内,,,,
ラウンドワンさいたま・鴻巣店,鴻巣市箕田3163番7,,,,
ファンタジーランドガルー,鴻巣市袋９０－１アピタ吹上店,,,,
ベネクス川越,川越市大仙波340-1,,,,
キャロム川越インター,川越市大字大塚新田山王前462-6,R16/南大塚駅,,,
ゲームシティプラス川越店,川越市泉町1-1 UNICUS南古谷シネマ棟1階,南古谷駅,,,
モナコ川越1号,川越市新富町2-4-1,同上,,,
丸広百貨店わんぱくランド,川越市新富町2-6-1丸広百貨店内7F,同上,,,
ゲームマグマックス川越,川越市脇田町7-2 山二ビルB1F,同上,元ゲームファンタジア新川越,,
namco川越店,川越市脇田町3-6 長谷川ビル1F・2F,同上,,,
T/S 所沢店,所沢市日吉町3-7 スカイビュービルB1F,所沢駅,旧：シルクハット所沢,,
セガ所沢,所沢市日吉町8-1,所沢駅,旧：CLUBSEGA所沢,,
らんらんらんど所沢店,所沢市東町5-22 ダイエー所沢店,所沢駅,,,
アミューズメントパーク,所沢市上山口2227,西武球場前駅,,,
埼玉スポーツセンター,所沢市南永井1116,みずほ台駅,,,
所沢スターレーン,所沢市星の宮 2-1-37,西所沢駅,,,
きゃらんど新所沢店 ゲームセンター,所沢市緑町１丁目２－１,新所沢駅,,,
新所沢ボウル ボウリング場名,所沢市緑町１丁目２１－２６,新所沢駅,,,
キャロム所沢,所沢市下安松969-1,東所沢駅,,,
キャッツアイ狭山,狭山市入間川3141,狭山市駅（遠）,,,
モーリーファンタジー狭山店,狭山市大字上奥富1126-1 イオン狭山店,狭山市駅,旧：ファンタジーアイランド狭山店,,
セガワールド入間,入間市東藤沢2-18,武蔵藤沢駅,,,
モーリーファンタジー入間店,入間市大字上藤沢462-1 イオン入間ショッピングセンター2F,武蔵藤沢駅,旧ファンタジーアイランド入間店,,
ラウンドワンスタジアム入間店,入間市小谷田3-7-25,R299,,,
アミュージアム新座,新座市東北2-32-12 イオン新座3F,志木駅,,,
あそびの広場,新座市中野2丁目1-38 OSCデオシティ新座ミックスミックス,R463,,,
清瀬ボウル,新座市あたご2丁目4-20,,,,
ラウンドワンスタジアム朝霞店,朝霞市膝折町2-16-10,R254,,,
アドアーズ和光店,和光市本町3-5 Million Annex 和光1～3F,和光市駅,,,
タイトーステーション 和光店,和光市丸山台1-4-5,和光市駅,旧：セガワールド和光,,
ファミリーランド和光店,和光市丸山台1-9-3イトーヨーカドー和光店3F,和光市駅,,,
カバロキッズ上福岡東店,ふじみ野市大原2-1-30イトーヨーカドー上福岡東店2F,上福岡駅,ふじみ野市役所向かい,,
パロ埼玉大井店,ふじみ野市西鶴ヶ丘1-3-15ビバモール埼玉大井ショッピングセンター2F,上福岡駅,元 H/T ビバモール,,
アミューズメントフィールドバイヨン,ふじみ野市うれし野2-16-1LCモールうれし野2F,ふじみ野駅,,,
ダイナレックス大井店,ふじみ野市ふじみ野1丁目2-1 イオン大井店3F,ふじみ野駅,,,
ハローズガーデン 三芳店,入間郡三芳町大字藤久保字北新埜855番403 UNICUS三芳,R254,,,
キャロム坂戸,坂戸市関間2-151-1,R407/坂戸駅,,,
ブーボスボス坂戸,坂戸市片柳1732-1,北坂戸駅,,,
スイーツファンタジーパックン,東松山市あずま町四丁目3番地ピオニウォーク東松山2F,高坂駅高坂駅より路線バス,,,
ファミリーランド東松山店,東松山市箭弓町1-15-13ザ・プライス東松山店4F,東松山駅,,,
アミューズメントランド（西友東松山店）,東松山市小松原町11-1,東松山駅,駅からバス「マイタウン巡回」または「熊谷駅」行き上沼停留所から徒歩3分。子供向けカードゲームのみ,,
ゲオ東松山店,東松山市松本町2丁目1-51,東松山駅,駅から徒歩20分弱。2014年夏時点では太鼓の達人とUFOキャッチャーのみ。,,
あそびのくにファミリーランド,比企郡滑川町大字羽尾2780 ベイシアなめがわモール店,森林公園駅/県道47,,,
ファッションセンターしまむらつきのわ店,比企郡滑川町月の輪1丁目4-1,つきのわ駅,徒歩2分。昔懐かしのゲームが残っている。子供向け。,,
アミューズメントプラザRANZAN,比企郡嵐山町志賀1822 嵐山ドライブイン,R254,,,
越谷バッティングセンター,越谷市宮本町４丁目８８,越谷駅/R4,ゲーム機少々,,
ウェアハウス越谷,越谷市南荻島841-1,県道48,,,
ベネクス越谷,越谷市南荻島2770-1,,,,
テクモピア 南越谷店,越谷市南越谷1-15-1楽園タウン南越谷2F,東武新越谷駅JR南越谷駅,営業時間20:00まで,,
らんらんらんど南越谷店,越谷市南越谷1-2876-1ダイエー南越谷店,,,,
ユーズランド越谷店,越谷市東町4-21-1イオンレイクタウンKAZE 3F,越谷レイクタウン駅,,,
namcoイオンレイクタウン店,越谷市東町2-8イオンレイクタウンMORI 3F,越谷レイクタウン駅,旧：NLイオンレイクタウン店,,
モーリーファンタジー イオンレイクタウン店,越谷市東町2-8イオンレイクタウンMORI 3F,越谷レイクタウン駅,,,
ペニーポット越谷店,越谷市越ヶ谷1-16-6ミスターマックス越谷店2F,,,,
わんぱーく越谷店,越谷市越ヶ谷1-16-6ミスターマックス越谷店2F,,,,
ゲームファクトリーマグマ草加,草加市氷川町1132-1,草加駅,旧ハイテクランドセガ草加,,
スクウェアワン草加,草加市西町632-1,R4,旧セガワールド草加,,
ラウンドワン草加,草加市谷塚上町204番地1,県道103,,,
モーリーファンタジー春日部店,春日部市下柳420-1イオンモール春日部2F,R4/R16,イオン春日部,,
ゲームファンタジア春日部,春日部市中央1-8-15春日部セントラル1-2F,春日部駅,,,
カバロ春日部店,春日部市中央1-13-1イトーヨーカドー春日部店5F,春日部駅,,,
かすかべ湯元温泉,春日部市下大増新田66-1,,,,
埼玉レジャーランド春日部,春日部市大字増富字谷際163-1,R16,,,
ゲーセン クレヨンしんちゃん 嵐を呼ぶプリプリシネマスタジオ,春日部市南1-1-1ララガーデン春日部内,春日部駅,,,
ゲームパニック三郷,三郷市彦野2-25,R298,1000円80枚,,
ラクガキ王国三郷,三郷市天神2-22 イトーヨーカドー三郷店2F,R298,,,
ぷれいらんど373三郷店,三郷市さつき平1-1-1 MEGAドン・キホーテ三郷店2F,新三郷駅,,,
ラウンドワンスタジアムららぽーと新三郷店,三郷市新三郷ららシティ3-1-1ららぽーと新三郷 2F,新三郷駅,,,
ミサトヤングボウル,三郷市戸ヶ崎5-131,TX八潮駅常磐線金町駅,朝10時～翌3時まで営業／年中無休,,
ウェアハウス草加店,八潮市南後谷507,県道115,18歳未満の児童も入場可,,
THE 3RD PLANET フレスポ八潮,八潮市大瀬822-1 フレスポ八潮3F,TX八潮駅,,,
ワンパクオウコク,久喜市久本寺谷田7番地1,東鷲宮駅・久喜駅からバス約5分、久喜市鷲宮西中学校から徒歩20分,,,
こころっこ東鷲宮店,久喜市桜田3-2-1 イオン東鷲宮店2F,東鷲宮駅,旧らんらんらんど東鷲宮店,,
ハローズガーデンモラモラ,久喜市久喜中央4-9-11イトーヨーカドー久喜店,,,,
キャロム栗橋,久喜市高柳字田中1741-3,R125,,,
プレイランド菖蒲店,久喜市菖蒲町菖蒲3555,R122バイパス,モラージュ菖蒲旧ソユークレイジースイーツファクトリー,,
ラウンドワンスタジアムさいたま・栗橋店,久喜市小右衛門192-1,,,,
宝島蓮田店,蓮田市東4-5-13 MEGAドン・キホーテ蓮田店2F,蓮田駅東口より徒歩5分,旧AN・ANT蓮田,,
にこぱ幸手店,幸手市大字上高野764,幸手駅,,,
スクウェアワン幸手店,幸手市上高野2142-1,杉戸高野台駅,旧セガワールド幸手,,
オートパーラVI ゲームセンター,行田市大字若小玉1798,R125,,,
エブリデイ行田店,行田市下忍644-1,R17熊谷バイパス,プライズマシンのみ,,
キッズファンタジー,加須市大門町20-58 加須カタクラパーク 2F,加須駅,旧ナムコランド,,
アミューズメントプラザ加須,加須市中央1-1-15,加須駅,,,
ファンタジーランドガルー,加須市鳩山町10-10 ユニー大桑店,,,,
プラサカプコン羽生店,羽生市川崎2-281-3 イオンモール羽生2F,R122/南羽生駅,専門店棟の中です,,
モーリーファンタジー羽生店,羽生市川崎2-281-3 イオンモール羽生2F,R122/南羽生駅,イオン棟の中です,,
ビッグボウル杉戸,北葛飾郡杉戸町大字杉戸2338,R4/杉戸高野台駅,ゲーム少し,,
WIZ SOYU 熊谷店熊谷駅,熊谷市銀座2-123-1 ニットーモール4F,,,,
namco熊谷店,熊谷市銀座2-97 CARPA 1F,熊谷駅,旧：熊谷ナムコランド店,,
セガワールド籠原,熊谷市美土里町1-169,,,,
PALO,熊谷市本石2丁目135 イオン熊谷店3F,R17,旧ダイナレックス熊谷店,,
エムランド,熊谷市新堀新田523マミーマート籠原店2F,籠原駅,旧ファミリーランド籠原店,,
万代書店熊谷店,熊谷市石原342-3,R140,プライズマシンあり,,
ハッピーランド,深谷市上柴町西4丁目2-14 イトーヨーカドー深谷店,深谷駅,,,
ROBOT,深谷市上柴町西4丁目12-1,深谷駅,旧キャラゲット深谷店,,
シティボーイ ゲームセンター,深谷市瀬山561,明戸駅,,,
モンテカルロ 深谷店,深谷市西島915-2,,,,
ムー大陸本庄,本庄市本町1019-1,R17,ムー大陸本庄はNEWSではない,,
ファミリーワールド本庄店,本庄市駅南1丁目2-1 本庄BLALA 3F,本庄駅,,,
ちびっこらんど,本庄市南1-2-10 アピタ本庄店,本庄駅,,,
イオンファンタジーワールド,児玉郡上里町大字金久保字蓮山359-1,R17,,,
ラウンドワンさいたま上里店,児玉郡上里町大字金久保宇周川394-1,R17,,,
キッズプラザきゃらんど,児玉郡上里町大字七本木2272-1,県道23,ウニクス上里,,
セガ千葉,千葉市中央区富士見2-4-1富士ビル,千葉駅,旧：ハイテクセガ千葉,,
アドアーズ千葉,千葉市中央区富士見2-4-15 第一東和ビル1F-3F,,,,
ラッキー中央店(フェリシダ),千葉市中央区富士見2-8-1,,,,
アサヒボウリングセンター ゲームコーナー,千葉市中央区新宿2-1-5,京成千葉中央駅,,,
スポーツウェーブ鉄腕24,千葉市中央区浜野町1025-59D'station浜野店 2F,浜野駅,,,
セガアリーナ蘇我,千葉市中央区川崎町6-9ハーバーシティ蘇我フェスティバルウォーク アミューズメント棟 1F,蘇我駅,,,
タイトーステーション アリオ蘇我店,千葉市中央区川崎町7-20 アリオ蘇我2F,蘇我駅,旧：ラクガキ王国蘇我,,
ゆにろーず横戸,千葉市花見川区横戸町911-1,,,,
ソユープレイランドソピア幕張,千葉市花見川区幕張町4-417-25 イトーヨーカドー幕張店2F,,,,
アミュージアム稲毛店,千葉市稲毛区小仲台1-4-20イオン稲毛2F,JR稲毛駅,,,
スポーツウェーブ鉄腕24稲毛長沼店,千葉市稲毛区長沼原町697,稲毛駅からバス,24時間営業一部0時閉店,,
ゲームファンタジア千葉北,千葉市稲毛区山王町316,四街道駅,,,
ラッキー西千葉店(LUKY WEST),千葉市稲毛区弥生町1-15,西千葉駅,,,
CLUBSEGA稲毛オーツーパーク,千葉市稲毛区園生町380-1,稲毛駅からバス,旧：SWオーツーパーク,,
ムー大陸稲毛,千葉市稲毛区小仲台2-5-7 海宝ビル 2F,稲毛駅,,,
パレパレ稲毛長沼店,千葉市稲毛区長沼原町731-17,稲毛駅からバス,2015/02/14開店旧：THE 3RD PLANETフレスポ千葉稲毛,,
らんらんらんど千葉長沼店,千葉市稲毛区長沼町330-50 ダイエー千葉長沼店 1F,,,,
わくわくワールド稲毛店,千葉市稲毛区小仲台7-2-1 マルエツ稲毛店 2F,,,,
西友都賀,千葉市若葉区西都賀2-2-2,,データカードダスとガチャポンのみ,,
ファンタジープラザ千城台,千葉市若葉区千城台北3-21-1 ラパーク千城台 3F,,,,
ナムコランドおゆみ野店,千葉市緑区おゆみ野中央2-3-1ミスターマックスおゆみ野ショッピングセンター内,京成千原線 学園前駅下車徒歩10分,,,
アミューズメントシティラクゾー鎌取店,千葉市緑区おゆみ野3-16 イオン鎌取店 5F,,,,
モーリーファンタジー鎌取店,千葉市緑区おゆみ野3-16 イオン鎌取店 3F,,,,
モーリーファンタジーおゆみ野店,千葉市緑区おゆみ野南5-37-1 イオンタウンおゆみ野2F,,MF鎌取店と混同しないこと,,
らんらんらんどあすみが丘店,千葉市緑区あすみが丘7-1 あすみが丘ブランニューモール 2F,,,,
セガ幕張,千葉市美浜区ひび野1-8 メッセアミューズモール1F,海浜幕張駅,旧：CS幕張,,
ファンパラダイス,千葉市美浜区高洲3-13-1 イオンマリンピア店 4F,,,,
ゲームファンタジア美浜,千葉市美浜区新港32-6-1 ハマニューポートリゾート 1号棟-2,稲毛海岸駅からバスあり,,,
namcoイオンモール幕張新都心店,千葉市美浜区豊砂1-1イオンモール幕張新都心グランドモール3F,,,,
モーリーファンタジー幕張新都心店,千葉市美浜区豊砂1-5イオンモール幕張新都心ファミリーモール2F,,,,
モーリーファンタジー銚子店,銚子市三崎町2丁目2660-1 イオンモール銚子 2F,R126沿い,イオン棟の中です,,
ゲームフジ市川,市川市市川1-9-11,市川駅,,,
ぷりモール宝島,市川市八幡2-6-7,本八幡駅,ぷりモール宝島の現在のOPはサン・ミューズです。,,
ゲームオット本八幡,市川市八幡2-16-6 八幡ビル B1F,旧：クラブセガ本八幡,,,
本八幡スターレーン,市川市南八幡4-9-1 メガドンキホーテ 6F,,,,
ラウンドワン市川鬼高店,千葉県市川市鬼高4-1-3,,,,
パロ市川店,市川市鬼高 1-1-1 ニッケコルトンプラザ 2F,鬼越駅,リンクはOPであるファンフィールドのサイトにしました。,,
らんらんらんど南行徳店,市川市南行徳2-20-25 ダイエー南行徳店　2F,南行徳駅,,,
TFS市川妙典店,市川市妙典4-1-1 イオン市川妙典店2番街 2F,,,,
モーリーファンタジー市川妙典3F店,市川市妙典5-3-1 イオン市川妙典店3F,2FのイオンはTFS市川妙典,,,
DAIKEIEN 大慶園,市川市大町359,,,,
アミューズメントパフェパレパレ市川妙典店,市川市妙典4-4-27,旧：ザ・サードプラネット市川妙典店2016/8/31閉店,,,
アドアーズ船橋店,船橋市本町1-31-26,船橋駅,2014/7/9 開店,,
わいわいランド船橋店,船橋市本町7-6-1 イトーヨーカドー船橋店 4F,,,,
タイトーステーション船橋店,船橋市本町1-6-1,2015/8/8 開店,,,
マリンガーデン,船橋市浜町2-1-1 ららぽーとTOKYO-BAY 西館3F,船橋競馬場/南船橋,2013/11/22開店,,
セガ ららぽーとTOKYO-BAY,船橋市浜町2-1-1 ららぽーとTOKYO-BAY 北館1F,2015/3/13開店,,,
テクモピア船橋店,船橋市浜町2-2-7　ビビット南船橋 4F,,,,
アミューズメントエース,船橋市前原西2-15-1 ファミービル 1F-3F,JR津田沼駅,,,
ゲームインファンファン北習志野店,船橋市習志野台2-6-17パチンコならしの 2F,北習志野駅,,,
パールプラザボウル,船橋市夏見1-16-38 パールプラザ 3F,,,,
船橋健康センター,船橋市夏見3-28-1,,,,
チャリオット船橋,船橋市藤原5-6-7 日野ビル 2F,,,,
namcoイオンモール船橋店,船橋市山手1丁目1-8イオンモール船橋3F,新船橋駅,,,
モーリーファンタジー船橋店,船橋市山手1丁目1-8 イオンモール船橋2F,,,,
エッグスポート船橋,船橋市浜町2-1-1 ららぽーとTOKYO-BAY 北館1F,2015年1月12日閉店,,,
モーリーファンタジー館山店,館山市八幡545-1 イオン館山店内,,旧：PP館山,,
館山ヤングボウル,館山市北条1564,JR内房線館山駅 徒歩12分,NESiCAxLive2筐体1セット(ALL.Net P-ras MULTIと入れ替え 公式HPに記載無し),,
ラッキー木更津店,木更津市中央1-2-19,,,,
イスカンダル,木更津市潮見4-1-2,,,,
宝島 新木更津店,木更津市請西南2-27-1イオンタウン木更津請西1F,,,,
ハローズガーデン 木更津店,木更津市ほたる野4-2-48 アピタ木更津店2F,,,,
パラボランド木更津,木更津市朝日3-10-19 グリーンシティ内,,,,
アドアーズアクアライン,木更津市中島地先 海ほたる4F,アクアライン経由のみ,アクアラインのPA内,,
ハイテクランドセガ岩瀬,松戸市岩瀬字鍛冶塚611-2,松戸駅から徒歩20分,,,
ソニックビーム,松戸市松戸1172-1,松戸駅東口徒歩2分,,,
カバロ松戸店,松戸市松戸1149　イトーヨーカドー松戸店 6F,松戸駅東口,,,
セガ松戸,松戸市日暮1-1-1 八柱駅第2ビル 2F,八柱駅/新八柱駅,AGスクエアはセガのお店になりました。,,
カバロ八柱店,松戸市日暮1-15　イトーヨーカドー八柱店,,,,
らんらんらんど新松戸店,松戸市新松戸3-2-2 ダイエー新松戸店 4F,新松戸駅,,,
Play Land 54 street 北小金店,松戸市小金1 イオン北小金店 5F,北小金駅,,,
北小金ボウル,松戸市根木内249-7,,,,
ときわ平ボウリングセンター　ゲームコーナー,松戸市常盤平2-8-2,新京成 常盤平駅,,,
ファミリーランド五香店,松戸市常磐平5-22-3　ザ・プライス五香店 2F,,,,
らんらんらんど五香店,松戸市五香8-44-6 オウル五香店 1F,,,,
にこぱ新鎌ヶ谷店,鎌ヶ谷市新鎌ヶ谷2-12-1 アクロスモール新鎌ヶ谷,,,,
モーリーファンタジー鎌ヶ谷店,鎌ヶ谷市新鎌ヶ谷2-7 イオン鎌ヶ谷SC2F,,,,
ファミリーブック鎌ヶ谷店,鎌ヶ谷市北初富8-1,新京成線北初富駅,,,
YAZワールド野田七光台,野田市七光台4-2 イオンタウン野田七光台内,,,,
千葉レジャーランド野田店,野田市吉春字鍵田776-1,,,,
モーリーファンタジーノア店,野田市中根36-1　イオンノア店1F,,,,
ゴジライオン野田店,野田市中根36－1　イオンノア店3階,,,,
アミュージアム茂原,茂原市高師1622-1,,音ゲー・ビデオ多数,,
アミューズランド・パル,千葉県茂原市六ツ野字高師野２７９９－４ イオン茂原,,,,
T/S茂原アスモ店,茂原市高師1735茂原ショッピングプラザアスモ2F,,旧：アスモメルヘンランド上記2店舗は別店舗なので注意,,
宝島成田店 成田ハートフルステーション,成田市赤坂2-1-14 ボンベルタ百貨店アネックスＢ館2F,,,,
セガワールド成田,成田市東町157-1,成田駅徒歩約15分,,,
プラサカプコン成田店,成田市ウイング土屋24 イオンモール成田 2F,京成成田よりバス有,,,
モーリーファンタジーイオン成田店,成田市ウイング土屋24 イオンモール成田 2F,イオン棟の中です,,,
ゲームパークZOOM,成田市ウイング土屋80ヒューマックスパビリオン成田 1F,,,,
ワンダービュー,成田市飯仲11-10,R51,ドンキ隣。旧ジョイタウン成田店?,,
テクモピアロックダム公津の杜店,成田市公津の杜4-5-3 ユアエルム成田 3F,公津の杜駅前,,,
アミュージアムユーカリが丘店,佐倉市ユーカリが丘4-1-4 ユーカリプラザ5F,ユーカリが丘駅,旧：よしもとゲームアミュージアム,,
マルエツ新志津店ゲームコーナー,佐倉市西志津4-1-1,,,,
臼井メルヘンランド,佐倉市王子台1-23,うすい駅,,,
ガロパ佐倉,佐倉市井野1475,志津駅東葉勝田台駅勝田台駅,,,
パラボランド東金,東金市東岩崎8-10 サンピア 3F,,,,
ピットイン東金,東金市家之子荒蒔467-9,,,,
T/S旭サンモール店,旭市イ-2676-1 サンモール3F,,,,
セガワールド旭,旭市ニ字野場3150-1,,「ニ」はイロハニのニ,,
GAME PIA津田沼,習志野市津田沼1-2-1 B1F,津田沼駅/新津田沼駅,旧：AM PIA津田沼,,
DEEP,習志野市大久保1-17-11,京成大久保駅,看板は無いが営業中,,
スーパービバホーム新習志野店2Fゲームコーナー,習志野市茜浜1-1-2,南船橋駅から徒歩10分,2015/7/2オープン,,
アドアーズ新習志野店,習志野市茜浜2-1-9,新習志野駅,,,
Kid's US.LAND 新習志野店,習志野市茜浜2-2-1ハイパーモールメルクス新習志野店 2F,時間制ゲーセン,,,
ラウンドワン習志野店,習志野市芝園1-4-5,,,,
モーリーファンタジー津田沼店,習志野市津田沼1-23-1　イオンモール津田沼3F,,イオン棟の中です,,
モーリーファンタジー東習志野店,習志野市東習志野6-7-8　イオンタウン東習志野1F,,,,
アミュージアム東習志野店,習志野市東習志野7-3-1 イトーヨーカドー東習志野店 4F,,元:ハローズガーデン,,
ジョイランド大久保,習志野市大久保1-27-3,2014/11/25 閉店,,,
新宝島津田沼店,習志野市谷津1-16-1 モリシア津田沼2F,2016年6月閉店,,,
ゲームアルファ,柏市柏1-1-11 ファミリ柏 B1F,柏駅,,,
ゴジラ,柏市柏1-1-11 ファミリ柏 B1F,,,,
ハイテクセガ柏,柏市柏1-1-11 ファミリ柏 B1F,,,,
ハイテクセガ柏2号店,柏市柏1-1-11,,,,
ゲームガリバー柏,柏市柏1-1-11 ファミリ柏 B1F,,,,
アドアーズ柏,柏市柏1-3-1 柏長崎屋共同ビル1F,旧：ゲームファンタジア柏,,,
T/S柏店,柏市柏2-3-1 フーサワビル,旧：クラブセガ柏,,,
ビーワン,柏市旭町1-1-16 中崎ビル B1F,,,,
T/S新柏PAZ店,千葉県柏市名戸ヶ谷字中久保888-1 パズ新柏2F,,旧：S/T柏,,
T/Sセブンパークアリオ柏店,柏市大島田950-1,,2016/4/25開店,,
ラウンドワンスタジアムアリオ柏店,柏市大島田950-1-1070,,2016/4/25開店,,
ドリパかしわ店,柏市大山台2-3 モラージュ柏2F,,旧：H/T柏,,
TFSイオンモール柏店,柏市豊町2-5-25 イオンモール柏 3F,,旧：新宝島柏店,,
モーリーファンタジー柏店,柏市豊町2-5-25 イオンモール柏 2F,,イオン棟の中です,,
タイトーFステーション 柏中央店,柏市十余二249-5,,SUPER WAVE 柏から店名変更,,
チャリオット五井,市原市五井2965-5,五井駅前,,,
チャリオット辰巳,市原市市原500-1,八幡宿駅徒歩約20分,,,
プラサカプコンちはら台店,市原市ちはら台西3-4unimoちはら台SC内1-2F,京成千原線ちはら台駅徒歩10分,,,
ラウンドワン市原店,市原市八幡北町3-5-1,JR浜野駅,,,
こころっこ姉崎店,市原市姉崎645-1イトーヨーカドー姉崎店3F,,,,
ロッキーワールド市原店,市原市八幡1049-1,八幡宿駅,,,
H/T流山,流山市流山9-800-2イトーヨーカドー流山店内3F,流鉄平和台,,,
ウェアハウス南流山,流山市南流山4-16-6,南流山駅,,,
アットホーム南柏,流山市向小金1-241-1 PAT流山 2F,,インターネットカフェ,,
namco流山おおたかの森S・C店,流山市西初石6-185-2おおたかの森S･C 3F,つくばエクスプレス・東武野田線 流山おおたかの森駅,旧：NLドンどこフェスタ店,,
キャッツアイ八千代店,八千代市吉橋1851 ism緑が丘,東葉高速鉄道八千代緑が丘,半額マシン多い,,
ナムコランドアクアサーカス店,八千代市緑が丘2-1-3イオンモール八千代緑が丘4F,H/T八千代跡地,,,
モーリーファンタジー八千代緑が丘店,八千代市緑が丘2-1-3　イオンモール八千代緑が丘4F,,イオン棟の中です,,
ラッキー八千代店(ラッキーバッティングドーム),八千代市大和田新田字八幡後1088,,,,
ラウンドワン八千代村上店,八千代市村上南1-5-54,,,,
アプレシオ八千代,八千代市勝田台南1-18-1,,インターネットカフェ,,
キーステーション我孫子,我孫子市根戸1019-10,,該当住所なし。情報古い?,,
セガ我孫子,我孫子市柴崎字天王谷47-1,,旧：SW我孫子,,
ティックタックワールド鴨川,鴨川市横渚973-1フローレ鴨川 4F,安房鴨川駅,,,
アミューズメントシティラクゾー　鴨川店,鴨川市横渚973-1フローレ鴨川 4F,元・ストライカーズ鴨川ボウル,,,
BIT-INN,君津市南子安9-6-30,君津駅徒歩約45分,,,
ゲームダ・カーポ,君津市外箕輪92,,,,
ゲーム&スポーツポポロ,君津市坂田673-12,君津駅徒歩約30分,,,
プラサカプコン富津店,富津市青木124-1 イオンモール富津内,,,,
ゲームプラザセントラル浦安,浦安市北栄1-16-15 第四セントラルビル,浦安駅,,,
ファーストランドプラザサンルート,浦安市舞浜1-6 サンルートプラザ東京 1F,,,,
メルヘンランドホテル東急,浦安市舞浜1-7 東京ベイホテル東急 3F,,,,
ナムコランドシェラトントーキョーベイ店,浦安市舞浜1-9 シェラトンホテル オアシス棟内2F,,宿泊とは関係なく遊べます,,
宝島新浦安店,浦安市入船1-4-1 ダイエーショッパーズプラザ新浦安 4F,新浦安駅,宝島新浦安店のOPはUCOではない（OPはメダルバンクでおなじみのフォリオ）,,
ポニー,四街道市中央5 イトーヨーカドー四街道店,,住所はこの通りです,,
八街ヤングボウル,八街市八街ほ380-11,JR総武本線八街駅 徒歩15分,,,
モーリーファンタジー八街店,八街市文違301,,,,
ゆにろーず千葉ニュータウン,印西市船尾400-3,,,,
プラサカプコン千葉ニュータウン店,印西市中央北3-3イオンモール千葉ニュータウン シネマ・スポーツ棟2F,千葉ニュータウン中央駅,,,
モーリーファンタジー千葉ニュータウン店,印西市中央北3-1-1 イオンモール千葉ニュータウン3F,,旧：ファンタジーアイランド…イオン棟の中です,,
RAKUZO,印西市草深字原2072 牧の原MORE内,印西牧の原駅,ゲーム縮小,,
ジョイプラザ印西店,印西市原1-2ビッグホップガ－デンモ－ル印西内2F,アーバンスクエア,,,
佐原ミナミボウル,香取市佐原イ4200,JR成田線/JR鹿島線 佐原駅徒歩10分,,,
丸昇 小見川,香取市野田510-1,JR成田線 小見川駅徒歩10分,食事処も兼ねてる,,
メルヘンプラザ・パル,香取市分郷218-1小見川ショッピングプラザアピオ1F,JR成田線 小見川駅徒歩約30分,,,
千葉レジャーランド成東店,山武市姫島111-1,求名駅徒歩約20分,,,
メルヘンランドアミリー大網店,大網白里市みやこ野1-1-1大網白里アミリー3F,,,,
こころっこJ’S横芝店,山武郡横芝光町横芝2122サビア横芝店内,,,,
タイトーステーション 神田,千代田区鍛冶町2-1-4東和ビル,JR神田駅銀座線神田駅G13,旧タイトーイン　2016/02/01よりリニューアル,,
ザボン,千代田区有楽町2-9-12,JR有楽町駅有楽町線有楽町駅Y18日比谷線日比谷駅H07千代田線日比谷駅C09三田線日比谷駅I08,JR有楽町駅京橋口出てすぐ左,,
ゲームパークスマイル館お茶の水,千代田区神田小川町3-6-15,JR御茶ノ水駅丸の内線淡路町駅都営新宿線小川町駅/神保町駅半蔵門線神保町駅都営三田線神保町駅,2013/09/17 オープン神保町店が移転,,
P＆P,千代田区神田小川町3-14奥村ビル1F,半蔵門線神保町駅Z07三田線神保町駅I10都営新宿線神保町駅S06,,,
セガ秋葉原1号館,千代田区外神田1-10-9,JR秋葉原駅日比谷線秋葉原駅H15つくばエクスプレス秋葉原駅01銀座線末広町駅G14,旧：CLUBSEGA秋葉原昔からある方,,
クラブセガ秋葉原 新館,千代田区外神田1-11-11外神田1丁目ビルディング,,,,
セガ秋葉原,千代田区外神田1-15-9,JR秋葉原駅「電気街口」からだと目の前,,,
東京レジャーランド秋葉原店,千代田区外神田1-9-5,,,,
東京レジャーランド秋葉原2号店,千代田区外神田4-3-3ミナミビル 6F-7F,ドンキホーテ秋葉原店,,,
Ｈｅｙ,千代田区外神田1-10-5廣瀬本社ビル,,,,
秋葉原ギーゴ,千代田区外神田1-15-1第一半田ビル,,,,
タイトーステーション 秋葉原店,千代田区外神田4-2-2貴三ビル,,,,
エターナルアミューズメントタワー by Asobox,千代田区外神田4-4-7MTビル,2017年5月「トライアミューズメントタワー」より改称,,,
アドアーズ秋葉原店,千代田区外神田1-13-1 Akihabara ex 1F・2F,※クレーン専門店,,,
遊戯場,千代田区外神田3-8-5 イサミヤ第2ビル1F,※クレーン専門店,,,
秋葉原クレーン研究所,東京都千代田区外神田3-12-15,※クレーン専門店,,,
ナツゲーミュージアム,千代田区神田佐久間町2-13城之内ビル1F,レトロゲーム専門※営業時間はHP参照,,,
ゲームパークスマイル館神田,千代田区鍛冶町2-13-24,2015/12/22閉店,,,
ゲームコーナーミッキー,千代田区神田神保町1-16,2013/03/29 閉店,,,
ロイヤル新橋,港区新橋2-16-1ニュー新橋ビル2F 220,JR新橋駅銀座線新橋駅G08都営浅草線新橋駅A10ゆりかもめ新橋駅,,,
ゲームイン リド,港区新橋2-16-1ニュー新橋ビル2F 239,,,,
扇屋ゲーム,港区新橋2-16-1ニュー新橋ビル2F 222/223,,,,
アミューズメントパーク ウイング,港区新橋2-16-1ニュー新橋ビルB1F 26,,,,
ダイアナ,港区新橋2-16-1ニュー新橋ビルB1F 58/65,,,,
ゲームプレジャーイン,港区新橋2-16-1ニュー新橋ビルB1F,,,,
セガ東京ジョイポリス,港区台場1-6-1 デックス東京ビーチ,ゆりかもめお台場海浜公園駅,入場料必要,,
台場遊技場,港区台場1-6-1デックス東京ビーチ シーサイドモール4F,クレーンゲーム中心,,,
一丁目プレイランド,レトロゲーム中心,,,,
東京レジャーランドお台場メディアージュ店,港区台場１−７−1アクアシティお台場 4F,,,,
タイトーステーション 新宿東口店,新宿区新宿3-22-7,JR新宿駅丸の内線新宿駅大江戸線新宿西口駅京王線新宿駅小田急線新宿駅,,,
タイトーステーション 新宿南口ゲームワールド店,新宿区新宿3-35-8,,,,
新宿スポ-ツランド本館,新宿区新宿3-22-12,,,,
新宿プレイランドカーニバル,新宿区歌舞伎町1-20-1ヒューマックスパビリオン新宿歌舞伎町1-2F,2F:格ゲー・カード型ゲーム1F:プライズ・メダル・体感ゲーム,,,
GAO歌舞伎町店,新宿区歌舞伎町1-6-8,,,,
新宿バッティングセンター,新宿区歌舞伎町2-21-13,,,,
新宿オスローバッティングセンター,新宿区歌舞伎町2-34-5,,,,
クラブセガ新宿西口,新宿区西新宿1-12-5,JR新宿駅京王線新宿駅小田急線新宿駅都営新宿線新宿駅大江戸線新宿駅,2F:体感ゲーム1F:プライズゲームB1F:バトルアリーナ（レトロゲー・格ゲー）,,
ゲームスポット21新宿店,新宿区西新宿1-15-4,,,,
GAO大久保店,新宿区百人町1-23-24アミューズ大久保ビル,最寄・JR大久保駅南口,,,
タイトーステーション BIGBOX高田馬場店,新宿区高田馬場1-35-3BIGBOX 6F,JR高田馬場駅西武新宿線高田馬場駅東西線高田馬場駅,,,
白鳥ゲームプラザ,新宿区高田馬場4-8-8白鳥ビル,,,,
高田馬場ゲーセン ミカド,新宿区高田馬場4-5-10オアシスプラザビル1F-2F,,,,
セガ神楽坂,新宿区神楽坂2-10第二カグラヒルズ 1F,JR飯田橋駅有楽町線飯田橋駅南北線飯田橋駅,旧：ツインスタージオスセガ,,
ハイテクランドミカド,新宿区歌舞伎町1-28-1ミカドビル１F,高田馬場へ移転,,,
アドアーズミラノ2号店,新宿区歌舞伎町1-29-1新宿TOKYU MILANO 1F,,,,
京王百貨店屋上,東京都新宿区西新宿１丁目1-4,京王新宿駅,2014年9月閉園,,
セガ 東京ドームシティ,文京区後楽1-3-61,JR水道橋駅三田線水道橋駅丸の内線後楽園駅南北線後楽園駅,,,
タイトーステーション 浅草店,台東区浅草1-27-3,東武浅草駅銀座線浅草駅浅草線浅草駅,,,
アミューズメントA,台東区浅草1-23-7,T/S 浅草新仲見世店跡地,,,
アドアーズ浅草店,台東区浅草1-42-4パシフィックコート浅草1F,,,,
タイトーステーション 上野アメ横店,台東区上野4-10-17,JR上野駅京成上野駅銀座線上野駅日比谷線上野駅,西郷会館跡地,,
アドアーズ上野アメ横店,台東区上野4-9-14上野K・KビルB1F-4F,,,,
ゲームインリュウ,台東区上野6-12-15,,,,
DEN DO ～殿堂 上野店,台東区上野6-11-16,パチスロゲーセン ※ビデオなし,,,
GAME INN FIRST,台東区上野5-27-17,JR御徒町駅大江戸線上野御徒町駅,山手線ガード下,,
みとや鶯谷店,台東区根岸1-1-16銀星ビル2F,JR鶯谷駅,ゲームUFO 鶯谷店跡地,,
アムネット五反田店,品川区西五反田1-27-5ＮＡ五反田ビル1-2F,JR五反田駅池上線五反田駅,,,
ゲームグース武蔵小山店,品川区小山3-22-19,目黒線武蔵小山駅,,,
スクウェアワン武蔵小山店,品川区小山3-23-3SDビルB1F,旧 アミューズメントパークネオン,,,
菊地商店,品川区南大井4-14-19,京急本線立会川駅,駄菓子屋,,
タイトーステーション 渋谷,渋谷区渋谷1-24-12東映プラザB1,JR渋谷駅東横線渋谷駅田園都市線渋谷駅銀座線渋谷駅半蔵門線渋谷駅井の頭線渋谷駅,,,
ハイテクランドセガ渋谷,渋谷区渋谷1-14-14ＥＳＴ 1F,,,,
アドアーズ渋谷店,渋谷区宇田川町13-11KN渋谷1ビル 1F-4F,,,,
アミューズメントスペース ASO：VIVA,渋谷区恵比寿1-10-5,JR恵比寿駅日比谷線恵比寿駅,,,
セガ代々木,渋谷区代々木1-35-2高山ビル1F-B1F,JR代々木駅都営大江戸線代々木駅,旧 T/S代々木,,
あそび場20,渋谷区恵比寿南1-21-3,JR恵比寿駅日比谷線恵比寿駅,不定休かつ現在実質休業中,,
アドアーズ池袋東口店,豊島区東池袋1-41-4池袋とうきゅうビル1F-2F,池袋駅JR線 / 東武東上線西武池袋線 / 丸の内線有楽町線 / 副都心線東口より徒歩4分,旧 ゲームファンタジア池袋東,,
ランブル プラザ,豊島区東池袋1-42-19,池袋駅東口より徒歩4分,,,
ゲームサファリ池袋店,豊島区東池袋1-42-3やすだ東池袋ビル2F,池袋駅東口より徒歩4分,,,
アドアーズサンシャイン店,豊島区東池袋1-14-4シネマサンシャイン1F-3F,池袋駅東口より徒歩5分,,,
池袋ギーゴ,豊島区東池袋1-21-1TECH35ビル,池袋駅東口より徒歩6分,,,
PROJECT ADORES池袋店,豊島区東池袋1-22-12,池袋駅東口より徒歩6分,旧 ディンドン池袋店,,
GAMEサントロペ池袋店,豊島区東池袋1-29-1サントロペビル 2F-3F,池袋駅東口より徒歩7分,旧：AM～,,
タイトーステーション 池袋ロサ店,豊島区西池袋1-37-12ロサ会館 1F,池袋駅北口より徒歩4分,バフォメットバイロサとも呼ばれる,,
タイトーステーション 池袋西口店,東京都豊島区西池袋1-15-9西池ビル,池袋駅西口より徒歩0分,,,
GAME TOWN ぴこたお,豊島区南大塚1-52-4大塚レジャービル,JR大塚駅荒川線大塚駅前,大塚バッティングセンター内1Fはパチンコひょうたん島,,
namco巣鴨店,豊島区巣鴨1-15-1ミヤタビルB1F-B2F,JR巣鴨駅都営三田線巣鴨駅,旧プレイシティキャロット巣鴨,,
ゲームセンター ル・モンド巣鴨店,豊島区巣鴨2-5-9,,,,
ゲームセンターライズ,豊島区巣鴨2-3-7,※パチスロゲーセン,,,
ゲーム メデューサ,豊島区南長崎5-25-16メデューサ2F,西武池袋線東長崎駅,同名パチンコ屋の2F,,
電玩遊戯W,豊島区南長崎5-25-14,旧 ゲームＷ,,,
ナンジャタウン,豊島区東池袋3-1-3 サンシャインシティワールドインポートマート2F,池袋駅,施設自体は営業中だが、ゲーム機系は撤去済み,,
西日暮里マイムマイム,荒川区西日暮里5-25-6篠田ビル1F,JR西日暮里駅千代田線西日暮里駅日暮里・舎人ライナー西日暮里駅,"尾久橋通りの""ビデオゲーム""という看板を掲げている店",,
ゲームスポットバーサス,荒川区西日暮里5-15-1今井ビル 3F,旧 巣鴨ゲームインサクラ,,,
ゲームギャッツ,中央区日本橋人形町1-19-9古暮ビル,東京メトロ日比谷線 人形町駅都営浅草線 人形町駅,,,
タイトーステーション 錦糸町楽天地店,墨田区江東橋4-27-14楽天地ビルB1F,JR総武線 錦糸町駅東京メトロ半蔵門線 錦糸町駅,旧：ゲームスポットROPは明らかにタイトーです(TFS…ではありません),,
タイトーFステーション オリナス錦糸町店,墨田区太平4-1-2オリナスモールB1F,2016/4/29開店旧：アドアーズ錦糸町店,,,
Kids'sUSLANDアルカキット店,墨田区錦糸2-2-1アルカキット8F,2014年4月オープンの時間制ゲーセン,,,
ハローズガーデンモラモラ 墨田文花店,墨田区文花1-31-9オリンピック墨田文花店 1F,東武亀戸線 小村井駅,,,
ル・モンド駒形店,墨田区吾妻橋2-4-10,都営浅草線 本所吾妻橋駅,,,
ゲームインみとや錦糸町店,墨田区錦糸3-3-8,2014/7/27閉店,,,
セガワールドアルカキット,墨田区錦糸2-2-1アルカキット8F,2014年1月閉店,,,
ラ・メゾンスタジアム803,墨田区江東橋3-11-5,2014年2月閉店、「ゲームキャデラック」と移転統合,,,
アドアーズ錦糸町店,墨田区太平4-1-2オリナスモールB1F,2016/4/17閉店,,,
パトリオットM,墨田区江東橋4-25-5,2017年5月閉店,,,
アミュージアム豊洲店,江東区豊洲2-4-9アーバンドックららぽーと豊洲3F,東京メトロ有楽町線 豊洲駅ゆりかもめ 豊洲駅,テクモピアラグジィ跡地,,
アドアーズ門前仲町,江東区富岡1-5-5　和田屋ビル1-3F,東京メトロ東西線 門前仲町駅都営大江戸線 門前仲町駅,現在はダーツなどがメイン,,
アドアーズ亀戸店,江東区亀戸5-2-6サンエービル1-4F,JR総武線 亀戸駅東武亀戸線 亀戸駅,,,
ラウンドワン南砂店,江東区南砂6-7-15トピレックプラザ東館,東京メトロ東西線 南砂町駅,,,
ファンタジーアイランド南砂店,江東区南砂6-7-15トピレックプラザ内イオン南砂店 3F,,,,
アドアーズ南砂町SUNAMO店,江東区新砂3-4-31南砂町ショッピングセンターSUNAMO 4F,,,,
namcoイトーヨーカドー木場店,江東区木場1-5-30イトーヨーカドー木場 2F3F,東京メトロ東西線 木場駅,旧：NL木場店,,
ハローズガーデン北砂店,江東区北砂2-17-1アリオ北砂 3F,都営新宿線 西大島駅,,,
グッデイ21,江東区北砂7-4-4,都営新宿線 大島駅東京メトロ東西線 南砂町駅いずれかの駅を下車後都営バス 亀21 亀23 北砂７丁目下車,,,
ラウンドワンスタジアム ダイバーシティ東京プラザ店,江東区青海1丁目1番10号ダイバーシティ東京プラザ6F,りんかい線 東京テレポート駅ゆりかもめ 台場駅,,,
NICOPAサンストリート亀戸店,江東区亀戸6-31-1サンストリート亀戸 2F,亀戸駅,サンストリート自体が2016年3月31日に閉鎖。 1Fの型落ちゲームが設置されていたところも。,,
ラ・メゾンインスタジアム237,江東区亀戸2-20-3,2013年4月閉店,,,
ハローズガーデン豊洲店,江東区豊洲3-4-スーパービバホーム豊洲店2F,2015年6月14日閉店,,,
クラブセガ自由ヶ丘,目黒区自由が丘2-10-9,東急東横線 自由が丘駅東急大井町線 自由が丘駅,,,
プリンス,目黒区自由が丘1-12-10大城ビル B1-2F,,,,
アミューズメントフィールドAX,目黒区中根1-3-11,東急東横線 都立大学駅,,,
セガワールド大森,大田区山王2-1-5大森駅ビル2F,JR大森駅,,,
AM PIA大森店,大田区山王2-2-15,,,,
ゲームプラザ大森,大田区大森北1-36-3,,,,
ソユーザウルスワールド大森店,大田区大森北2-13-2イトーヨーカドー大森店 3F,京急大森海岸駅JR京浜東北線大森駅,,,
アドアーズ蒲田西口店B館,大田区西蒲田7-5-10蒲田駅西口会館 1F,JR京浜東北線 蒲田駅東急池上線/東急多摩川線 蒲田駅,,,
シルクハット蒲田M2店,大田区西蒲田7-6-3,通称「モアイ」,,,
ゲームズIMON,大田区西蒲田8-24-12,元ナムコ・蒲田イモンボウル店,,,
GIO蒲田店,大田区蒲田5-20-4,,,,
ACボウル蒲田,大田区蒲田5-20-5ATHLECITTA'蒲田内4F,,,,
ファンファン平和島店,大田区大森北6-29-13,京急本線 平和島駅,,,
フェドラBIGFUN平和島,大田区平和島1-1-1BIGFUN平和島 3F,2015/2/1 開店旧：ゲームパニック東京,,,
平和島競艇場バッティングセンター,大田区平和島1-1-1,,,,
ハイテクランドセガ池上,大田区池上6-2-23松山ビル2F,東急池上線池上駅,,,
ハローズガーデン 新糀谷店,大田区萩中2-12-5マルエツ新糀谷店 2F,京急糀谷駅,,,
ドラマ下北沢P1店,世田谷区北沢2-12-16,小田急小田原線 下北沢駅京王井の頭線 下北沢駅,クレーンゲーム専門店,,
アドアーズ下北沢店,世田谷区北沢2-12-7,旧：ゴールデン,,,
ラスベガス,世田谷区北沢2-19-12,,,,
GAME エムエムランド,世田谷区北沢2-3-6,,,,
タイトーステーション祖師ヶ谷大蔵,世田谷区砧8-10-1 プラッツ砧1F,小田急線 祖師谷大蔵駅,旧：ゲームスクエアーOZ（看板は旧OZのまま使用）,,
ドゥーフルズ,世田谷区松原1-37-17米沢ビル1F,京王線 明大前駅京王井の頭線 明大前駅,,,
ゲームスクエアーOZ,世田谷区砧8-10-10,小田急線 祖師谷大蔵駅,現：タイトーステーション祖師ヶ谷大蔵,,
アドアーズ中野店,中野区中野5-52-15ブロードウェイ185,中野駅,,,
namco中野店,中野区中野5-52-15中野ブロードウェイ別館,旧：プラボ中野店最近「namco」になりつつあるが、その第1号,,,
TRF＠東京ランキングファイターズ,中野区中野5-52-15中野ブロードウェイ4F,格ゲー専門店,,,
くじら屋,中野区中野5-52-15中野ブロードウェイ4F,プライズマシンが若干あるのみ,,,
スターライト,中野区上高田3-38-10,西武新宿線新井薬師前駅,店内で犬が飼われている→2013/1 もう飼われていないようです。,,
アドアーズ荻窪北口店,杉並区天沼3-2-7 荻窪ルーフ2F,JR荻窪駅丸ノ内線荻窪駅,メダルゲーム専門店（一部ビデオゲーム有）,,
namco荻窪店,杉並区上荻1-13-10,旧：プラボ荻窪店,,,
アドアーズ高円寺店,杉並区高円寺南4-25-5D-ASSETパル高円寺2F-3F,JR高円寺駅,ビデオゲームの扱い無し、1階は無くなりました。,,
ゲームスタジオCUBE,杉並区高円寺南4-26-12福丸ビルB1F,JR高円寺駅,音ゲー、ビデオゲーム、MFC、QMA等。25時まで営業。,,
ブギーズ,北区王子1-17-1 飛鳥山ハイツ1F,JR京浜東北線 王子駅東京メトロ南北線 王子駅都電荒川線 王子駅前,,,
namcoサンスクエア王子店,北区王子1-4-1サンスクエア2F,←ナムコランド王子店←ＺＹＸ,,,
ゲームリボン,北区東十条4-4-23岩本ビル1F,JR京浜東北線 東十条駅,,,
セガ 赤羽店,北区赤羽1-7-9赤羽第一葉山ビル地下B1F,JR赤羽駅,形式上は移転,,
わいわいランド赤羽店,北区赤羽西1-7-1イトーヨーカドー赤羽店内6F,,,,
ハローズガーデン赤羽店,北区神谷3-12-1ダイエー赤羽北本通り店3F,,,,
WORLD GAME CIRCUS,北区西ヶ原1-53-16,JR山手線 駒込駅東京メトロ南北線 駒込駅,2014/11/24 北区にて再オープン。海外音ゲーをメインに設置,,
ゲームサファリ大山,板橋区大山東町60-27パチンコやすだ2F,東武東上線 大山駅,,,
アドアーズ大山南口店,板橋区大山町32-27日正ビル2F,,,,
GAME-NEWTON 大山店,板橋区大山町25-8野口ビルB1F,,,,
ゲームシティ板橋店,板橋区小茂根1-32-9,東京メトロ有楽町線/副都心線 西武有楽町線 小竹向原駅,,,
GAME-NEWTON 志村店,板橋区志村3-24-3,都営三田線 志村三丁目駅,,,
ラウンドワンスタジアム板橋店,板橋区相生町16-13,,,,
プレイランド仲宿店,板橋区仲宿39-8,都営三田線 板橋区役所前駅,,,
アミュージアム大泉店,練馬区東大泉2-10-11LIVINオズ大泉店5F,西武池袋線 大泉学園駅,,,
アミュージアムOSC店,練馬区東大泉2-34-1オズスタジオシティ2F,2017年5月リニューアル:音ゲー多数,,,
トーホーレジャープラザ,練馬区錦2-19-1トーホープラザ5F,東武東上線 東武練馬駅,,,
キャロム練馬店,練馬区北町1-11-12渡久ビル1F,2009/2/23 新規オープン,,,
ナムコランド練馬店,練馬区光が丘5-1-1ダイエー練馬店4F,都営大江戸線 光が丘駅,,,
ゲームパーク石神井,練馬区石神井町3-17-16,西武池袋線 石神井公園駅,,,
ゲームパーク富士見台,練馬区貫井3-5-6ドンズビル2F,西武池袋線 富士見台駅,,,
ミラクルイン,練馬区貫井1-1-2YKビル2F,西武池袋線 中村橋駅,Twitter　mixi　駅からの道順,,
GAME IN えびせん,練馬区旭丘1-75-12矢島ビル2F,,,,
メルヘンランド綾瀬,足立区綾瀬3-4-25イトーヨーカドー綾瀬店6F,JR常磐線 綾瀬駅東京メトロ千代田線 綾瀬駅,,,
タイトーステーション綾瀬,足立区綾瀬4-9-29,,,,
セガ竹の塚,足立区竹の塚6-8-15,東武伊勢崎線 竹ノ塚駅,2013年11月開店旧：GAMEピーアーク竹ノ塚,,
アドベンチャー,足立区竹の塚6-14-3,東武伊勢崎線 竹ノ塚駅,,,
カバロ竹の塚店,足立区竹の塚5-17-1イトーヨーカドー竹の塚店内3F,東武伊勢崎線 竹ノ塚駅,,,
ウェアハウス保木間店,足立区保木間1-1-19,都営バス 北47 六月町,ウェアハウスは川崎以外18歳未満も入店可,,
ウェアハウス入谷店,足立区入谷7-8-11,国際興行バス 赤26 入谷町,,,
ハイテクランド キューデン,足立区西新井栄町2-7-2 2F,東武伊勢崎線 西新井駅東武大師線 西新井駅,,,
あそんじゃ王国 アリオ西新井店,足立区西新井栄町1-20-1アリオ西新井店3F,東武伊勢崎線 西新井駅,,,
ファンタジー,足立区梅島1-15-2,東武伊勢崎線 梅島駅,付近に姉妹店あり,,
ゲームパニック足立店,足立区梅島2-31-20,都営バス 有30 北47 王49　小右衛門町,リンクはNEWSのものにしています,,
アミューズメントパークマサカド綾瀬店,足立区綾瀬3-16-1,2013/03/31 閉店,,,
アドアーズ新小岩店,葛飾区新小岩1-44-4LTビルB1F-3F,JR総武線 新小岩駅 南口,元ゲームエース新小岩,,
ラくトス,葛飾区新小岩1-44-6,○×△□はラくトスと読みます,,,
こち亀ゲームぱ～く,葛飾区亀有3-49-3 アリオ亀有3F,JR常磐線 亀有駅,,,
東京レジャーランド亀有店,葛飾区亀有3-21-2,2014/11/16開店,,,
イーグルボウル ゲームコーナー,葛飾区四つ木5-17-1,京成本線 お花茶屋駅,裏手のバッティングセンターの中です,,
アミューズメントパークアトム,葛飾区東金町1-44-1,JR常磐線 金町駅,支援サイト,,
ハイテクランド セガ 立石,葛飾区立石7-2-1&,京成押上線 京成立石駅,,,
ゲームウィン,葛飾区新小岩1-38-5,2014/6 閉店を確認,,,
カメアリゲームセンター,葛飾区亀有3-25-1,2015/3/28 閉店,,,
ハロータイトー 亀有,葛飾区亀有3-26-1イトーヨーカドー亀有駅前店6F,2016/4/8閉店,,,
アムネット小岩店,江戸川区南小岩6-31-3 石井ビル1F,JR総武線 小岩駅 南口,,,
江戸川ヤングボウル,江戸川区中央4-22-25,,GC,,
セガワールド船堀,江戸川区船堀1-6-10,都営新宿線 船堀駅,,,
ドットコム葛西,江戸川区中葛西3-35-5大野屋ビル2F,東京メトロ東西線 葛西駅,,,
セガワールド葛西,江戸川区東葛西9-3-3イトーヨーカ堂3F,東京メトロ東西線葛西駅から都営バス葛西21系統 東葛西9丁目,,,
こころっこ葛西店,江戸川区東葛西9-3-6ホームズ葛西店内,,,,
ハイテクセガ葛西,江戸川区西葛西5-1-14第一保志ビル,東京メトロ東西線 西葛西駅,,,
ゲームスポットキャデラック,江戸川区西葛西5-6-9杉ビル1F,錦糸町の「ラメゾンスタジアム803」の移転統合先,,,
キャッツアイ西葛西店,江戸川区西葛西4-2-28 サニーモール3F,,,,
TFS西葛西店,江戸川区西葛西6-6-10,東西線 西葛西駅,2013年4月開店,,
GAME PIA 八王子店,八王子市旭町2-5八王子駅前ビルA館,JR中央線/横浜線/八高線 八王子駅京王線 京王八王子駅,旧：AM PIA～,,
アドアーズ八王子店,八王子市東町11-3 センチュリーステーションビルB1-4F,,,,
ゲームプラザセントラル八王子店,八王子市東町12-15第五セントラルビル,,,,
ラウンドワン八王子店,八王子市万町53,,,,
シルクハット八王子,八王子市旭町2-5 八王子ツインタワービルA館,,,,
YAZWORLD八王子みなみ野店,八王子市みなみ野1-2-1アクロスモール内3F,JR横浜線八王子みなみ野駅,,,
キラキラAsobox八王子みなみ野,八王子市みなみ野1-8-1Mioみなみ野SC 2FBOOKOFF SUPER BAZAAR 八王子みなみ野店内,,,,
ドラマ八王子高倉店,八王子市高倉町55-4,JR八高線 北八王子駅,旧：ドラマ日野バイパス店,,
タイトーステーション 南大沢店,八王子市南大沢2-3FAB南大沢 2F,京王線 南大沢駅,,,
ソユープレイランドソピア南大沢,八王子市南大沢2-28-1イトーヨーカドー南大沢店 3F,京王線 南大沢駅,,,
ドラマ野猿店,八王子市大塚628-1,多摩モノレール大塚・帝京大学駅,,,
ソユープレイランドソピア八王子,八王子市狭間町1462-1イトーヨーカドー八王子店 3F,京王高尾線 狭間駅,,,
プレビ三和堀之内,八王子市別所2-1三和堀之内店内 2F,京王堀之内駅,,,
ドラマ八王子高倉,八王子高倉町55-4,JR八高線 北八王子駅,,,
ゲームとまと八王子店,八王子市横山町6-9丸多屋ビル1F,2015/5/31閉店,,,
ジョイランドイコイ,八王子市東町13-13,2017年4月閉店,,,
クラブセガ立川,立川市柴崎町3-2-1サザンビル1F,JR中央線/青梅線/南武線 立川駅多摩モノレール 立川北駅,何故かセガ系カードゲームに疎い,,
モナコ立川店,立川市柴崎町3-4-1,,,,
アドアーズ立川店,立川市柴崎町3-4-3 グルメートタカオB1-3F,ここまでの3店舗はお互いが半径10m以内,,,
namcoららぽーと立川立飛店,立川市泉町935-1 ららぽーと立川立飛店3F,,,,
立川オスローバッティングセンター,立川市錦町1-4-27立川オスロービル2・3F,,,,
プレイロットジョイ,武蔵野市吉祥寺本町1-8-23河田ビル1F,JR中央線 吉祥寺駅京王井の頭線 吉祥寺駅,,,
モナコ吉祥寺店,武蔵野市吉祥寺本町1-9-7高橋ビル,元・ZEST吉祥寺店,,,
プラサカプコン吉祥寺店,武蔵野市吉祥寺本町1-10-1いなりやビルB1F,,,,
アドアーズ サンロード店,武蔵野市吉祥寺本町1-11-30 サンロードプラザダイヤパレス吉祥寺B1F,メダルゲーム専門,,,
フォルム武蔵境店,武蔵野市境南町2-7-20ダイヤパレス2 1F,JR中央線 武蔵境駅西武多摩川線 武蔵境駅,,,
ポニー武蔵境店,武蔵野市境南町2-2-20イトーヨーカドー武蔵境店東館 3F,,,,
キャロム青梅店,青梅市千ヶ瀬町4-326-1,JR青梅線 東青梅駅,元セガワールド青梅,,
コスモキッズQ河辺,青梅市河辺町10-7-1河辺とうきゅう 4F,JR青梅線 河辺駅,,,
ゲームプレイスHIT IN河辺,青梅市河辺町10-10-1,JR青梅線 河辺駅,旧：セガワールド河辺,,
ゲオ青梅新町,青梅市新町5-4-3,JR青梅線 小作駅,,,
ゲームタウン西東京,青梅市新町9-1-1,,,,
ラウンドワン府中本町駅前店,府中市本町1-13-3,,,,
セガワールド府中,府中市西原町1-6-2府中クレッセ内1F-2F,JR武蔵野線 北府中駅,,,
アミュージアム昭島店,昭島市田中町573-1-2,JR青梅線 昭島駅徒歩3分,2017年4月リニューアル,,
アミュージアムキッズパーク昭島,昭島市田中町562-1モリタウン東館2F,JR青梅線 昭島駅徒歩3分,,,
ザ・ビッグ昭島アミューズパーク,昭島市宮沢町500-1ザ・ビッグ昭島店 3F,,,,
ポニー拝島,昭島市松原町3-2-12イトーヨーカドー拝島店 2F,JR 拝島駅,,,
モナコ調布1号店,調布市布田1-52-3,京王線 調布駅,,,
モナコ調布駅前店,調布市布田4-2-22,,,,
アドアーズ仙川店,調布市仙川町2-21-12VICビル7 1-2F,京王線 仙川駅,,,
にこぱ仙川,調布市若葉町2-1-7ホームズ仙川店2F,,,,
アドベンチャーリーフ国領店,調布市国領町8-2-64,京王線 国領駅,,,
NICOPA調布,調布市菊野台1-33-3クロスガーデン調布 2F,京王線 柴崎駅,,,
ゲームUFO町田ターミナル店,町田市原町田4-7-3 内藤ビル1F,,,,
キャラポップストア町田,町田市原町田6-6-14町田ジョルナ B1F,,,,
タイトーステーション 町田店,町田市原町田6-21-23松山ビル1F,旧タイトードリーム,,,
アドアーズ町田店,町田市原町田6-21-25 大正堂第2ビル1-4F,JR横浜線 町田駅小田急線 町田駅,,,
ラウンドワン町田店,町田市森野1-13-14,,,,
こころっこ町田根岸,町田市根岸町2-18-1アメリア町田根岸SC 2F,JR横浜線 淵野辺駅,,,
こころっこ町田根岸店,町田市根岸230-7アメリア町田根岸ショッピングセンター内,,,,
大栄ボウル,小金井市本町5-38-36,JR中央線 武蔵小金井駅,,,
ハローズガーデン武蔵小金井店,小金井市本町6-14-9,イトーヨーカドー武蔵小金井店,,,
昭和ランド,小平市花小金井1-2-23西友花小金井店,西武新宿線 花小金井駅,,,
ピア21,小平市美園町1-4-10タカラヤビル2Ｆ,西武新宿線 小平駅西武拝島線 小平駅,,,
モーリーファンタジー小平,小平市小川東町2-12-1ダイエー小平店 2F,西武多摩湖線 八坂駅,,,
モーリーファンタジー多摩平の森,日野市多摩平2-4-1イオンモール多摩平の森 3F,JR中央本線 豊田駅,,,
GAME IN WHAT'S,東村山市栄町2-22-21,西武新宿線 久米川駅南口,,,
ゲームシティ国分寺南店,国分寺市南町2-17-1,JR中央線 国分寺駅西武多摩湖線 国分寺駅西武国分寺線 国分寺駅,ATOシステム採用　メダル・アーケードのみ,,
タイトーFステーション 国分寺店,国分寺市本町3-5-11Ｉビルディング,,,,
セガワールド福生,福生市大字福生1077他,JR青梅線 福生駅,,,
KIDS・PARK西友福生店,福生市東町5-1西友福生店5F,,,,
キャロム東大和店,東大和市立野2-2-2,多摩モノレール 上北台駅,,,
ハローズガーデン東大和,東大和市桜ケ丘2-142-1イトーヨーカドー東大和店 2F,多摩モノレール 桜街道駅,,,
ダイエー東大和,東大和市立野3-1344-1ダイエー東大和店2Fメルヘンランド,多摩モノレール 桜街道駅,,,
セガワールド東大和,東大和市桜が丘1-1330-1,西武拝島線 東大和市駅,,,
フタバ東大和,東大和市向原1-3-5,,,,
こころっこ東久留米店,東久留米市本町3-8-1イトーヨーカドー東久留米店内,西武線東久留米駅,,,
モーリーファンタジー東久留米店,東久留米市南沢5丁目17番62号イオン東久留米店 3F,,,,
ラウンドワン武蔵村山,武蔵村山市伊那平3-1-1,西武拝島線 武蔵砂川駅,,,
タイトーFステーションダイエー武蔵村山,武蔵村山市伊奈平3-36-1ダイエー武蔵村山店,,,,
ドラマ大南,武蔵村山市大南1-148,,,,
モーリーファンタジーむさし村山,武蔵村山市榎1-1-3イオンモールむさし村山 イオンむさし村山店3F,,,,
セガワールドドリームファクトリー,武蔵村山市榎1-1-3-2059イオンモールむさし村山2F,西武拝島線・多摩都市モノレール玉川上水駅からシャトルバスで10分,,,
THE 3RD PLANET 多摩センター店,多摩市落合1-39-2マグレブビル,京王相模原線 京王多摩センター駅小田急多摩線 小田急多摩センター駅多摩モノレール 多摩センター駅,2012/11/10open元アドアーズ多摩センター店,,
タイトーステーション 多摩センター店,多摩市落合1-45-1丘の上パティオ,旧：セガワールドパルテノス,,,
キッズトレイン,多摩市関戸1-11-1,京王線 聖蹟桜ヶ丘駅,旧：聖蹟桜ヶ丘ナムコランド,,
パロ聖蹟桜ヶ丘店,多摩市関戸4-72聖蹟桜ヶ丘オーパ6F,,,,
カプセル永山店,多摩市永山1-3-4ヒューマックスパビリオン2F～B1,京王相模原線 京王永山駅小田急多摩線 永山駅,,,
永山コパボウル,多摩市永山1-3-2ヒューマックスパビリオン6F,,,,
namcoクロスガーデン多摩店,東京都多摩市落合2-33 クロスガーデン多摩 3F,多摩センター駅,,,
よみうりランド丘の湯,稲城市矢野口3302-8,京王相模原線 よみうりランド駅,,,
プレイパーク,稲城市矢野口4015-1よみうりランド内,,,,
フロンティア小作,羽村市小作台1-6-29,JR青梅線 小作駅,,,
フタバ羽村,羽村市栄町1-13-1,,,,
ゲームパラダイス東京サマーランド,あきる野市上代継600,JR五日市線 武蔵増戸駅,,,
モーリーファンタジー日の出,西多摩郡日の出町平井字三吉野桜木237-3イオンモール日の出 イオン日の出店3F,JR五日市線 武蔵引田駅,,,
ユーズランド日の出店,西多摩郡日の出町大字平井字三吉野桜木237番地3イオンモール日の出3F,路線バス利用JR五日市線 武蔵引田駅,,,
ドラマ瑞穂店,西多摩郡瑞穂町武蔵388-1,,,,
ドラマ箱根ヶ崎,西多摩郡瑞穂町箱根ケ崎東松原11-5,JR八高線 箱根ヶ崎駅,,,
namcoザ・モールみずほ16店,西多摩郡瑞穂町高根623 ザ・モールみずほ16内,,,,
アドアーズ鶴見店Ｂ館,横浜市鶴見区豊岡町2-4,JR鶴見駅京急鶴見駅,,,
ゲームコスモ鶴見店,横浜市鶴見区豊岡町17-4,上同,,,
カバロ鶴見店,横浜市鶴見区鶴見中央3-15-30イトーヨーカドー鶴見店内2F,,,,
ヨコヤマ・ユーランド鶴見,横浜市鶴見区下末吉2-21-21,JR鶴見駅,入館料が必要,,
モラモラ東神奈川店,横浜市神奈川区富家町1東神奈川サティ4F,,㈱ハローズ系列,,
パソピアード横浜,横浜市西区南幸1-5-24相鉄ビル1F,横浜駅,横浜５番街,,
フリーダム,横浜市西区南幸1-5-27太洋3号ビル,,,,
プレイランド横浜高島屋店,横浜市西区南幸1-6-31横浜高島屋屋上,,,,
T/S横浜西口五番街店,横浜市西区南幸1-12-9,,T/S横浜店とは別、駅に近い昔プリクラのメッカがあったところにビルが建った,,
ラウンドワン横浜駅西口店,横浜市西区南幸2-8-16,,,,
GAMEサントロペ伊勢佐木町,横浜市中区伊勢佐木町3-96,関内駅伊勢佐木長者町,旧：AMサントロペ～,,
namco伊勢佐木町店,横浜市中区伊勢佐木町3-95,上同,旧：プレイシティキャロット伊勢佐木町店,,
AMESEMENT RAVE FACTORY　MARS,横浜市中区長者町6-106,上同,,,
ゲームセンターピロピロ,横浜市中区伊勢佐木町6-134,黄金町駅,レトロゲーム専門,,
ゲームスペースジャンボドーン,横浜市中区伊勢佐木町6-147本井ビル 1F,阪東橋駅,UFOキャッチャー専門,,
ナムコ 横浜ワールドポーターズ店,横浜市中区新港2-2-1横浜ワールドポーターズ5F,馬車道駅,,,
横浜みなとみらい 万葉倶楽部,横浜市中区新港2-7-1,みなとみらい駅,入場料が必要,,
コスモファンタジア,横浜市中区新港2-8-1よこはまコスモワールド内,桜木町駅みなとみらい駅,,,
ノスタルジア,横浜市中区桜木町１丁目１ぴおシティ地下2階,桜木町駅,レトロスロット専門,,
セガ横浜中華街,横浜市中区山下町80-1,元町・中華街駅石川町駅,,,
ハローズガーデン本牧店,横浜市中区小港町2-100-4イトーヨーカドー本牧店2F,,,,
モーリーファンタジー本牧店,横浜市中区本牧原7-1イオン本牧店5F,,旧：ポップンパーク本牧店,,
Kid's US.LAND ベイタウン本牧店,横浜市中区本牧原12-1ベイタウン本牧5番街 4F,,,,
T/Sイトーヨーカドー横浜別所店,横浜市南区別所1-115-2イトーヨーカドー横浜別所店内,,旧：H/T横浜,,
アミューズメントパークジアス上大岡店,横浜市港南区上大岡西2-1-28上大岡赤い風船1F,上大岡駅,,,
アミューズメントパークジアススクウェア,横浜市港南区上大岡西2-1-28上大岡赤い風船パート2 1F,上大岡駅,プリクラ専門,,
スコナランド港南台店,横浜市港南区港南台3-1-3港南台センターバーズ4F,港南台駅,旧：港南台センターナムコランド店,,
わんぱくランド港南台高島屋店,横浜市港南区港南台3-1-3港南台髙島屋　屋上,港南台駅,,,
モーリーファンタジー港南台店,横浜市港南区港南台3-1-2ダイエー港南台店4F,上に同じ,,,
イミグランデ上永谷店,横浜市港南区丸山台1-11-1上永谷ビル1・2F,上永谷駅,,,
プラサカプコン磯子店,横浜市磯子区磯子1-1-1マリコム磯子SC内,根岸駅,,,
クラブセガ新杉田,横浜市磯子区杉田1-1-1らびすた新杉田2F,新杉田駅杉田駅,,,
ゲームプラザピア小林店,横浜市磯子区杉田1-17-1プララ 杉田 杉田とうきゅう2F,京急線杉田駅と直結,,,
ゲームコスモ金沢文庫,横浜市金沢区谷津町344,金沢文庫駅,,,
モーリーファンタジー金沢八景店,横浜市金沢区泥亀1-27-1イオン金沢八景店2F,金沢八景駅,,,
キッズパーク イトーヨーカドー能見台,横浜市金沢区能見台東3-1イトーヨーカドー3F,能見台駅,ゲームコーナー,,
スコナランド金沢シーサイド店,横浜市金沢区並木2-13-13F,,イオン金沢シーサイド,,
八景島カーニバルハウス,横浜市金沢区八景島,シーサイドライン八景島駅,テーマパーク内ですが8号です。,,
クラブセガ綱島,横浜市港北区綱島西2-6-29城田ビル1F-3F,綱島駅,,,
イトーヨーカドー綱島店 ゲームコーナー,横浜市港北区綱島西2-8-1,綱島駅,ゲームコーナー,,
ラウンドワン綱島店,横浜市港北区樽町2-6-40,綱島駅,,,
モーリーファンタジー横浜新吉田店,港北区新吉田東8-49-1イオン横浜新吉田店2F,新羽駅,旧：ファンタジーアイランド～,,
スウィングスタジアム横浜,港北区新羽町904,新羽駅,ゲームコーナー,,
namcoトレッサ横浜店,横浜市港北区師岡町700トレッサ横浜南棟3F,綱島駅,どの駅からも微妙な距離にあるため車、もしくはバス（綱島・日吉・鶴見・新横浜）が便利。,,
ドヌオス新横浜店,横浜市港北区師岡町911ZAM新横浜2F,綱島駅,ゲームコーナートレッサの近くのため上記と同様,,
ジアス新横浜,横浜市港北区新横浜2-1-19ingビル 2F,新横浜駅,,,
イミグランデ日吉店,横浜市港北区日吉2-2-4,日吉駅,通り沿いに1号館・2号館・3号館あり1号館→スタホ・スロット中心2号館→ガンスリンガーストラトス・MFC3号館→格ゲー・音ゲー中心,,
タイトーステーション戸塚西口店,横浜市戸塚区戸塚町4023,戸塚駅,旧：タイトーイン戸塚西口,,
モーリーファンタジーサクラス戸塚店,横浜市戸塚区戸塚町4253-1サクラス戸塚2F,戸塚駅,,,
スウィーツファクトリーパックン戸塚店,横浜市戸塚区上倉田町769-1アピタ戸塚店3F,戸塚駅,,,
モーリーファンタジー東戸塚店,横浜市戸塚区品濃町535-1イオンスタイル東戸塚店2F,東戸塚駅,,,
戸塚ボーリングセンター,横浜市戸塚区矢部町445,,,,
キッズトレイン東戸塚店,横浜市戸塚区品濃町537-1オーロラモール6F,東戸塚駅,,,
amue,横浜市戸塚区品濃町536-1オーロラモールアネックス7F,,,,
モラモラ東戸塚店,横浜市戸塚区川上町52-1オリンピック東戸塚店3F,,,,
ラウンドワン横浜戸塚店,横浜市戸塚区影取町1759-5,,,,
キッズプラザきゃらんど立場店,横浜市泉区中田西1-1-15イトーヨーカドー立場店3F,,,,
NICOPA　四季の森フォレオ店,横浜市旭区上白根3-41-1四季の森フォレオ3F,,旧：H/T四季の森,,
ファミリーランド鶴ヶ峰店,横浜市旭区鶴ヶ峰1-7-10ザ･プライス鶴ヶ峰店3F,鶴ヶ峰駅,,,
イトーヨーカドー若葉台店,横浜市旭区若葉台3-7-1,上に同じ,ゲームコーナー,,
アミューズメント・パラダイスシティ,横浜市旭区二俣川1-43-28ドン・キホーテ二俣川店5F,二俣川駅,,,
ヤードパル・アストロ,横浜市旭区鶴ヶ峰本町1-38-3,鶴ヶ峰駅,,,
アミューズメントスポットドリームス鴨居,横浜市緑区鴨居3-1-9,鴨居駅,,,
Play Land 54Street 十日市場店,横浜市緑区十日市場町818-2ダイエー十日市場店3F,十日市場駅,,,
スウィーツファクトリーパックンアピタ長津田店,横浜市緑区長津田みなみ台4-7-1アピタ長津田店2F,,,,
フロンティア三ツ境店,横浜市瀬谷区三ツ境6-1,三ツ境駅,,,
モーリーファンタジー三ツ境店,横浜市瀬谷区三ツ境7-1ダイエー三ツ境店2F,三ツ境駅,,,
モラモラ瀬谷店,横浜市瀬谷区中央6-20マルエツ瀬谷店2F,,,,
アクティランド橋戸,横浜市瀬谷区橋戸2-36-1フジシティオ内,,,,
すすき野湯けむりの里,横浜市青葉区すすき野3-2-7,上に同じ,ゲームコーナー入場料必要,,
ナムコランドWAOこどもの国店,横浜市青葉区奈良1-2-1三和ショッピングセンター3F,こどもの国線こどもの国駅,,,
プラボ都筑店,横浜市都筑区川和町846-1,川和町駅,,,
ファンタスティックジャーニー,横浜市都筑区池辺町4035-1イトーヨーカドーららぽーと横浜店2F,鴨居駅,,,
namcoららぽーと横浜店,横浜市都筑区池辺町4035-1ららぽーと横浜2F,鴨居駅,,,
namco港北TOKYUショッピングセンター店,横浜市都筑区茅ヶ崎中央5-1港北東急百貨店6F,センター南駅,旧：ワンダーパーク港北,,
ネバーランド,横浜市都筑区中川中央1-36-16,センター北駅,,,
THE 3RD PLANET 港北ニュータウン店,横浜市都筑区中川中央1-25-1ノースポート・モール 6F,センター北駅,,,
モーリーファンタジー,横浜市都筑区中川中央1-31-1モザイクモール5F,センター北駅,,,
アメイジングワールド,横浜市都筑区中川中央2-2-1ルララこうほく4F,センター北駅,,,
ドラマ港北インター店,横浜市都筑区東方町321-6,鴨居・小机駅,新羽・鶴見・中山・大倉山駅からバスが便利,,
SILK HAT 川崎ダイス,川崎市川崎区駅前本町8ダイスビルB2F,川崎駅,旧：AM PIA川崎ダイス,,
AM PIA 川崎モアーズ,川崎市川崎区駅前本町7岡田屋モアーズ1F-2F,〃,,,
スターライト,川崎市川崎区小川町14-3,〃,※スロットゲーセン,,
アドアーズイサゴ店,川崎市川崎区砂子2-5-5岡田屋2BKビル 1F-2F,〃,メダルゲーム専門,,
アドアーズ川崎店,川崎市川崎区砂子2-6-26泉屋砂子ビル1F,〃,メダルゲーム専門,,
ウェアハウス川崎店,川崎市川崎区日進町3-7,〃,8号営業ですが18禁。,,
川崎グランドボウル,川崎市川崎区宮前町11-14,〃,ゲームコーナー,,
NICOPA&nicoground川崎,川崎市川崎区富士見1-5-5マーケットスクエア川崎イースト1F,港町駅,,,
キッズトレインなっつべりい,川崎市川崎区港町12-1イトーヨーカドー川崎港町店2F,鈴本町駅,,,
こころっこ川崎店,川崎市川崎区中瀬3-20-20ホームズ川崎大師店2F,東門前駅,,,
アミュ－ズメントベネクス川崎店,川崎市川崎区鋼管通4-95,浜川崎駅,,,
ラウンドワン川崎大師店,川崎市川崎区殿町1-5-1,産業道路駅,,,
プレイランド川崎店,川崎市川崎区小田栄2-2-1イトーヨーカドー川崎店3F,小田栄駅,旧：～エスパ川崎店,,
モーリーファンタジー川崎小田栄,川崎市川崎区小田栄2-3-1コーナン川崎小田栄2F,小田栄駅,,,
AM PIA ラ チッタデッラ,川崎市川崎区小川町4-1ラ・チッタデッラ B1F,2014/11/3閉店,,,
サムズタウン川崎店,川崎市川崎区駅前本町4-12ムラタヤビル アネックス1F-3F,2018/1/31閉店,,,
namcoラゾーナ川崎店,川崎市幸区堀川町72-1ラゾーナ川崎プラザ4F,川崎駅,旧：NL川崎店,,
YAZ川崎店,川崎市幸区小倉1658-35クロスガーデン川崎1F,尻手駅,,,
ジョイランド中原店,川崎市中原区上小田中6-19-6,武蔵中原駅,,,
イトーヨーカドー武蔵小杉駅前,川崎市中原区小杉町3-420,武蔵小杉駅,,,
タイトーステーション 溝の口2号店,川崎市高津区溝口2-13-5,JR南武線 武蔵溝ノ口駅東急田園都市線・大井町線 溝の口駅,2015/10/4オープン,,
イミグランデ溝の口,川崎市高津区溝口1-14-7 カスタムビル,,,,
ラウンドワン高津店,川崎市高津区二子4-8-1,東急田園都市線 高津駅,,,
テクモピア 向ケ丘遊園店,川崎市多摩区登戸2755ミノワホームズ1F,向ケ丘遊園駅,EMBED採用,,
モーリーファンタジー向ケ丘店,川崎市多摩区登戸2789ダイエー向ケ丘店3F,〃,,,
ゲームインスターズ,川崎市多摩区登戸2978,〃,,,
遊びっこ広場ふぉるむ川崎宮前店,川崎市宮前区犬蔵3-9-12マルエツ川崎宮前店内,,,,
わんぱくキッズランド,川崎市宮前区野川16-1FUJI上野川店内,,,,
ファミリーランド向ヶ丘店,川崎市宮前区平2-3-10ヤマダ電機2F,,旧：ダイクマ向ヶ丘店(ナムコ系列),,
遊びっこ広場ふぉるむ川崎野川店,川崎市宮前区野川3961-1,,移転,,
イオン新百合ヶ丘ファミリーパーク,川崎市麻生区上麻生1-19イオン新百合ヶ丘4F,新百合ケ丘駅,,,
ムトス相模原店,相模原市中央区中央2-1-5,相模原駅,OPが2012年9月に破産、ともかく目玉のようなネオンが目印,,
相模原パークレーンズ,相模原市中央区相模原2-7-4,相模原駅,ゲームコーナー,,
イミグランデ相模原店,相模原市中央区東淵野辺4-15-1,古渕駅,手前に旧館、奥に新館がある,,
相模原バッティングセンター,相模原市中央区南橋本4-6-11,南橋本駅,,,
モーリーファンタジー相模原小山,相模原市中央区小山3-37-1コーナン相模原モール2F,南橋本駅,,,
namcoダイエー上溝店,相模原市中央区上溝5-14-19グルメシテイ上溝店4F,上溝駅,,,
ドラマ星ヶ丘,相模原市中央区星ヶ丘3-7-7,上溝駅,,,
アピナ橋本店,相模原市緑区西橋本5-1-1 1F,橋本駅,ラ・フロ－ル内,,
コーナン相模原西橋本,相模原市緑区西橋本5-4-3,橋本駅,,,
アドアーズ橋本店,相模原市緑区橋本3-3-1SING橋本2F,橋本駅,,,
アミューズメント PLABI アリオ橋本店,相模原市緑区大山町1-22アリオ橋本2F,橋本駅,,,
町田ボウリングセンター,相模原市南区上鶴間本町3-11-8,,,,
クラブセガ相模大野,相模原市南区相模大野3-13-2東和ビル2F,,旧：サミーズストリート相模大野唯一の旧サミーアミューズメントのお店です。,,
（株）大野バッティングセンター,相模原市南区鵜野森2-3-21,,,,
namcoイオン相模原店,相模原市南区古淵2-10-1　イオン相模原店内,古淵駅,旧：NLイオン相模原店,,
モーリーファンタジーイオン相模原,相模原市南区古淵2-10-1 イオン相模原3F,古淵駅,,,
セガワールド古淵,相模原市南区古淵3-13-33イトーヨーカドー3F,古淵駅,,,
ニコパニトリモール相模原,相模原市南区大野台6-1-1ニトリモール相模原3F,古淵駅,,,
キッズトレイン相模原,相模原市松が枝町17-1イトーヨーカドー相模原店3F,小田急相模原駅,,,
GAME SILK HAT 横須賀中央,横須賀市若松町1-5プライムビル,横須賀中央駅,旧：AM St.Tropez 横須賀中央,,
アミューズメントパラダイスゼロワン,横須賀市若松町1-6ヨコビル内,レトロビデオゲームが多数,,,
プラサカプコン横須賀店,横須賀市若松町2-30モアーズシティ内,,,,
アドアーズ横須賀店,横須賀市本町3-27 横須賀APT 1F,汐入駅、横須賀駅,,,
パロ横須賀店,横須賀市本町2-1-12ショッパーズプラザ横須賀4F,汐入駅、横須賀駅,旧:アトランティックシティー,,
らんらんらんど横須賀店,横須賀市本町2-1-12ショッパーズプラザ横須賀 4F,,同一OPでもパロ横須賀店とは別,,
ゲームランデブー横須賀店,横須賀市本町2-1-12ショッパーズプラザ横須賀 5F,,旧：オクティガーデン,,
リヴインよこすか　キッズパーク,横須賀市平成町3-21-4リヴインよこすか2F,,,,
モーリーファンタジー久里浜店,横須賀市久里浜5-13-1イオン久里浜店3F,,旧：ファンタジーアイランド…,,
ゲームファンタジア平塚店,平塚市紅谷町14-21,JR東海道線　平塚駅,,,
namcoOSC湘南店,平塚市代官町33-1OSC湘南シティ内,〃,旧：ナムコランド平塚店、OSCの方にもゲームコーナーあり,,
アミューズメントランドYAZ平塚店,平塚市田村1-4-26,,,,
SEEK ONE,平塚市田村2-7-31ドン・キホーテビル4F,,,,
アミューズメントべネクス平塚店,平塚市四之宮6-10-27,,,,
GAME PIA大船,鎌倉市大船1-24大船駅前ビル 1F-3F,大船駅,旧：AM～,,
ホームラン,鎌倉市大船1-5-10大船会館 2F,大船駅,,,
ジャンボリー大船店,鎌倉市大船6-1-1イトーヨーカドー大船店2F,大船駅,,,
アドアーズ藤沢北口店,藤沢市藤沢460-1,藤沢駅北口,元アブレイズ藤沢店,,
ゲームインファンファン藤沢店,藤沢市鵠沼石上1-3-8,藤沢駅南口,,,
TFS藤沢店,藤沢市南藤沢21-1,,,,
ゲームランデブーダイエー藤沢店,藤沢市藤沢520ダイエー藤沢店5F,,,,
アニメイト藤沢店,藤沢市鵠沼東1-2藤沢プラザ B1F,,ゲームセンター併設,,
ソユーゲームフィールド湘南店,藤沢市辻堂新町4-1-1湘南モールFILL 2F,,旧：SOYU LAGOON湘南店,,
楽市楽座湘南藤沢店,藤沢市辻堂新町4-3-5ミスターマックス湘南藤沢SC 2F,,,,
ドラマ藤沢店,藤沢市本藤沢5-6-8,小田急線善行駅徒歩15分,,,
プレイランドピカキッズ,藤沢市石川6-2-1イトーヨーカドー湘南台店,,,,
長後ゲームセンター,藤沢市下土棚507,長後駅,,,
カバロ藤沢店,藤沢市鵠沼石上1-10-1イトーヨーカドー藤沢店5F,,,,
T/S小田原シティーモールクレッセ店,小田原市前川120小田原シティーモールクレッセ 2F,,旧：TAC小田原,,
セガワールド小田原,小田原市中里296-1ダイナシティイーストモール イトーヨーカ堂 3F,JR鴨宮駅から徒歩20分小田原厚木道路 小田原東ICから車で5分西湘バイパス 国府津ICから車で5分,,,
小田原メトロポリス,小田原市前川219-4,JR国府津駅から徒歩20分巡礼街道沿い,コロナワールド小田原内,,
T/S小田原店,小田原市栄町1-3-12,小田原駅,ようやくインベーダーの仲間入り小田原の2店舗を間違えないように,,
ヒルトン小田原リゾート＆スパ(ホテル内ゲームコーナー),小田原市根府川583-1,,旧スパウザ小田原,,
モーリーファンタジー茅ヶ崎店,茅ヶ崎市茅ヶ崎2-7-71イオン茅ヶ崎店3F,,旧：ダイナレックスイオン茅ヶ崎中央店と間違えないこと 2015年6月27日にリニューアル,,
モーリーファンタジー茅ケ崎中央店,茅ヶ崎市茅ケ崎3-5-16イオン茅ヶ崎中央店3F,,旧：ファンタジーアイランド茅ヶ崎店イオン茅ヶ崎店と間違えないこと,,
PLAY-IC 東海大学前店,秦野市南矢名1-15-1,東海大学前,,,
コパ3,秦野市南矢名2-19-5,,,,
秦野マスターズボウル,秦野市今川町1-7明玉ビル5F,,ゲームコーナー,,
モーリーファンタジー秦野店,秦野市入船町12-1イオン秦野店2F,,旧：ファンタジーアイランド…,,
SILK HAT 本厚木,厚木市中町2-4-13本厚木駅前ビル,,,,
パームトップス,厚木市中町4-15-9,,旧：LaOXコンピュータ館隣パームトップスはセガです。,,
ゲームインファンファン本厚木店,厚木市中町2-1-6,,,,
イミグランデ本厚木店,厚木市中町3-2-1,,厚木市中町2-11-10から移転,,
ファミリーランド厚木店,厚木市中町4-13-1イトーヨーカドー厚木店内6F,,,,
厚木プラザボウル　ゲームコーナー,厚木市中町2-3-1ダイヤプラザビル7F,,,,
ミリアンパーク,厚木市田村町9-25,本厚木駅徒歩10分,,,
神奈川レジャーランド厚木店,厚木市戸室5-31-1,,TVゲームエリアは24:00まで,,
アクティランド戸室,厚木市戸室1-29-15パシオス2F,,,,
厚木ツマダボウル,厚木市妻田北1丁目11-14,,R246,,
アドアーズ大和店Ａ館,大和市大和東1-4-3大黒屋ビル1F-2F,大和駅,,,
ゲームリスボア,大和市大和東1-3-12,大和駅が近いです,,,
桜ヶ丘ボウル,大和市深見3875,,GC併設,,
アミューズメントべネクス大和店,大和市下鶴間2752-2,,,,
イミグランデ大和店,大和市鶴間2-12-27,,,,
ドヌオス鶴間店,大和市下鶴間2-1-6,,ゲームコーナー,,
プレイランド大和鶴間店,大和市下鶴間1-3-1イトーヨーカドー大和鶴間店3F,,,,
モーリーファンタジー大和鶴間店,大和市下鶴間1-2-1イオン大和鶴間店3F,,,,
モーリーファンタジー大和店,大和市下和田字上ノ原1216-1イオン大和店3F,,MF大和鶴間店と間違えないこと,,
月見野バッティングセンター,大和市下鶴間807-1,,,,
T/S ダイエー伊勢原店,伊勢原市白根630-1ダイエー伊勢原店内,,旧：ダイエー伊勢原,,
ファミリーランド伊勢原店,伊勢原市桜台1-8-1イトーヨーカドー伊勢原店3F,,,,
T/S 海老名ビナウォーク店,海老名市中央1-18-1ビナウォーク6番館2F,海老名駅,旧：タイトートラップ,,
ハローズガーデン海老名店,海老名市中央2-4-1イオン海老名店2F,海老名駅,,,
イミグランデ海老名店,海老名市中央1-19-32,海老名駅,旧サンデーサン,,
ファンタジーキッズリゾート海老名店,海老名市中央3-2-5ショッパーズプラザ海老名3F,海老名駅,,,
ネバーランド2,座間市ひばりが丘4-11-8,さがみ野駅,,,
モラモラ大雄山店,南足柄市関本569ピアゴ大雄山店2F 3F,,,,
ミネボウル,綾瀬市上土棚南5-5-7,,,,
ハローズガーデン綾瀬店,綾瀬市深谷3734-1綾瀬タウンヒルズショッピングセンター2F,,,,
アミューズメントガーデン大磯,中郡大磯町国府本郷546,,,,
ゆう遊空間 新潟弁天橋店,新潟市中央区紫竹山5-1-15,JR新潟駅より車で5分,,,
ファミリーランド,新潟市中央区本町通6-1122-1イトーヨーカドー丸大新潟店6F,,,,
ROUND 1 スタジアム新潟店,新潟市中央区美咲町2-1-38,ホンマ健康ランドそば,,,
DeKKY401ファミリーパーク,新潟市中央区上近江4-12-20DeKKY401 2F,越後線 関谷駅,,,
ビルボードプレイスゲームコーナー,新潟市中央区八千代2-5-7万代シテイビルボードプレイス／BP2内,上越新幹線 新潟駅,,,
シルクドゥガリバー 新潟店,新潟市中央区南笹口1-1-1ドンキホーテ2F,新潟駅徒歩5分,,,
カプコサーカス新潟東,新潟市東区大形本町3-1-2ジャスコシティ新潟東内,,,,
新潟空港ビル,新潟市東区松浜町3710,,,,
モーリーファンタジー新潟東,新潟市東区大形本町3-1-2イオン新潟東店3F,白新線 大形駅,,,
カプコサーカス新潟東,新潟市東区大形本町3-1-2イオン新潟東店内ゲームコーナー,,,,
ゲオ新潟空港通り,新潟市東区浜谷町2-4-6,R113,,,
ポピー豊栄,新潟市北区内島見浦潟2545-2,,,,
モーリーファンタジー・ｆ NIIGATAMINAM店,新潟県新潟市江南区下早通柳田1-1-1イオンモール新潟南2階,,旧名famiu,,
モーリーファンタジー新潟南店,新潟県新潟市江南区下早通柳田1-1-1イオンモール新潟南3階,,,,
ハローズガーデン 新潟亀田店,新潟市江南区鵜ノ子4-446 アピタ亀田店2F,,,,
ゆう遊空間 新潟新津店,新潟市秋葉区程島萱の中1964-1,,,,
わんぱく遊園,新潟市秋葉区新津山谷南4566-1,,,,
メジャーロード白根店,新潟市南区上下諏訪木948-2,,,,
ららぽーと,新潟市南区茨曽根2433-1,,,,
タイトーＦステーション イオン新潟西店,新潟市西区小新南2-1-10 イオン新潟西店3F,,,,
リバプール,新潟市西区寺尾朝日通27-25,JR小針駅より車で5分新潟西郵便局向かい,,,
メジャーロード黒崎店,新潟市西区山田3302,サントノーレ裏,,,
ハローズガーデン 新潟西店,新潟市西区小新白鳥474 アピタ新潟西店2F,,,,
モーリーファンタジー新潟青山店,新潟市西区青山2-5-1,イオン新潟青山店2階,イオン新潟青山店復活に伴い開店,,
TFSイオン新潟西店,新潟市西区小新南2-1-10 イオン新潟西店3F,,旧：TFS新潟サティ店,,
プレイハウス エリナ,新潟市西蒲区津雲田640,JR岩室駅より車で5分,,,
ルナパーク,新潟市西蒲区曽根1554-1,,,,
プレイランド,柏崎市東本町1-16-35ショッピングセンターフォンジェ内,,,,
ナムコランドMEGAドン･キホーテ柏崎店,柏崎市東長浜町4-15MEGAドン･キホーテ柏崎店2F,,旧：ラパーク柏崎ナムコランド店,,
ナムコランドイオン三条店,三条市西裏館2-12-20,,旧：ジャスコ三条店ナムコランド,,
ソユーアスリートパーク 新発田店,新発田市住吉町5-11-5 イオン新発田SC2F,,6/30リニューアルOPEN,,
アピナ上越インター店,上越市下門前1661,,,,
T/S 上越店,上越市富岡3524 J-MAXシアター内,,,,
上越レジャーランボウル,上越市下門前薬島827-2,JR・えちごトキめき鉄道 直江津駅南口から徒歩約20分。関川大橋そば,同系列のカラーワールドと隣接しているが別店舗,,
ファミリーランド,上越市西本町3-8-8 イトーヨーカドー直江津店2F,,,,
ヴィバゾン,糸魚川市寺島3-2-40 2F,,,,
タイトーFステーション燕三条店,燕市井戸巻3-150 県央サティアメニティ棟1F,,,,
モーリーファンタジー県央店,燕市井土巻3-65イオン県央店2階,,,,
オーケーコーラル,燕市佐渡5160,三条燕ICより車で5分,,,
公楽園,燕市分水町大字熊森1283-1,JR分水駅より車で10分,,,
スターフィールド,長岡市新組町2003-1,,,,
テクノポリス,長岡市要町1-8-50,JR宮内駅より車で5分県道498号線沿い,,,
ナムコランドイオン長岡店,長岡市小沢町249-1,,旧：ジャスコ長岡店ナムコランド,,
プラボ長岡,長岡市堺町字浦田31アークガレリア長岡内,,,,
アピナ長岡店,長岡市堺東町22,,,,
プレイランド,岡市城内町2-3-12,JR長岡駅大手口（西口）から徒歩2分,イトーヨーカドー丸大長岡店6F,,
メジャーロード見附店,見附市上新田町字下野沖516-1,,,,
メジャーロード24,見附市今町4-20-568-1,,,,
プレイゾーンバンブー,南魚沼市竹俣60-6,17号モスバーガー隣り,スロットゲーセン,,
メジャーロード六日町,南魚沼市美佐島1801,,,,
ＷＩＮ,村上市田端町13－35,,,,
フリータイム,村上市九日市129,R7沿いJR岩船町駅より徒歩9分,,,
宝島十日町店,十日町市字上島丑735-1,,,,
ACT 五泉店,五泉市木越石道1930,竜門寺の近く,,,
GACEN HAWK,北蒲原郡聖籠町大夫興野,国道113号線沿い,参考,,
T/S ファボーレ婦中店,富山市婦中町下轡田165-1フューチャーシティファボーレ2F,速星駅が最寄だが富山からバスのほうが楽,KID店はありません旧：H/T 府中,,
アピタ富山店ナムコランド,富山市上袋100番地アピタ富山店2F,,,,
アピタ富山東店ゲームコーナー,富山市上冨居3-8-38アピタ富山東店2F,,旧：NLアピタ富山東店、namcoアピタ富山東店ナムコの直営から外れています。,,
GAMEinさんしょう富山駅前店,富山市桜町1-7-5,JR富山駅前,,,
GAMEinさんしょう二口店,富山市二口町5-9-7,,,,
GAMEinさんしょうアピタ富山店,富山市上袋100番地1アピタ2F,,,,
サービスエリアin古沢店,富山市古沢477,県道9号線(富山有沢線)沿い古沢交差点近く,,,
トヤマレジャーランド呉羽店,富山市高木字貝塚2054,県道44号線沿い,「トヤマ」はカタカナです。,,
アピナ富山新庄店,富山市荒川3-2-12,国道41号線沿い,,,
アピナ富山豊田店,富山市豊田町2-12-66,県道172号線沿い豊田2丁目交差点近く,,,
ハローワールド,富山市新庄銀座180,国道41号線沿い神島リビング近く,,,
らんらんらんど富山店,富山市堀川町355-7マイプラザ2F,,,,
アピナ富山南店,富山県富山市堀川町355-3マイプラザ内,,,,
常願寺サービスエリア,富山市水橋二杉120-1,国道8号線沿い水橋二杉交差点付近,8号です,,
アプレシオ呉羽店,富山市呉羽町2454-1,県道44号線(旧8号線)沿い,,,
サービスエリアin高岡店,高岡市石瀬下石瀬857-1,国道8号線富山高岡バイパスを側道へ降りる下石瀬西交差点すぐ,,,
ユーズランド,高岡市下伏間江383イオン高岡SC2F,,,,
Get Game佐野店,高岡市西藤平蔵1256-1AGIO 2階,国道156号線沿い加越能バス北蔵新より徒歩数分,,,
オートレストランぞうさん,高岡市戸出町野瀬689,国道156号線沿い,,,
ゲームスポット207,高岡市鐘紡町1655-3,国道156号線沿い鐘紡町南交差点近く,向かいはクラシエ薬品の漢方工場,,
West Coast,高岡市駅南2丁目1-1,,,,
ゲームスポット306,富山県高岡市昭和町2丁目267-5,国道8号線沿いヤマダ電機高岡店裏,,,
ドライブイン頼成山,砺波市頼成新5657-2,,参考,,
アピタ魚津店ゲームコーナー,魚津市住吉600番地アピタ魚津店2F,,旧：NLアピタ魚津店ナムコの直営から外れています,,
ゲームスポットアップル魚津,魚津市吉島2-407-1,(旧)国道8号線沿いアルペン隣,,,
らんらんらんど魚津店,魚津市駅前新町5-30サンプラザ3F,,,,
らんらんらんど氷見店,氷見市幸町9-78ハッピータウン氷見店2F,,,,
大仙自販機ショップ 氷見店,氷見市柳田4,国道160号線沿い,参考,,
プレイランド黒部,黒部市沓掛645,国道8号線沿い黒部IC入口交差点近く,,,
JINJINダイナー,小矢部市安楽寺2035-1,,,,
クアトロブーム小杉店,射水市小杉町三ヶ2602平和堂小杉店2F,JR小杉駅前,コスモパーク小杉店,,
ゲームセンター海豹,下新川郡入善町,国道8号線沿い,サービスエリアin入善店から西へ少し進んだところ,,
サービスエリアin入善店,下新川郡入善町上野柳堀7253-2,国道8号線沿い,,,
GAMEinさんしょうJr.入善コスモ21店,下新川郡入善町椚山1336番地コスモ21,国道8号線沿い椚山交差点すぐ,小規模ゲームコーナー,,
T/S 金沢,金沢市片町2-1-7宇都宮片町ビル,,不定期に25時まで営業（本店は営業延長許容地域内）,,
金沢コロナワールドメトロポリス金沢店,金沢市無量寺4丁目121番地1,映画館、ドン・キホーテなども併設,,,
スーパーフリークス駅西バイパス店,金沢市駅西新町2-3-10,金沢駅から車で5分、国道8号線沿い,,,
セガワールド金沢,石川県金沢市諸江町30番1,,アルプラザ金沢の営業は21時までだが、セガワ金沢の営業は22時まで。,,
バイパスレジャーランド藤江本店,金沢市藤江南2-41,国道8号線沿い、藤江交差点近く,全エリア8号です。参考,,
バイパスレジャーランド藤江本店新館,金沢市藤江南2-105,,参考,,
ファンタジープラザ金沢,金沢市西泉町4-11長崎屋内,長崎屋が閉店、MEGAドン・キホーテラパーク金沢店へ改装したものの、店は残っている,,,
モーリーファンタジー杜の里,金沢市もりの里1-70イオンもりの里SC イオンもりの里店2F,,,,
ゲーム・パラダイス,金沢市堀川新町5-1アミューズメントスクエア3F,,,,
ベティ,七尾市ウ部38,国道249号線沿い,看板猫がいる,,
コング七尾店,七尾市府中町員外26,七尾フィッシャーマンズワーフ前,,,
ナムコランド輪島,輪島市宅田町45-1パワーシティ輪島ワイプラザ内,市立輪島病院向い,,,
アミュージアム小松店,小松市園町八23-1アルプラザ小松店内2F,,2017年5月OPEN・旧タカラ島　アルプラザ小松店,,
タカラ島 小松店,小松市平面町ア-69イオン小松店1F,,タカラ島アルプラザ小松店と間違えないように,,
コスモランド小松店,小松市有明町105-5,国道8号線沿い、ホテルサンルート小松向かい,,,
バイパスレジャーランド加賀店,加賀市箱宮町ヲ1-1,国道8号線、加賀産業道路終点近く,参考,,
オートレストランヤング湯の国,加賀市庄町カ47,国道8号線沿い,,,
オートグリル羽咋,羽咋市兵庫町タ11-3,,,,
namcoイオンモールかほく店,かほく市内日角タ25番イオンモールかほく2F,,旧：NLイオンモールかほく店、NLイオンかほく店,,
バイパスレジャーランド宇ノ気店,かほく市森子85,国道159号線沿い,参考,,
アピタ松任店ゲームコーナー,白山市幸明町280アピタ松任店2F,,旧：NLアピタ松任店,,
コスモパーク白山,白山市中奥町190-1,,,,
手取フィッシュランド,能美市寺井町栗生ツ58,,,,
アピナ野々市店,野々市市若松町5-5,ホームセンターヤマギシ近く,旧：ののいちスタジアム55,,
スーパーフリークス野々市本店,野々市市若松町21-10,,,,
はにーわんだー,野々市市高橋町14-36,金沢工業大学近く,,,
namcoアルプラザ鹿島店,鹿島郡中能登町井田と1-1アルプラザ鹿島店2F,,旧：アルプラザ鹿島店ナムコランド,,
BIGSANTA,河北郡津幡町北中条1街地1アルプラザ津幡2F,JR津幡駅徒歩10分,,,
フクイレジャーランドワイプラザ店,福井市新保町7-9-1ヤスサキワイプラザB棟2F,国道8号線沿い新保交差点近くえちぜん鉄道越前新保駅からも可,参考,,
JOYLANDベル店,福井市花堂南2-16-1,,,,
JOYLAND江守店,福井市江守中2-1508,,,,
オモローランド ベル店,福井市花堂南2-16-1,,,,
ナムコランドアピタ福井店,福井市飯塚町11-111アピタ福井店2F,,,,
セガ福井,福井市丸山町1-410,国道8号沿いだがえちぜん鉄道「越前開発」から徒歩も可,旧名：セガアリーナ,,
JOYLAND大和田店,福井市大和田町56字10,国道8号線沿い大和田交差点近く,,,
JOYLANDパリオ店,福井市松城町12－7,,,,
レッツワクワクエルパ店,福井市大和田町第32号24エルパ2F,,,,
namcoフェアモール福井大和田店,福井市大和田町第32号23番地アピタ福井大和田店2F,,旧：フェアモール福井ナムコランド,,
スタークラブ,福井市林町第55-16,,,,
アプレシオ米松店,福井市長本町610,国道8号線沿い丸山交差点角,麻格店舗,,
オモローランド,敦賀市白銀町11-5アルプラザ6F,,,,
ナムコランドアピタ敦賀店,敦賀市中央町1-5-5アピタ敦賀店2F,,,,
アシアネット,敦賀市神楽町1-3-21,,,,
USA ARENA,敦賀市木崎40号土三田12番,,,,
セガワールド武生,越前市新町3字13-4,,,,
T/S鯖江店,鯖江市下河端町16－6－1アルプラザ鯖江アミューズ棟内,,旧：S/T鯖江久しぶりの「タイトーステーション」登場です。,,
JOYLAND鯖江店,鯖江市宮前1-6-14,国道8号線沿い,,,
わくわくらんど鯖江店,鯖江市有定町3-1-1,,,,
ファンタジーランド イーザ,坂井市三国町三国東5-1-20,,,,
JOYLANDヴィオ店,大野市鍬掛17-17-1,,,,
大野プレイランド,大野市月美町4-8,,JOYLANDリブレ店？,,
JOYLANDサンプラザ店,勝山市元町1丁目7-28,,(※HPからの転載),,
スタジオプリモ 甲府店,甲府市丸の内1-16-20ココリ 2F,甲府駅,,,
岡島甲府店プレイランド,甲府市丸の内1-21-25岡島甲府店内6F,甲府駅,ナムコ系,,
モーリーファンタジー湯村店,甲府市千塚1-9-14オギノ湯村店4F,,旧：らんらんらんど湯村店,,
ゲームコーナー ワコーズ,甲府市朝気3-1-12オギノイーストモールSCバリオ2F,,元プレイランド・センシンバリオ店,,
ゲームパニック甲府,甲府市国母5-20-24,R20沿い、甲府昭和ICより石和方面へ3分国母駅から徒歩約23分,元パル国母,,
プレイタウンパル 富士吉田,富士吉田市新西原4-12-15,R139沿い,富士急ハイランドそば,,
ゲームQ,富士吉田市上吉田2-5-1Q-STA 4F,富士急行富士山駅,元こども王国ゲームdo,,
都留ファミリーボウル,都留市上谷6-7-13,,,,
TFSラザウォーク甲斐双葉店,甲斐市志田616-1ラザウォーク甲斐双葉店アミューズメント棟1階,R20沿い塩崎駅,,,
モーリーファンタジー石和店,笛吹市石和町松本222-1イオン石和3F,石和温泉駅,旧：ダイナレックス,,
ハローズガーデン石和店,笛吹市石和町窪中島116-1アピタ石和店2F,,,,
ラウンドワン山梨・石和店,笛吹市石和町広瀬737-1,R20沿い甲府駅北口＆酒折駅よりシャトルバス,公称ラウンドワン100号のお店,,
大丸パークレーンズ,中央市下河東3053-1イオンタウン山梨中央内,,,,
ナムコランドリバーシティ店,中央市山之神1122オギノリバーシティーSC2F,,,,
ファミリーアミューズメント田富店,中央市山之神1383-9アピタ田富店2F,,旧：ハローズガーデン田富店,,
楽市楽座イオンモール甲府店,中巨摩郡昭和町飯喰1505-1イオンモール甲府昭和2F,常永駅甲府駅南口よりシャトルバス,,,
モーリーファンタジー甲府昭和店,中巨摩郡昭和町飯喰1505-1イオン甲府昭和店3F,常永駅甲府駅南口よりシャトルバス,,,
カバロ甲府昭和店,中巨摩郡昭和町西条13-1イトーヨーカドー甲府昭和店2F,,旧：わいわいランド,,
プラサカプコン甲府店,中巨摩郡昭和町西条3717,R20沿い,ゲームパニック甲府店すぐそば,,
アミュージアム河口湖店,南都留郡富士河口湖町船津2986河口湖SCベル3F,R139沿い,,,
ゲームセンター,南都留郡富士河口湖町船津6713ー17河口湖バッティングセンター併設ゲーセン,,2015年秋頃閉鎖現在はカプセルホテル,,
アミュージアム南アルプス店,南アルプス市小笠原1423-1トライアル南アルプス店1F,,2017/3/4open,,
ドルフィン長野駅前店,長野市大字南長野南石堂町1367-5,長野駅徒歩5分､千石劇場近く,026-224-4038,,
YAZ 長野店,長野市南石堂町1418,,プライズ、プリクラ,,
スポルトピカデリーボウル,長野市田町2129,,1Fアミューズメントコーナー閉鎖　2Fにゲーム機あり,,
ファミリーランド,長野市大字鶴賀権堂町2201イトーヨーカドー5Fゲームコーナー,,,,
THE 3RD PLANET 長野大通り店,長野市大字鶴賀権堂町1506-3,,旧：デジャ・ヴー長野店,,
アピナ長野村山店,長野市村山502-1,R18号､アップルライン沿い,,,
アピナ長野大橋店,長野市若里7-9-12,R18号､長野大橋北側,,,
スカイバッティングセンター,長野市若里7-3-8,日赤通り､ビックハット南側,,,
ラウンドワンスタジアム長野,長野市大字東和田827-6,国道18号沿い､東和田交差点よりすぐ,,,
アピナ長野川中島店,長野市川中島町御厨967-1,,,,
セガワールド上田,上田市大字上田1847-1,,,,
コインハウス M&M,上田市東内3024-1,国道254号松本方面､荻窪交差点近く,参考,,
モーリーファンタジー上田店,上田市常田2-12-18イオン上田店2F,,,,
ニャライズ,上田市中央4-2-22‎,上田駅より徒歩13分,レトロゲームのリクエストによる基板入替え対応がメイン。店内は狭く設置台数は少ない。平日は17時､土日祝は13時から営業。,,
namcoアリオ上田店,上田市天神3丁目5-1,,旧：NLアリオ上田店,,
パロ佐久店,佐久市大字岩村田字東曽根6-2ステーションパーク佐久内,佐久ICより車で10分,,,
namcoイオンモール佐久平店,佐久市佐久平駅南11-10イオンモール佐久平2F,佐久平駅,旧：NL佐久平店・パックマンワールド、NLイオン佐久平店、namcoイオン佐久平店,,
エーツーランド佐久アクロスプラザ店,佐久市岩村田字長塚1736-4アクロスプラザ内,岩村田駅下車徒歩16分,旧：プラボ佐久店ALL.Netゲーム機の「A2LA」はこのお店のことです。,,
アムアムビレッジ,佐久市長土呂125-1,,,,
アピナ佐久インター店,佐久市岩村田北1-13-1,,,,
景品キャッチャー屋佐久店,佐久市中込3131-1,,麻雀格闘倶楽部・パチスロ台・ダーツ,,
モーリーファンタジー中野店,中野市一本木252−1イオン中野店2F,,旧：ファンタジーアイランド…,,
モーリーファンタジー豊科店,安曇野市豊科4272-10イオン豊科店,,,,
アピナ穂高店,安曇野市穂高2450,R147沿い､穂高SC内,,,
セガワールド豊科,安曇野市豊科南穂高1115,,,,
ファミリーランドあそびのくに,安曇野市堀金烏川5142-1ベイシアあづみの掘金店,,,,
お宝中古市場松本店,松本市出川３丁目６−１３,,プライズマシンあり,,
ココレーン松本,松本市梓川倭532-1,,ゲーム機少々,,
ファミブ梓川,松本市梓川倭532-1,,プライズマシン少々,,
ゲームセンターUFO,松本市深志2-8-4,,番地はレオパレス天神になっている?,,
アピナ松本店,松本市双葉19-10,国道19号沿い､イトーヨーカドーそば南松本駅徒歩9分,プラボ南松本店はすぐ近く。T/S松本店も比較的近い,,
T/S 松本店,松本市平田東1-27-1,,旧：TAC松本,,
カタクラモール店ナムコランド,松本市中央4-9-43カタクラモール店内,,,,
モーリーファンタジー南松本店,松本市双葉5－20イオン南松本店2F,,旧：ファンタジーアイランド…,,
セガ松本,松本市渚1-7-1,松本電鉄渚駅徒歩10分,旧AGスクエア。2013年8月リニューアルとともにブランド変更,,
オレンジハット浅間（松本岡田店？）,松本市大字岡田町320-4,,,,
リトルファンタジー松本,松本市高宮中1-20イトーヨーカドー南松本店内3F,JR篠ノ井線南松本駅より徒歩10分,営業しています。,,
オートレスト木曽路,塩尻市大字宗賀洗馬2446-1,ドライブインオートレスト木曽路内,,,
アピナ塩尻店,塩尻市広丘野村1794-1,国道19号沿い広丘駅徒歩16分,対面すき家,,
あぐりーず,塩尻市大字広丘野村1688-1コミュニティマーケットプレイス・ギャザ,,,,
ゲームゾーン岡谷,岡谷市中央町2-2-1イルフプラザ,JR岡谷駅より徒歩10分,旧：スポルト岡谷ゲームコーナー2016年4月29日オープン,,
AGスクエア岡谷店,岡谷市塚間町2丁目1-21,,APITAの裏,,
フォルム,岡谷市銀座1丁目1-5アピタ岡谷店,岡谷街道（県道14号）,旧きゃらんど,,
パロ諏訪店,諏訪市沖田町5-18ステーションパーク諏訪,中央本線茅野駅から車で10分,,,
アミューズメントヒタチ,諏訪市諏訪1-6-1駅前諏訪プラザ2F,,,,
プレイランドピエロ,諏訪郡下諏訪町南四王6133 イオン諏訪店,,,,
万代書店,諏訪市中洲2962,,プライズマシンあり,,
ゆうゆうランド,茅野市宮川茅野4449-1　メリーパーク,,,,
ちびっこランド茅野店,茅野市塚原1-2347-6オギノ茅野店内2F,R152,旧：オギノ茅野店ちびっこランド,,
白樺湖ファミリーランド アミューズメント館,茅野市白樺湖,,アピナ系。遊園地やホテルなど施設利用者以外の一般客入店OK,,
ゲームタッチ 諏訪IC店,茅野市ちの2730,中央自動車道諏訪ICそば,麻雀格闘倶楽部のみ置いてある,,
西沢双葉店,伊那市上河原55,,,,
アピナ伊那店,伊那市伊那5093-32,,,,
サムソン伊那店,伊那市伊那字下川原5198アピタ伊那2F,,,,
ビックバーン,伊那市西春近表木5991,,,,
タカラ島 駒ヶ根店,駒ヶ根市赤穂1565ベルシャイン駒ヶ根内1F,JR飯田線駒ヶ根駅徒歩5分,,,
チャレンジ飯山,飯山市南町15-2,JR飯山駅前,,,
アピナ飯田店,飯田市座光寺3728-1,,エイデン飯田座光寺店跡,,
モーリーファンタジー飯田店,飯田市上郷飯沼1575イオン飯田店2F,,旧：ファンタジーアイランド…,,
モーリーファンタジー飯田アップルロード店,飯田市鼎一色456イオン飯田店アップルロード店2F,,,,
チャレンジ野沢,下高井郡野沢温泉村大字豊郷9782-7,,,,
パルパル,下高井郡野沢温泉村大字豊郷字湯沢9516-1,,,,
ゲームコーナー,埴科郡戸倉町白鳥園内,,,,
T/Sアイシティ21松本店,東築摩郡山形村北野尻7977アイシティ21,,旧：バブルンランド松本,,
ふじみオートスナック,諏訪郡富士見町落合9529,国道20号諏訪方面,ビデオ筐体9台で麻雀､パズル系のみ参考,,
A/G セガ軽井沢,北佐久郡軽井沢町軽井沢1178-161プリンスボウル1F,軽井沢駅徒歩5分,,,
A.C.GRAND,岐阜市茜部大川1-77,名鉄岐阜駅15分,,,
だいおう六条,岐阜市宇佐南3-7-5,JR西岐阜駅10分,,,
ゲームファンタジアン精華店,岐阜市鏡島精華2-2-1,岐阜県庁から北に5分,,,
ACグランド新岐阜,岐阜市長住町3-15,名鉄新岐阜駅10分,男子禁制（女性同伴なら可）,,
ゲームファンタジアン柳津店,岐阜市柳津町上佐波西3-68,ふれあい会館から南に4分,,,
namcoカラフルタウン岐阜店,岐阜市柳津丸野3-3-6カラフルタウン岐阜内,,旧：ワンダーパーク岐阜,,
ジョイパラ新岐阜店,岐阜市正木1599-1マーサ21北館3F,,,,
モーリーファンタジー・f 岐阜,岐阜市正木中 1-2-1マーサ21北館3F,,,,
モーリーファンタジー岐阜,岐阜市正木中 1-2-1マーサ21南館 イオン岐阜店2F,,,,
チャオランド 領下店,岐阜市領下4-55バロー領下店2F,,,,
プレビVタウン芥見,岐阜市芥見南山2-1-8,,,,
サムソン恵那,恵那市長島町正家2-2-17ジョイマートユニー恵那店内,,,,
恵那峡ボウリング,恵那市大井町1122-6,中央自動車道恵那IC10分恵那駅からも何とか徒歩圏,,,
アリババ,大垣市池尻町940-1,関が原バイパス沿い,,,
わくわくランド鶴見,大垣市鶴見町641-2,,,,
大垣メトロポリス,大垣市三塚町字西沼523-1,,旧：AMキャット大垣,,
カラフルパークイオンタウン大垣,大垣市三塚町丹瀬463-1イオンタウン大垣EAST棟1F,,,,
モーリーファンタジー大垣店,大垣市外野2丁目100番地イオンモール大垣イオン棟2F,,旧：ファンタジーアイランド大垣,,
セガワールドアクアウォーク大垣,大垣市林町6-80-21アクアウォーク大垣2F,大垣駅北口アクアブリッジ直結,,,
にこぱアクアウォーク大垣,大垣市林町6-80-21アクアウォーク大垣2F,,,,
ピノキオバッテイングセンター,大垣市長松町1298,県道31号（旧21号）より少し南,,,
GAME JOY(ゲームジョイ),大垣市横曽根３丁目１０９,国道258線沿い,,,
ファンタジックランド海津平田,海津市平田町今尾1617,,,,
ゲームゾーン各務原店,各務原市鵜沼各務原町5-286-1ペタルビル1F,各務原IC21号を東に10分名鉄「苧ヶ瀬（おがせ）」駅からも可,旧：ゲームBB,,
ナムコランドイオンモール各務原店,各務原市那加萱場町3-8イオンモール各務原2階,,,,
モーリーファンタジー各務原店,各務原市那加萱場町3-8イオンモール各務原イオン棟3F,,,,
XYZ（シーザ）,可児市下恵土宮前5670,可児市南消防署交差点を西,,,
オリエンタルバッティング可児,可児市今渡695-1,日本ライン今渡駅が最寄,,,
GAMEタカラ島可児店,可児市広見2578-1,,タカラ島≠宝島。,,
ファンタジックランド可児,可児市下恵土5750可児ショッピングプラザパティオ3F,,,,
セガワールドソニックタウン関,関市倉知516サンサンシティマーゴシネマ棟2F,,,,
モーリーファンタジー関店,関市倉知516サンサンシティマーゴ1F,,旧：ファンタジーアイランド関店,,
セガワールド高山,高山市上岡本町7-7,,,,
ジースクエアアピタ飛騨高山,高山市国府町金桶41,,,,
オートレストラン内津店,多治見市富士見町3-33,中央道多治見IC15分,ウーホー特有のフクロウの看板は外されています,,
セガワールド多治見,多治見市住吉町1-1-1,,,,
モーリーファンタジー多治見店,多治見市西坂町5-31-1バロー多治見インター店2F,,,,
チャオランド 土岐店,土岐市肥田浅野梅ノ木町1-23バロー土岐店2F,,,,
赤とんぼ,中津川市駒場1480-5,美乃坂本駅からバス,赤とんぼは8号営業です,,
岐阜レジャーランド穂積,瑞穂市稲里630,瑞穂市野田新田交差点近く,アイリンの隣のパチンコ屋含めた建物,,
岐阜グランドボウル,瑞穂市穂積1676,,,,
ゴールデンパーク,瑞浪市土岐町7931,,,,
KS美濃加茂店,美濃加茂市深田町3-11-24,,旧：ADX MAMY美濃加茂店,,
ASCH美濃加茂,美濃加茂市山手町2-56-1,,,,
ラウンドワンモレラ岐阜店,本巣市三橋1100番地1モレラ岐阜2F,樽見鉄道モレラ岐阜駅だが岐阜駅からバスのほうが便利？,,,
えぎらバッティングセンター,岐阜県羽島市江吉良町３４７,名鉄江吉良駅徒歩５分。駐車場あり,営業時間10:00～22:00,,
にこぱ羽島,羽島市小熊町島1-46羽島Wing151 2F,,,,
わくわくらんど高富,山県市高木1473,,,,
サムソン輪之内,安八郡輪之内町四郷新開229イオンタウン輪之内SC内,,,,
オアシス本店,羽島郡岐南町八剣7-15,東海北陸自動車道各務ヶ原IC5分,,,
ジーエクスプレスアピタ北方,本巣郡北方町平成2-3,,,,
ゲーム＆オートレストラン,郡上市八幡町稲成24,国道156号沿い,参考,,
あんきんたん養老,養老郡養老町宇田561,,,,
養老ランド ゲームコーナー,養老郡養老町養老1155-2,養老鉄道養老駅から徒歩10分,入園料制,,
セガワールド静岡,静岡市葵区七間町4-2静活プラザビル1・2F,,,,
タイトーFステーション静岡店,静岡市葵区呉服町2-5-4ふしみや第2ビル,,,,
ハーフタイム,静岡市葵区両替町2-7-4PIXISビル5F（SHIDAX隣）,静岡駅北口から徒歩約6分,麻雀格闘倶楽部のみ（漫画喫茶）,,
ハローズガーデン静岡109店,静岡市葵区伝馬町6-1SHIZUOKA109 4F,,,,
アップル新北街道店,静岡市葵区沓谷5-13-4,県道67,,,
サンタ,静岡市葵区羽鳥３丁目９−１０ BOOKOFF静岡羽鳥店,,プライズマシン,,
サプリ２４神明店,静岡市葵区神明町71-1 神明ボウル2F,,ネカフェ施設内にゲーム台あり,,
カプコン　マークイズ静岡店,静岡市葵区柚木191　マークイズ静岡3F,東静岡,静岡市にカプコンのお店が返り咲き,,
THE 3RD PLANET 静岡インター店,静岡市駿河区中野新田(字八ツ割)383-3,県道84号静岡ICすぐ,県道84号沿いはすべてバスでも可,,
ソユー竜宮タウン静岡店,静岡市駿河区石田1丁目5-1APITA静岡SC内2F,石田街道＆南中央通,,,
カバロ静岡店,静岡市駿河区曲金3丁目1-5イトーヨーカドー静岡店,,,,
ＬＡＮＤ静岡曲金店,静岡市駿河区曲金5-4-61（TSUTAYA静岡曲金店内）,県道407,,,
スーパーウェーブ静岡店(プラザアピア内),静岡市駿河区中吉田15-8ボウルアピア静岡2F,R1,旧：チャーリーワン・セガ,,
ラウンドワン静岡駿河店,静岡市駿河区手越75番地,,,,
AGスクエア清水店,静岡市清水区入船町13-15エスパルスドリームプラザ3F,R149,プライズ多,,
ゲームインプリンス,静岡市清水区天神1-2-6,R1、東海道,,,
ＬＡＮＤイオン清水店,静岡市清水区上原1丁目6-16イオン清水店3Ｆ,県道407,法的には「～ジャスコ～」の可能性あり,,
モーリーファンタジー清水店,静岡市清水区上原1丁目6-16イオン清水店2Ｆ,県道407,旧：ファンタジーアイランド…,,
THE 3RD PLANET フレスポ静岡店,静岡市清水区鳥坂860,R1、静清バイパス鳥坂ICすぐ,旧クレッセ静岡店,,
ハウマッチ,静岡市清水区岡町６−１ ブックオフ清水岡町店2F,,8号です。,,
AGスクエア清水店,静岡市清水区駒越北町8-1ベイドリーム清水,,その昔清水港線が走っていたそうで,,
T/S浜松,浜松市中区肴町322-20松竹ビル,浜松駅から徒歩5分,,,
T/S新浜松ザザシティ店,浜松市中区鍛冶町15番地ザザシティ西館2F,浜松駅から徒歩5分,旧：H/T浜松,,
サンセイブ 城北店,浜松市中区城北1丁目3-16野沢マンション1F,R152市役所を北、六軒通り左折,個人経営です。水曜定休なので注意,,
富塚スポーツ,浜松市中区富塚町16−1,,,,
YAZWORLD浜松葵店,浜松市中区葵西2-27-10　イオンタウン浜松葵店内,,,,
THE 3RD PLANET OZ浜松店,浜松市東区宮竹町322-1,R152、県道45,,,
ゆう遊空間 浜松宮竹店,浜松市東区宮竹町322-1,R152、県道45,ネットカフェ、非ゲーセン,,
モーリーファンタジー浜松市野店,浜松市東区天王町1981-3イオンモール浜松市野2F,,,,
ラウンドワンスタジアム浜松店,浜松市東区天王町字諏訪1981-17,イオンモール浜松市野の南側,,,
浜松毎日ボウル,浜松市東区有玉南町１８６７,,ゲーム少々,,
浜松グランドボウル,静岡県浜松市東区半田山5-36-1,,併設するかのように太鼓と少しのプライズがあります。,,
ウエスタンクラブ舞阪,浜松市西区舞阪町浜田446,R1、JR舞阪駅,ビリヤード中心でスロット少し,,
ポート24浜松店,浜松市西区坪井町4183-1,R1、浜松西ICから車で15分,,,
プラサカプコン志都呂店,浜松市西区志都呂町5605イオンモール浜松志都呂3F,県道62＆65,専門棟です,,
モーリーファンタジー浜松志都呂店,浜松市西区志都呂町5605イオンモール浜松志都呂3F,県道62＆65,旧：ファンタジーアイランド…イオン棟です,,
モーリーファンタジー浜松西店,浜松市西区入野町6244-1イオン浜松西3F,県道62,旧：ポップンパーク…,,
プラサカプコン パルパル店,浜松市西区舘山寺町1891浜名湖パルパル内,,パルパル入園要,,
アミューズメント・スポット篠原,浜松市西区馬郡町２５３５浜松西モール,,旧：キャンディポット。店全体が改装され店内移動＋縮小。ほぼプライズ。,,
ぷれいらんど373 浜松可美店,浜松市南区東若林町11-1MEGAドン・キホーテ2F,R257,,,
ベル21プレイランド,浜松市北区細江町中川1900-1,,,,
G-すくうぇあ,浜松市浜北区貴布祢1200プレ葉ウォーク,県道296、遠州鉄道浜北駅,,,
TFSプレ葉ウォーク浜北店,浜松市浜北区貴布祢1200プレ葉ウォーク,県道296、遠州鉄道浜北駅,タイトーでは故意に触れていませんが、株式会社アスモが運営するTFS4店舗のうちの1つ,,
AGスクエア磐田店,磐田市下万能413,,,,
ゲームコーナーテクモピア,磐田市福田2407-1シーズンプラザ,R150,,,
ナムコランド ららぽーと磐田店,磐田市高見丘1200番地ららぽーと磐田2F,,,,
YAZ磐田店,磐田市西貝塚3690,,元K-CAT磐田。跡地にそのままオープン。,,
an・kin・tan・浜岡店,御前崎市池新田5771メガマート,ほぼR150沿い。菊川からバス乗り継ぎ,,,
AGスクエア袋井店,袋井市川井1142-1,,,,
モーリーファンタジー袋井店,袋井市新池字原川田1158番地1ピアゴ袋井店2F,,,,
ゆう遊空間 掛川店,掛川市城西1-15-1,JR掛川駅北側,,,
セガ掛川,掛川市細田248,掛川駅からコミュニティバス,,,
シートピアYAZ 大須賀店,掛川市西大渕3359イオンタウン大須賀内,袋井ICから車で20分ですがバスでも意外と行けそう？,,,
掛川毎日ボウル,掛川市領家499-1,,ゲーム少々,,
ヤッターランド,掛川市大池2826アピタ,,,,
アミューズメントプラザ,掛川市満水2000ヤマハリゾートつま恋,,入場料要？,,
ヤッターランド,静岡県島田市宝来町8番2号アピタ,,,,
THE 3RD PLANET 島田店,島田市中溝町2531TSUTAYA島田店2F,藤枝バイパス旗指IC5分,長野興産がOPであるTHE 3RD PLANETもザ・サードプラネットのサイトに掲載されるようになりました。,,
ゆう遊空間 島田店,島田市稲荷3-9-7,県道64号、島田金谷線の接合場所,,,
スポーツランド ウィング,藤枝市築地552-1,バッティングセンター内に併設,,,
ゆう遊空間 藤枝店,藤枝市小石川3-915-1,JR藤枝駅北側焼津街道沿い,ネットカフェ内設置の麻雀格闘倶楽部のみ,,
藤枝ボウル・てんとう虫パーク　藤枝店,藤枝市益津３５３−３,藤枝市役所そば,3階ボウリング場にゲーム台少々1＆2階のネカフェ内にもゲーム台（オンライン稼働はMJのみ）設置あり,,
藤枝グランドボウル,藤枝市下当間652,焼津IC車で5分,ボウリング場のゲームコーナーに麻雀格闘倶楽部のみ設置,,
THE 3RD PLANET 焼津店,焼津市八楠3-18-5,R150、焼津IC車で5分,長野興産がOPであるTHE 3RD PLANETもザ・サードプラネットのサイトに掲載されるようになりました。,,
USA小川港店,焼津市石津港町小川漁港前2-4,県道355,釣具屋・店内にビールの自販機有,,
シートピアYAZ 焼津店,焼津市道原585,県道416、焼津ICから車で20分,,,
モーリーファンタジー焼津店,焼津市祢宜島555ジャスコ焼津店,県道416,旧：ファンタジー…,,
アップルグランリバー大井川店,焼津市下江留1327番地,R150,旧：ナムコランド大井川店,,
やったーらんど,焼津市大覚寺中ノ島709,,ピアゴ大覚寺店,,
モーリーファンタジー富士宮店,富士宮市浅間町1-8イオン富士宮店,富士宮駅そば,,,
GAMEOFF富士宮,富士宮市三園平1360,R139、富士ICから車で20分,,,
ちびっこパーク,富士宮市東阿幸地541番地ピアゴ（ユニー）富士宮店,R139,,,
セガワールド富士,富士市厚原95-1,R139,,,
THE 3RD PLANET 富士店,富士市永田町2-99,県道353号、中央公園北側,,,
ROUND 1 富士店,富士市伝法字下地3785-1,R139公共交通ならジャトコ前が近隣,,,
タカダバッティングセンター,静岡県富士市田島75-1,R139,2017.10.7現地確認ミラクルドームよりレトロ筐体が搬入Hyperスト２etc,,
モーリーファンタジー・f富士南店,富士市鮫島118番地10イオン富士南,R1,,,
りとるらんど,富士市八幡町６−３ マックスバリュ富士八幡町店,,頭文字D8の中古機が導入され話題に,,
ハローズガーデン,富士市国久保2丁目1−10 アピタ富士吉原店,,,,
ジョイランドアミューズ原,沼津市原1561,県道165（R1原東町交差点）,プライズ・アーケード,,
ジョイランドアミューズ諏訪,沼津市大諏訪20-2,県道380,湾岸100円2クレ,,
香貫ボウル,沼津市下香貫下障子3148,R414,,,
THE 3RD PLANET BiVi沼津店,沼津市大手町1丁目1番5号,JR沼津駅北口すぐ前,,,
ファミリーランド,沼津市高島本町1-5イトーヨーカドー内,県道162（リコー通り）JR沼津駅北口から徒歩5分,,,
沼津バッティングセンター,沼津市岡一色字三竹道19-2,R1中石田IC側道沿いJR大岡駅から徒歩15分、沼津ICから車で5分,ゲーム多,,
ゆう遊空間 沼津バイパス店,沼津市共栄町4-4,国道1号線沿い,麻雀格闘倶楽部のみ,,
タイトーステーション ウェルディ長泉店,駿東郡長泉町下長窪字城山1076-1ウェルディ長泉2F,JR御殿場線 長泉なめり駅から徒歩15分R246沿い伊豆縦貫道 長泉ICから沼津方面へすぐ,旧：H/T長泉,,
アプレシオ三島店,三島市幸原2-1-10,三島駅より徒歩10分,麻雀格闘倶楽部のみ,,
ゆう遊空間 三島青木店,三島市青木72-1,国道136号沿い,麻雀格闘倶楽部のみ,,
ジョイランドアミューズみしま,三島市梅名308-6,,旧：ハイテクランドセガ三島,,
わいわいランド,三島市中田町9-30イトーヨーカドー三島店,,,,
セガワールド サントムーン,駿東郡清水町玉川61-2サントムーン柿田川2F,三島駅からバス「サントムーン柿田川」下車,,,
げーむDo!,駿東郡清水町伏見58-1サントムーンアネックス,,旧サンエイメルヘンランド、ユニーは撤退,,
ACT御殿場店,御殿場市東山字石橋296-1,R138、御殿場IC第2出口横,バッティングセンター併設,,
ゆう遊空間 御殿場店,御殿場市萩原226-1,JR御殿場駅から徒歩約20分R138、御殿場市役所並び,まんが喫茶内麻雀格闘倶楽部のみ,,
モーリーファンタジー御殿場店,御殿場市萩原636-1サンサンプラザ3F,JR御殿場駅から徒歩5分,旧ダイエー御殿場店2010年7月 改装オープン小さなお子様向けゲームがメイン,,
らんらんらんど伊東店,伊東市猪戸1-5-28グルメシティ伊東店3F,,,,
ホテルシーパラダイスイン,伊東市岡281,,,,
タイガー娯楽,熱海市中央町10-17タイガーアミューズメントビル,,,,
ヤッターらんど熱海店,熱海市中央町19-39マックスバリュ熱海店,,,,
ゆしま遊技場,熱海市銀座町5-9,,7号です,,
あけぼの 射的場,伊豆の国市長岡1076-13,,,,
ヤッターランド アピタ大仁店,伊豆の国市吉田153-1アピタ大仁店,,プライズ多,,
ワールド下田店 ゲームセンター,下田市1丁目2-17まつやビル,,,,
モーリーファンタジー裾野店,裾野市佐野1039グルメシティ裾野店1F,,,,
ビアゴ森,周智郡森町睦実字鳥喰2327-1,天竜浜名湖線 戸錦駅から南へ徒歩約15分,ビアゴ森店内ゲームコーナー。プライズと太鼓があるのみ。,,
クラブセガ金山,名古屋市熱田区金山1-19-2,金山駅東口すぐ旧：ハイテクセガ,,,
namcoイオンモール熱田店,名古屋市熱田区六野1-2-11イオンモール熱田4F,,旧：ナムコ・縁起町一丁目,,
モーリーファンタジー熱田店,名古屋市熱田区六野一丁目2番11号イオンモール熱田2F,,,,
サーカスサーカス(中丸店),名古屋市北区中丸町2-23,,,,
モーリーファンタジー上飯田店,名古屋市北区織部町1イオンリテール上飯田店3F,地下鉄上飯田駅すぐ,旧：らんらんらんど上飯田店,,
ファンタジープラザ名古屋店,名古屋市北区玄馬町234-1CROSS TOWN 2F,,旧：LOOP名古屋北店10:00～翌5：00(Side-Bは24：00まで),,
ポート24八事店,名古屋市昭和区広路町字北石坂102-4,地下鉄八事駅すぐ,旧：バサラ八事,,
ADX MAMY 八事店,名古屋市昭和区広路町字北石坂102,ポート24八事店裏口出てすぐ隣,旧：ハイテク八事,,
グレア,名古屋市千種区今池5-22-17,地下鉄今池駅,旧：ジョイジョイ,,
サムソン千代田橋店,名古屋市千種区千代田橋2-2-1アピタ千代田橋店3F,,,,
カラフルパーク,愛知県名古屋市千種区千種2丁目16番13号イオンタウン千種2F,,,,
ROUND 1 千種,愛知県名古屋市千種区新栄3-20-17タイホウ千種駅南ビル8階,,,,
スペースシャトル塩釜口店,名古屋市天白区塩釜口2-414,地下鉄塩釜口駅から5分名城大学東門の近く,,,
クラブセガ名古屋伏見,名古屋市中区栄1-4-5ZXAビル1F,地下鉄伏見駅,旧：セガデポルテ,,
キングジョイ,名古屋市中区栄3-3-32パチンコフジ2F3F,丸栄南側,,,
コムテックスクウェア,名古屋市中区金山1-16-8大都会金山2F3F,金山駅北口から出て西側,,,
フェドラP&D大須,名古屋市中区大須3-30-31,地下鉄上前津駅から徒歩3分,旧：アーバンスクエア大須店,,
タイトーステーション 大須店,名古屋市中区大須3-20-7,地下鉄上前津駅から徒歩3分,,,
名古屋栄三越 屋上・お子様遊園,名古屋市中区栄3-5-1 名古屋栄三越 屋上,,営業時間　10：00～17：00(夏季) 16：30(冬季)国内に現存する最古の屋上観覧車あり(乗る事は出来ない),,
アズパークファミリータウン,名古屋市中川区新家1-2421アズパークSC内2F,,頭に「ナムコランド」はつきません,,
VAMP 中川店,名古屋市中川区新家1-2007,,旧ナムコ、旧LOOP,,
中川メトロポリス,名古屋市中川区富田町大字江松字三日月2278,,,,
ROUND 1 中川1号線,名古屋市中川区法蔵町2-23,,,,
ファンタジックランド太平通店,名古屋市中川区宮脇町2丁目11ヨシヅヤ太平通り店3F,,,,
JOYPARK 中川昭和橋店,名古屋市中川区昭和橋通2丁目37-2 JOYJOY中川昭和橋店 1F,国道1号線沿い。6番一丁目交差点より西,2017年12月4日開店,,
ゲームBOX Q3,名古屋市中村区則武1-16-8第1ユーコーポ1F,名古屋駅西口から徒歩10分,「ゲームBOX Q2」から店名変更旧：トンガ王国,,
namco名古屋駅前店,名古屋市中村区椿町6-6ビックカメラ名古屋駅西店B1・6F,名古屋駅西口から徒歩1分,2014年6月開店旧：Zippy名駅店,,
コムテックタワー,名古屋市中村区名駅4-10-20,名古屋駅東口から徒歩5分最寄は近鉄名古屋,,,
名古屋レジャーランドささしま店,名古屋市中村区平池町4-60-14マーケットスクエアささしま1F,あおなみ線ささしまライブ駅徒歩5分,,,
セガワールド上小田井mozoワンダーシティ,名古屋市西区二方町40,名鉄犬山線上小田井駅北口から東へ5分,改装のため2018年3月中旬まで休業,,
GAME STUDIO REGIA,名古屋市西区二方町47イオンモール名古屋ワンダーシティ2F,,,,
セガ イオンタウン名西,名古屋市西区香呑町六丁目49-1イオンタウン名西 2F,,,,
モーリーファンタジーワンダーシティ店,名古屋市西区二方町40イオンワンダーシティ店3F,名鉄犬山線上小田井駅北口から東へ5分,,,
ヨシヅヤ名古屋名西店 ゲームコーナー,名古屋市西区名西2丁目33-8 2F,,,,
namcoイオンモールナゴヤドーム前店,名古屋市東区矢田南4丁目102-3イオンモールナゴヤドーム前3F,地下鉄名古屋ドーム前矢田駅すぐ,旧：ワンダーパークロマンチックストリート,,
モーリーファンタジーナゴヤドーム前店,名古屋市東区矢田南4-102-3イオンナゴヤドーム前店3F,,,,
新瑞バッティングセンター,名古屋市瑞穂区妙音通4-48,地下鉄新瑞橋駅から徒歩3分,,,
モーリーファンタジー大高店,名古屋市緑区大高町字奥平子1-1イオン大高店3F,JR南大高駅直結,,,
namcoイオンモール大高店,名古屋市緑区大高町奥平子1番地1 イオンモール大高3F,,旧：NLイオンモール大高店,,
ゲームファンタジーランドモアイ,名古屋市緑区桃山3-1610-1,,旧：ゲームファンタジーランドフラミンゴ緑店,,
ジョイスクエア サムソン緑店,名古屋市緑区徳重2-201アピタ緑2F,,,,
ROUND 1 鳴海,名古屋市緑区鳴海町字杜若28,,,,
鳴海中日スタジアム　ゲーム場,名古屋市緑区鳴海町字杜若92,,,,
SOYU BREMEN TOWN 鳴海店,名古屋市緑区鳴海町字伝治山3-9アピタ鳴海店2F,,,,
プラサカプコン 徳重店,名古屋市緑区鳴海町字徳重 18番地の44ヒルズウォーク徳重ガーデンズ2F,地下鉄桜通線 徳重駅から連絡通路で直通,旧：タイトーFステーション,,
サムソンみなと店,名古屋市港区当知2-1501ポートウォークみなと2F,,,,
Bundy,名古屋市港区品川町2-1-6イオンモール名古屋みなとシネマ棟1階,,旧：ドリームワールド,,
モーリーファンタジー名古屋みなと店,名古屋市港区品川町2-1-6イオン名古屋みなと店3F,あおなみ線荒子川公園駅徒歩5分,,,
わくわくランド,名古屋市港区品川町2-1-6イオン名古屋みなと店4F,あおなみ線荒子川公園駅徒歩5分,,,
ハッピーランド 木場店,名古屋市港区木場町8-51 ザ・チャレンジハウス2F,,営業時間 10:00～21:00,,
Kid's US.LAND イオン南陽店,名古屋市港区春田野1丁目330 イオン南陽店 2Ｆ,,15分108円の会員制ゲームコーナー,,
あそびの国 みなと店,名古屋市港区一州町1−3カインズ名古屋みなと店 2F,あおなみ線稲永駅徒歩4分,営業時間 10:00～20:00,,
ホームセンターコーナン 南十番町店 ゲームコーナー,名古屋市港区南十番町1丁目1番2号ホームセンターコーナン 南十番町店 2F,,,,
namcoイオンモール名古屋みなと店 あそびパーク,名古屋市港区品川町2-1-6イオンモール名古屋みなと 1F,あおなみ線荒子川公園駅徒歩5分イオンモール名古屋茶屋とのシャトルバスあり,15分110円の屋内遊園地3F「キャラポップストア」「プライズアウトレット」もナムコの店,,
トム・ソーヤのなかまたち,名古屋市港区品川町2-1-6イオンモール名古屋みなと 1F・2F,,2Fは子供向け遊具メインの「SPORT」,,
モーリーファンタジー・ｆ 新瑞橋店,名古屋市南区菊住1-601-1イオン新瑞橋店3F,,,,
モーリーファンタジーメイトピア店,名古屋市名東区高間町501-1イオンリテールメイトピア店2F,,旧:らんらんらんどメイトピア店,,
モーリーファンタジー名古屋東店,名古屋市名東区猪子石原2-1701イオンリテール名古屋東店1F,,旧：らんらんらんど名古屋東店,,
Kid's US.LAND 清水屋藤ヶ丘店,名古屋市守山区森孝東1-509 清水屋藤ヶ丘店 5Ｆ,,15分108円の会員制ゲームコーナー,,
モーリーファンタジー守山店,名古屋市守山区笹ヶ根3-1228イオン守山店2F,,,,
ボナンザキッズランド,愛知県愛西市須依町前田面95-1ヨシヅヤ佐屋店1F,,,,
ファンタジーパーク,愛知県愛西市北一色町東田面10-1ピアゴ佐屋店2F,,,,
アミューズメントシティ ザ・モール安城店,安城市大東町9-31,,,,
ソユープレイランドソピア安城店,安城市住吉町3-1-8イトーヨーカドー安城店2F,,,,
ユーファクトリーin安城,安城市住吉町丸田24-6,,,,
安城メトロポリス,安城市浜富町6-8,,,,
セガ安城,安城市百石町2-35-13,名鉄バス「中央図書館前」下車徒歩2分,旧：セガワールド安城,,
ハローズガーデン 安城南店,安城市桜井町貝戸尻60アピタ安城南店 2Ｆ,,,,
セガ イオンモール木曽川,一宮市木曽川町黒田字南八ツヶ池25-1イオンモール木曽川3F,名鉄黒田駅徒歩3分,旧：セガワールドおもしろ遊戯御殿木曽川,,
モーリーファンタジー木曽川店,一宮市木曽川町黒田字南八ツヶ池25-1イオンモール木曽川2F,名鉄黒田駅徒歩3分,,,
モーリーファンタジー妙興寺店,一宮市大和町妙興寺字白山西3-2ピアゴ妙興寺店3F,名鉄 妙興寺駅すぐ,旧：らんらんらんど妙興寺店,,
セガワールド尾西,一宮市篭屋3-9-7アソビックスびさい1F,,旧：セガワールド尾西,,
ゲームセンター千秋24,一宮市千秋町加納馬場字清水53,県道63号沿い,24時間営業ではなくなった？営業時間11:00～翌朝5:00 入口に記載,,
ゲームゾーン,一宮市羽衣2丁目5番地1,コジマNEW一宮店､一宮競輪場隣,24時間営業メダルゲームコーナー9：00 ～ 24：00,,
ゲームコーナー　ナイル,愛知県一宮市木曽川町黒田八ノ通51-4アピタ木曽川店2F,,,,
namcoテラスウォーク一宮店,愛知県一宮市両郷町一丁目2番地テラスウォーク一宮2F,名鉄バス「両郷町口」から徒歩1分名岐バイパス沿い,,,
モーリーファンタジーピアゴ大和店,一宮市大和町毛受字一本松19番地ピアゴ大和店2F,,,,
ハローズガーデン　尾西店,一宮市小信中島東鵯平59ピアゴ尾西店 2F,,,,
日本ゲーム博物館,犬山市今井山神洞9-1,リトルワールド近く「成沢リトルワールド入口」下車徒歩10分,2016年1月より休館小牧メトロポリスの一角でレトロコーナーとして営業,,
ヨシヅヤ平和店 ゲームコーナー,稲沢市平和町須ヶ脇367番地ヨシヅヤ平和店1F,名鉄 六輪駅から徒歩3分,,,
ゲームプラザミッキー,稲沢市朝府町2-33,稲沢市役所近く,,,
namcoアピタ稲沢店,稲沢市天池五反田町1シネマ＆アミューズ館 2F・3F,,旧：NL稲沢店ボウリング場併設,,
ヨシヅヤ新稲沢店 ファンタジックランド,愛知県稲沢市朝府町4番1号ヨシヅヤ新稲沢店2F,,,,
タイトーステーション パールシティ稲沢店,稲沢市井之口大坪80-1パールシティ稲沢2F,,旧：ハロータイトー稲沢,,
稲沢グランドボウル,愛知県稲沢市井之口大坪町80-1,パールシティ南,1Fがゲームコーナー,,
プラサカプコン稲沢店,稲沢市長野町7-1-2リーフウォーク稲沢2F,JR稲沢駅から徒歩10分,,,
フラミンゴキッズ,愛知県稲沢市下津穂所一丁目１番１アピタ稲沢東店2F,JR稲沢駅から徒歩10分,リーフウォークとの連絡通路有り,,
友遊縁日アピタ岩倉店,岩倉市旭町1-25 アピタ岩倉店2F,名鉄犬山線岩倉駅すぐ,アピタ直営店,,
ゲームファンタジーランド・ダイナソアエイジ,大府市東新町3-87,,,,
ビバーチ大府店,大府市柊山町1-98 リソラ大府ショッピングテラス2F,大府駅徒歩15分,,,
スタジアム大府店,大府市明成町4-133アピタ大府店2F,,,,
セガ岡崎,岡崎市上地3-50-4,,旧：セガワールド岡崎,,
ADX MAMY 岡崎店,岡崎市井田新町6-1,北岡崎駅から徒歩約11分,モンキーパンチ跡地にオープン,,
ゲームファンタジアン岡崎店,岡崎市錦町2-4,北岡崎駅は近い,2014年2月開店旧：LOOP岡崎店,,
アリス岡崎店,岡崎市日名北町1-1岡崎グランドボウル1F,,,,
ジースクエアアピタ岡崎北,岡崎市日名北町4-46,,,,
ゲームアミューズジョイ,岡崎市福岡町字峠5-1,,,,
モーリーファンタジー岡崎店,岡崎市上六名町字宮前1SCコムタウン1F,,旧：らんらんらんどコムタウン岡崎店,,
ステーション201,岡崎市美合町一ノ久保1-64サンリバー1F,,,,
ゲームランド 岡崎店,愛知県岡崎市戸崎町字外山38-5イオンモール岡崎 シネマ館 2F,JR岡崎駅か名鉄東岡崎駅からバスで「イオンモール岡崎」,カプコン直営店,,
西友岡崎店ゲームコーナー,岡崎市戸崎町越舞2-1西友岡崎店 2F,,,,
M's PARK 三郷店 西館,尾張旭市南原山町字赤土207,,旧：ADX MAMY 三郷店,,
タカラ島尾張旭,尾張旭市北本地ヶ原4-29,,,,
ピアゴ印場店 遊ランド,尾張旭市庄中町一丁目5番地1ピアゴ印場店 2F,名鉄瀬戸線印場駅徒歩5分,営業時間 10:00～20:00,,
モーリーファンタジー瀬戸みずの店,瀬戸市みずの坂2丁目253番地イオン瀬戸みずの店2F,,,,
クラブセガ春日井,春日井市岩野町字菅廻間4180,,旧：セガワールド春日井,,
オークランド春日井,春日井市鳥居松町3-11,国道41号線沿い,,,
チャオランド春日井西,春日井市西高山町2-3-6バロー春日井西店2F,,,,
プレイハード50(ファイブオー)春日井,春日井市不二ガ丘1-36,,,,
ADX MAMY (春日井店？),春日井市不二ガ丘1丁目5,国道155号沿い、不二が丘交差点角,,,
アミュージアム春日井店,愛知県春日井市六軒屋町東丘22THE MALL春日井3F,,,,
キッズインタイトーイオン春日井店,春日井市柏井町4丁目17番地イオン春日井店３Fゲームコーナー,,,,
モーリーファンタジー春日井店,春日井市柏井町4丁目17番地イオン春日井店4F,,,,
友遊縁日アピタ高蔵寺店,愛知県春日井市中央台1-2-2 サンマルシェアピタ館2F,,アピタ直営,,
ヤングプラザドットコム,蒲郡市大塚町平原84-1,,,,
ゲームファンタジアン蒲郡店,蒲郡市竹谷町中野1-12,JR東海道線 三河塩津駅,,,
アミューズメントプラザマルシン,刈谷市池田町4丁目609番地,,,,
M's PARK 刈谷店,刈谷市稲場町3-206,,旧：名豊ワールド,,
ADXﾏﾐｰ 刈谷店,刈谷市末広町1-19,,,,
セガイオンタウン刈谷,刈谷市東境町京和1,,旧：AGスクエア刈谷店,,
楽市街道名古屋店,北名古屋市中之郷神明45-1,国道22号線沿い,,,
ROUND 1 名古屋西春,北名古屋市宇福寺神明15,国道22号線沿い名鉄一宮から送迎バスが楽でしょう。,,,
Kid's US.LAND パレマルシェ西春店,北名古屋市鹿田3926番地10号パレマルシェ西春店 5階,名鉄西春駅,15分108円の会員制ゲームコーナー,,
チャレンジハウス ダイナマイト,清須市大字西田中字本城18,,,,
ワンダーフォレスト 江南西店,江南市松竹町上野205VIA MALLアピタ江南西店2F,,ハローズガーデン系列,,
わくわくらんど江南,江南市上奈良町栄61-3平和堂江南店2F,,,,
ブランズウィックスポルト江南,江南市上奈良町緑13,,,,
Kid's US.LAND ピアゴ江南店,愛知県江南市村久野町瀬頭163番地ピアゴ江南店 2F,,15分108円の会員制ゲームコーナー,,
M’s PARK 小牧店,小牧市村中稲荷783,,,,
小牧メトロポリス,小牧市村中新町31,,,,
Kid's US.LAND 清水屋小牧店,小牧市郷中1-263 清水屋3F,,15分108円の会員制ゲームコーナー,,
セガ東名ボール,瀬戸市西原町2-114,,旧：メルクス東名ちなみにメルクス東名は別の区画,,
Kid's US.LAND ピアゴ菱野店,愛知県瀬戸市緑町一丁目106番地 ピアゴ菱野店2F,,15分108円の会員制ゲームコーナー,,
WAVE 田原,田原市神戸町字大坪152-1,神戸（かんべ）駅が近い,,,
ファミリーランド　ドリーム,田原市田原字南新地76-1イオン田原店（パオ田原店）,,,,
伊良湖クリスタルポルト,田原市伊良湖町宮下3000-65 1F,伊勢湾フェリー名鉄フェリー等,道の駅,,
レストハウスマミー,知立市山町小林24-1,,,,
セガワールド知立,知立市長篠町大山18-1ギャラリエアピタ北館1F,,,,
ADX MAMY 甲子園店,津島市寺野町五反田43,西尾張中央道沿い,旧：セイタイトー甲子園,,
アッシュ津島店,愛知県津島市大字津島字北新開351番地 ヨシヅヤ津島本店2F,,,,
アミューズメントプラザワイド,東海市名和町二番割上16-2,名和駅が近い,APプラザワイドは紛れもなくセガのお店,,
ゲームファンタジーランド・ナイル,東海市名和町三番割上40,名和駅が近いAPワイドは比較的近隣,,,
ゲームファンタジーランド・アトランティス,東海市養父町3-38-39,,,,
アミューズファクトリー 常滑店,常滑市りんくう町2-20-3イオンモール常滑 2F,名鉄空港線りんくう常滑駅,カプコン直営店,,
モーリーファンタジー常滑店,常滑市りんくう町2-20-3イオンモール常滑 2F,名鉄空港線りんくう常滑駅,,,
ポケットファミリーランド,豊明市前後町善江1735パルネス豊明,,旧：サムソン豊明,,
ユーワールド豊明,豊明市前後町螺貝1384-1,,元セガワールド豊明総商とはOPが違うので現時点では営業しています,,
ダイナレックス豊川サティ,豊川市開運通2-31,,,,
豊川メトロポリス,豊川市下長山町上アライ14-1,牛久保駅が最寄だが豊橋からコロナの送迎バスもあり,,,
Kid's US.LAND 豊川プリオ店,豊川市諏訪3丁目133　豊川プリオ B1F,,15分108円の会員制ゲームコーナー,,
モーリーファンタジー豊川店,豊川市開運通り2-31イオン豊川店2F,,,,
G-SQUARE アピタ豊田元町店,豊田市土橋町2-65 アピタ豊田元町店2F,名鉄豊田線土橋駅,アピタ改装中に伴い休業中,,
M’s PARK 豊田店,豊田市寿町3-10-11,,,,
プラサカプコン 豊田店,豊田市東山町1-5-1グリーンシティ3F,名鉄豊田市駅東口よりバスで「渋谷町一丁目」,,,
セガ豊田,豊田市深田1-65-1,,旧：ハイテクセガ豊田,,
タイトーキッズランド　GAZA,愛知県豊田市喜多町1丁目140番地GAZA3F,名鉄豊田駅徒歩1分,,,
モーリーファンタジー豊田店,豊田市広路1-1イオンスタイル豊田3F,,子ども向けVR(単眼ＶＲ)導入,,
サーフ21,豊橋市飯村北2-29-4,,,,
セガ飯村,豊橋市飯村町字西山25-121,,旧：セガワールド飯村,,
アーチバッティングセンター北山店,豊橋市北山町字西野原40-20,,,,
アミューズメントクラブNOVA,豊橋市三本木町字元三本木80-2,,,,
パラダイス,豊橋市下地町字宮前26-1,,,,
シーキャットパート1,豊橋市中浜町219-30,,,,
タイトーステーション 豊橋店,豊橋市藤沢町141-4ホリデｲスクエア内アミューズメントビル1F,,旧：セガアリーナ豊橋ボウリング場併設,,
モーリーファンタジー豊橋南,豊橋市野依町字落合1-12イオン豊橋南店2F,,,,
ゲームファンタジアン長久手店,愛知県長久手市武蔵塚705,リニモ「長久手古戦場駅」より徒歩5分。駐車場あり。,,,
namcoイオンモール長久手店,長久手市長久手中央 土地区画整理事業地内5・10・11街区イオンモール長久手3F,リニモ「長久手古戦場駅（イオンモール長久手 前）」直結,VR型施設あり,,
モーリーファンタジー長久手店,長久手市長久手中央土地区画整理事業内5・10・11街区イオンモール長久手3F,リニモ「長久手古戦場駅（イオンモール長久手 前）,,,
カーニバルＣドーム,西尾市上町南又七山35-2,,,,
天野ゲーム博物館,西尾市高砂町41,名鉄西尾駅から徒歩3分,,,
ファンタジーウエストタウン西尾店,西尾市高畠町3-23-9ヴェルサウォーク西尾店 3F,名鉄西尾駅徒歩1分,,,
コムテックプラザ赤池,日進市赤池1-2901,地下鉄 赤池駅からすぐ,,,
セガプライムツリー赤池,日進市赤池町箕ノ手1番プライムツリー赤池3F,地下鉄鶴舞線・名鉄豊田線「赤池駅」から徒歩4分,VR型施設SEGA VR AREA AKAIKE併設,,
ファミリーファーム赤池店,日進市赤池町箕ノ手1番プライムツリー赤池3F,地下鉄鶴舞線・名鉄豊田線「赤池駅」から徒歩4分,,,
半田メトロポリス,半田市旭町3-10,東成岩駅が最寄,旧：アミューズメントキャット半田,,
サムソン半田店,半田市乙川吉野町9パワードーム半田B1F,,,,
ラウンドワンスタジアム半田店,半田市瑞穂町6-7-8,,送迎バスは廃止されたので注意!!,,
アミューズメントスペース GAMEダイコク,半田市青山2-27-1,,,,
モーリーファンタジー半田店,半田市有楽町8-7イオン半田店2F,,,,
モーリーファンタジー三好店,みよし市三好町青木91イオン三好店2F,,,,
タイトーステーション 弥富店,弥富市五明字蒲原1371-4イオンタウン弥富,,旧：セイタイトー弥富,,
Kid's US.LAND アソビックスかにえ店,海部郡蟹江町大字蟹江新田字上芝切71アソビックスかにえ内,,15分108円の会員制ゲームコーナー,,
ユーズランド東浦店,知多郡東浦町緒川字旭13-2イオンモール東浦2F,,旧：イーストランド東浦,,
モーリーファンタジー東浦店,知多郡東浦町大字緒川字旭13-2イオン東浦店1F,,,,
ドミー東浦店,知多郡東浦町森岡字前田55-1,スーパー内ゲームコーナー,,,
Kid's US.LAND コノミヤ武豊店,知多郡武豊町瀬木19 コノミヤ武豊店 2Ｆ,,15分108円の会員制ゲームコーナー,,
ナムコランド ヒーローズキャンプ名古屋店,西春日井郡豊山町大字豊場林先1-8エアポートウォーク名古屋 3F,県営名古屋空港隣,ウルトラマンCLUB併設,,
楽市楽座 扶桑店,丹羽郡扶桑町大字南山字名高塚5-1イオンモール扶桑2階,,,,
ヨシヅヤ大口店 ゲームコーナー,丹羽郡大口町奈良子2丁目79 ヨシヅヤ大口店2F,,,,
モーリーファンタジー扶桑店,丹羽郡扶桑町大字南山名字高塚5-1イオンモール扶桑2F,,,,
ポート24幸田店,額田郡幸田町大字高力字沖原15,JR相見駅が近いです,,,
ファミリーアミューズメント 幸田店,額田郡幸田町大草山添170ピアゴ幸田店１F,,,,
ROUND1 津・高茶屋店,津市高茶屋小森町277-8,JR高茶屋駅下車徒歩約15分三重交通バス「サンバレー」下車徒歩約3分,画像1,,
オークランドシティ,津市雲出本郷町1805,三重交通バス「サンバレー」下車徒歩約2分,一部（主に音ゲー）24時間営業,,
セガワールド久居,津市久居明神町字風早2534-1,伊勢自動車道久居ICから1分,外観画像1,,
NICOPA　イオン津店,三重県津市桜橋3-446 イオン津店　2F,津駅 東改札を出て徒歩約15分、もしくはバス10分にて。,,,
モーリーファンタジー イオンタウン津城山,三重県津市久居小野辺町1130-7,津駅東口より「警察学校」行きに乗車し約25分,画像1,,
にこにこＢＥＡＲ,津市久居明神町風早2660&br()ジャスコ久居店1階,,旧 ファンタジーアイランド　画像1　画像2,,
津グランドボウル,三重県津市垂水９１５−１,近鉄津駅より三交バス藤枝南バス停（平安閣前）下車徒歩2分。,,,
ゲームスマイルキッズ津河芸店,津市河芸町中別保丸垣内100番&br()ザ・ビッグエクストラ津河芸店1階,,旧：ポップンパーク津河芸店　画像1　外観,,
オークワ河芸 ｹﾞｰﾑｺｰﾅｰ,県津市河芸町上野259−2?,,Iwill経営 参考画像,,
桑名グランドボウル,三重県桑名市新西方1-22,桑名駅からバスで約15分,参考画像　参考画像2,,
イオンモール桑名 モーリーファンタジー,三重県桑名市新西方1-22,桑名駅からバスで約15分,画像1,,
ｲｵﾝﾓｰﾙ桑名内 ｳﾞｨﾚｳﾞｧﾝ前ｹﾞｰﾑｺｰﾅｰ,三重県桑名市新西方1-22,,参考画像,,
セガワールド桑名,桑名市大字大仲新田字宮前158番地,東名阪道桑名ICよりR421をいなべ方面に直進公共交通なら「新大仲新田」停留所が最寄,入口画像,,
クラブセガ アドバンスモール松阪,松阪市田村町235-1&br()アドバンスモール内,R166沿だがアドバンスモール松阪へのバスもあり,,,
ゲームチャオ松阪,松阪市船江町780,R42号線沿い松阪駅から車で5分,旧：セガワールド松阪,,
モーリーファンタジー松阪店,松阪市船江町1392-27&br()イオン松阪店3階,,旧：ファンタジーアイランド…　画像1,,
G-スクエア　アピタ松阪店,三重県松阪市市場庄町1266番地の1,松阪ICより車で10分　近鉄松ヶ崎駅より徒歩15分,,,
バンダイワールドみくも,松阪市久米1216,,営業時間に注意　画像1　画像2,,
スーパードーム内バッティングセンター,松阪市久米1216,近鉄山田線松阪駅徒歩20分,画像1,,
浪漫遊　松阪店,三重県松阪市塚本町72-1,近鉄松ヶ崎より徒歩5分,クレーンゲームのみ。旧：万代書店　画像1,,
トライアル松阪店内ｹﾞｰﾑｺｰﾅｰ,三重県松阪市東町５９−６?,,画像1株式会社コカド 運営,,
KAYO AMUSE PARK,三重県四日市市日永4-2-41 イオン日永店2F,近鉄内部線『南日永駅』下車徒歩　約5～10分,画像1　画像29月30日にOPEN,,
YAZワールド四日市,四日市市泊小柳町4-34&br()TAIKI四日市南店内,JR南四日市駅徒歩2分,,,
アミューズメントパーク イオン四日市泊 店,三重県四日市市泊小柳町4-5,あすなろう鉄道内部線 泊駅下車 徒歩5分,,,
フリークス四日市東店,四日市市西新地17-1,,一部24時間営業,,
モーリーファンタジー四日市尾平店,四日市市尾平町字天王川原1805&br()イオン四日市尾平店3階,,旧：ファンタジーアイランド…,,
モーリーファンタジー四日市北店,三重県四日市市富州原町2−2−40&br()イオンモール四日市北店2階,富田駅のすぐ近く,旧：ファンタジーアイランド…イオン棟の中です,,
NICOPA四日市北店,三重県四日市市富州原町2−2−40&br()イオンモール四日市北店2階,富田駅のすぐ近く,専門棟の中です,,
セガ生桑,四日市市生桑町字川原崎299-1,,旧：セガワールド生桑,,
ユーユーカイカン店,四日市市智積町3359,,,,
万代書店 四日市店,四日市市東茂福町8-12,近鉄 富田浜駅より徒歩3分,,,
鈴鹿グランドボウル,鈴鹿市三日市町赤土田1053,,旧：アミナネットワーク,,
アミパラ 鈴鹿店,鈴鹿市西條町430-1,,2015年7月4日オープン旧ケイ・キャット鈴鹿店,,
モーリーファンタジー鈴鹿店,鈴鹿市庄野羽山4-1-2&br()イオンモール鈴鹿2階,,イオン棟の中です。イオンモールでは後ろに「ベルシティ」のような愛称はつかなくなりました。,,
らんらんらんど 鈴鹿店,鈴鹿市算所2-5-1,,鈴鹿ハンター ２階,,
ナムコランドイオンモール鈴鹿,鈴鹿市庄野羽山4-1-2&br()イオンモール鈴鹿2F,近鉄平田駅下車亀山方面へ徒歩15分,旧：ベルシティナムコランド×namcoイオンモール鈴鹿,,
ハローズガーデン 鈴鹿店,鈴鹿市南玉垣町3628&br()アピタ鈴鹿店2F,鈴鹿医療科学大学白子キャンパス裏,,,
アピナ鈴鹿店,鈴鹿市庄野羽山4-20-1&br()イオンタウン鈴鹿2F,県道54号沿い,旧：新宝島鈴鹿店,,
万代書店 鈴鹿店,三重県鈴鹿市西條町500-1,近鉄 三日市駅より徒歩15分,,,
あかのれん鈴鹿エース店,三重県鈴鹿市神戸３丁目１６−３０,,小規模ゲームコーナー,,
ゲームチャオ名張店,名張市蔵持町原出773番1,近鉄桔梗が丘駅徒歩20分,,,
クラブセガ 名張,名張市希央台3-15?,名張駅が最寄です,,,
楽市楽座 イオンモール東員店,三重県員弁郡東員町長深字築田510番地1　3F?,三岐鉄道東員駅より直行路線バス約5分三岐鉄道山城駅より直行路線バス約10分,,,
サンボウル,伊賀市小田町南出1528?,名阪国道上野東ICより車で約15分,,,
モーリーファンタジー伊賀上野店,伊賀市上野茅町2519&br()イオン伊賀上野店2階?,,旧：ファンタジーアイランド…,,
ドリームキャンディ,三重県伊賀市小田町711−1?,,,,
プラザパル,伊賀市小田町稲久保256-1&br()ジョイシティ伊賀上野B館3F?,伊賀鉄道上野市駅より徒歩15分,旧：ナムコランド,,
モーリーファンタジー伊勢ララパーク店,伊勢市小木町曽弥538&br()イオンタウン伊勢ララパーク店2階?,,参考画像,,
セガ伊勢,伊勢市中須町666?,,画像　2017年4月1日より「AGスクエア伊勢」から「セガ伊勢」に店名が変更となりました。　旧：AGスクエア伊勢店　旧：アーバンスクエア伊勢店居抜きではありません,,
小俣ベリー ｹﾞｰﾑｺｰﾅｰ,三重県伊勢市小俣町相合４３１?,,参考画像,,
鳥羽一番館 1FGC,三重県鳥羽市鳥羽1丁目2383−13 鳥羽一番街1階?,近鉄鳥羽線鳥羽駅JR参宮線鳥羽駅,,,
鳥羽一番館 3FGC,三重県鳥羽市鳥羽1丁目2383−13 鳥羽一番街3階?,近鉄鳥羽線鳥羽駅JR参宮線鳥羽駅,,,
イオン鳥羽店 2F,三重県鳥羽市大明西町１－１?,最寄駅 志摩赤崎,参考画像　クレーンゲーム・スロット数台のみ,,
イオン熊野店　ファミリーランド,三重県熊野市井戸町字井土３５３－１?,JR熊野駅から徒歩10分,営業時間 10:00～18:00,,
イオン大安店　らんらんらんど,いなべ市大安町高柳１９４５?,三岐鉄道 三里駅より徒歩10分,,,
モーリーファンタジー阿児店,志摩市阿児町鵜方3215&br()イオン阿児店2階?,,旧：ファンタジーアイランド…8号です。,,
ゲームパークMECHA菰野店,三重県三重郡菰野町大字宿野字神明田357,,,,
遊RUN飛行川越店,三重郡川越町大字高松字天神29-1,近鉄富田駅,,,
らんらんらんど菰野店,三重郡菰野町大字竹成字高原3998-7&br()ピアゴ菰野店1F?,,,,
アソビックスあさひ,三重郡朝日町181?,伊勢湾岸自動車道 みえ川越ICから約1km,旧：セガワールドあさひ,,
ラウンドワンスタジアムみえ・川越IC店,三重郡川越町大字南福崎851番地1?,伊勢湾岸自動車道 みえ川越ICすぐ,,,
T/S イオンモール明和店,多気郡明和町中村1223&br()イオンモール明和2F?,,旧:アミューズメントme、T/Sイオン明和店専門棟の中です,,
モーリーファンタジー明和店,多気郡明和町中村長波賀1223番地&br()イオンモール明和2F?,,イオンの中です,,
ゲームセンター・めいわ,三重県多気郡明和町蓑村２６６?,近鉄山田線斎宮駅徒歩20分,お好み焼「道とん堀」めいわ店、カラオケバンダイめいわ店のある複合施設『バンダイワールドめいわ』内,,
ジェイニークレージー,度会郡御薗村大字新開70-1,,,,
オートスナック滝原,度会郡大宮町滝原,国道42号沿い,参考,,
ジャスコシティ玉城店,度会郡玉城町世古字鳥戸411-1,,,,
ニコニコランド,南牟婁郡御浜町大字阿田和4926-5,R42沿い公共交通では阿田和駅が最寄です,バンダイワールド2店舗とは同一OPです。,,
アクション堅田,大津市今堅田2丁目40-10ACT堅田ビル2F,JR湖西線堅田駅下車徒歩10分,旧：ダイエー跡地,,
スーパーヒーロー堅田,大津市真野2-31-30,JR湖西線堅田駅下車15分琵琶湖大橋の近く,OPはフウキではありません。建物は旧セガワールド真野店を流用,,
プレイランドサンポッポ堅田,大津市本堅田5-20-10,,,,
らんらんらんど瀬田店,大津市一里山1-3-1ヒカリ屋瀬田店4F,,,,
モーリーファンタジー西大津店,大津市皇子が丘3-11-1イオン西大津店4階,,,,
ラウンドワン 浜大津アーカス店,"大津市浜町2-1浜大津アーカス内2F,3F",京阪浜大津駅下車徒歩4分,アーカス改装工事後に新規テナントとして開店,,
滋賀レジャーランド大津店,大津市におの浜3-1-43,JR琵琶湖線膳所駅より徒歩10分,AGスクエア大津店跡地に2017年9月開店,,
TFSアクア近江八幡店,近江八幡市鷹飼町179イオン近江八幡SC2番街アクア21 1F,JR近江八幡駅前,旧：宝島近江八幡店2013年8月開店,,
TFSイオン近江八幡店,近江八幡市鷹飼町179イオン近江八幡SC2番街1F,JR近江八幡駅前,TFSアクア近江八幡店とは同一フランチャイジーだが別（イオン棟の中です）,,
らんらんらんどピアゴ近江八幡店,近江八幡市鷹飼町字一本木223番地3ピアゴ近江八幡店2F,,,,
らんらんらんどダイエー近江八幡店,近江八幡市桜宮町202-1ダイエー近江八幡店1F,,？HPに店舗名は載っていない,,
らんらんらんどユーストア近江八幡店,近江八幡市鷹飼町字一本木223番地3ユーストア近江八幡店2F,,？HPに店舗名は載っていない,,
アミパラ草津店,滋賀県草津市木川町311-1JJタウン2F,,2015/07/24 オープン予定旧：K-CAT草津店,,
セガワールド草津,草津市西渋川1-23-15A-SQUARE　SARA内,JR草津駅下車徒歩2分,,,
アクション草津,草津市野路3丁目1-11,国道1号線南田山交差点そば,,,
Bb 南草津店,草津市野路5丁目13番1号,,ビジター最初の1時間600円､延長15分150円の複合型レジャー施設別途:会員料金､パック料金有り,,
エースレーン草津,草津市野路9丁目8-12,バイパス野路中央交差点角,ガオラ跡地に開店,,
ゲームランド草津,草津市新浜町300イオンモール草津3F,,専門棟の中です。,,
モーリーファンタジー草津店,草津市新浜町300イオンモール草津3F,,旧：ファンタジーアイランド…イオンの中です。,,
ゲームディーノ彦根店,彦根市西沼波町166,R8沿い。ひこね芹川駅が最寄,2013年6月開店,,
ビバシティ彦根店ゲームコーナー,彦根市竹ヶ鼻町43-1ビバシティ彦根2F,南彦根駅が最寄,"旧：ワンダーパーク彦根店,namcoビバシティ彦根店",,
ハローズガーデン彦根店,彦根市馬場2-1-1カインズモール彦根店内,,,,
プレイランドサンポッポ彦根,彦根市大東町2-28,,,,
アクション長浜,長浜市川崎町字八王子375,長浜ICおりて国道8号線彦根方面へ,赤い建物が目印,,
ファミリーランド,長浜市北船町3-21 平和堂 長浜店3F,JR長浜駅 東口出てすぐ,プライズ、シール機のみ,,
ファンタジーアイランド長浜店,長浜市山階町271-1イオン長浜店2階,,,,
アミュージアム草津店,栗東市小柿7-8-8テイサンスクエアー内,JR草津駅から徒歩10分,,,
アミューズメントJungle栗東店,栗東市栗東町綣2-4-5,,,,
プレイランド栗東,栗東市綣2-3-22,,,,
宝島 八日市店,東近江市八日市浜野町3-1ショッピングプラザアピア4F,,,,
ファンタジックランド,東近江市八日市緑町9-30,,,,
セガワールド甲西,湖南市夏見二ツ橋356-1,,,,
メルヘンランド甲西中央店,湖南市中央1丁目38平和堂甲西中央店3F,,,,
ナムコランドアルプラザ水口店,甲賀市水口町名坂411-9アルプラザ水口店別館2F,,規模は大幅に縮小,,
ビバーチ水口店,甲賀市水口町北脇1772-4,国道1号沿い,,,
ぷらっとらんど野洲店,野洲市乙窪字長操480-1ザ・ビッグエキストラ野洲店1階,,イオンの新業態のお店に転換しています。,,
ACT守山,守山市播磨田町306,,1，2，3番館という形で存在。パチンコ店と併設,,
アクション愛知川,愛知郡愛荘町長野200番地,国道8号沿い､長野北交差点南100m,,,
らんらんらんど豊郷店,犬上郡豊郷町大字高野瀬字下池田197-1ピアゴ豊郷店1F,,,,
スーパーライフ太秦店内ゲームコーナー,京都府京都市右京区太秦安井池田町6スーパーライフ太秦店3F,JR花園駅・太秦天神川駅下車徒歩5分,ガチャガチャ、トレーディングカードアーケードゲームが有,,
CIEL．NET,京都市右京区西院久保田町6-5シエル．ネット1F,各社バス中ノ橋五条下車すぐ,京都でタクシー事業を行っているMKのアミューズメント施設でシエルとパルケ上賀茂だけ現在も営業中両店共にMKが運営かつタイトーレンタリースシステム利用店でシエルはあらゆる最新の機種を設置していて料金も安価設定の機種も有,,
プラサカプコン京都店,京都市右京区西院追分町25-1イオンモール京都五条3F,専門店棟の中にある本格的なゲームセンター,,,
モーリーファンタジー京都五条店,京都市右京区西院追分町25-1イオンモール京都五条店2F,イオン棟の中にある子供向けのゲームコーナー、同施設は割とイオン系列の店舗に設置してある事が多いです,,,
プレイランド京都,京都市右京区山ノ内池尻町1-1京都ファミリー3F,各社バス四条葛野大路下車すぐ,OPはソユー,,
北大路ビブレプリント＆プライズステーション,京都市北区小山北上総町49-1北大路ビブレ4F,地下鉄北大路駅下車すぐ市バス北大路駅前下車すぐ,店内面積は狭く2016年1月現在はUFOキャッチャーとプリクラのみ設置同じ階で少し離れた場所にトレーディングカードアーケードゲームも設置されている,,
しょうざんボウル,京都市北区衣笠鏡石町47,市バス北木ノ畑町下車徒歩10分,京都市街から少し離れた分かりづらい場所（少し山深い場所）にある。営業時間も22時迄と早いので利用する時や訪問する時は注意今のゲームはほとんど設置されておらず、1990年代頃のレトロゲームが多めに設置されているボウリング場のゲームコーナーという感じだが面積が以前の半分に縮小されている,,
パルケ上賀茂,京都市北区上賀茂西河原町1-1,各社バス柊野別れや西賀茂橋下車が比較的近い,京都でタクシー事業を行っているMKのアミューズメント施設でシエルとパルケ上賀茂だけ現在も営業中両店共にMKが運営していてタイトーレンタリースシステム利用店でパルケ上賀茂は最新の機種は音ゲーを中心に多めになっている,,
エクシブ京都 八瀬離宮内アミューズメントコーナーJOY,京都市左京区八瀬野瀬町74-1,叡山電車八瀬比叡山口駅下車すぐ,ホテル内にあるゲームコーナー昔はこの場所に八瀬遊園～スポーツバレー京都～森のゆうえんちがあった,,
京都ヨドバシ,京都市下京区烏丸通七条下ル東塩小路町590-2,京都駅下車北へ徒歩3分京都タワーの北隣,3階にトレーディングカードアーケードゲーム6階にプリクラやUFOキャッチャーがある,,
PLAYLAND KING 七条店,京都市下京区東境町187,京都駅下車北へ徒歩5分烏丸七条交差点,1階はパチンコキング、建物右隅にある階段が入口で2階にゲームセンターがある(駐輪場や駐車場も有)京都駅前で立地が良く観光客や外国人も結構多い。最新ゲームはもちろんビデオゲームや格闘ゲームの対戦仕様台も今では店舗面積の1/3に縮小されてるものの健在,,
京都オリンピア,京都市中京区新京極蛸薬師下ル東側町502,プリクラ専門店で新京極側から見ると小型飛行機のオブジェとして飾られている（1980年代後半～1990年代前半頃はビデオシステムの直営店だった）,,,
ゲームパニック京都,京都市中京区新京極通三条下ル桜之町415京都松竹座ビル,元々本屋があった場所に2011年12月16日オープン2016年4月に運営会社がレジャランに変更,,,
サードプラネットBivi京都二条店,京都市中京区西ノ京栂尾町1-6,JR・地下鉄二条駅前各社バス二条駅前下車すぐ,,,
ハリケーン寺町京極店,京都市中京区新京極蛸薬師下ル東側町502,2015年9月26日オープンのUFOキャッチャー専門店で元々は富貴系列のスターダストＩがあった、後に空き家状態だったがハリケーンが入居したこちらの方がハリケーンの京都本店よりもお店の面積は広くハリケーンの店舗が2店連なる状態での出店していた2018年に入ってすぐ京都本店が休業して下記の通り同年3月に物産店になっているので、以降ハリケーンは寺町京極店だけ営業している,,,
PLAYLAND KING 円町店,京都市中京区円町西入北側2F,ＪＲ円町駅下車すぐ,設置ゲームは七条キングとほぼ同じだが、円町店のみメダルコーナーがある(駐輪場や駐車場も有),,
ROUND 1 京都河原町店,京都市中京区河原町通三条下ル山崎町250,京阪祇園四条駅・阪急河原町駅各社バス四条河原町下車もしくは京阪三条駅・各社バス河原町三条地下鉄東西線京都市役所前駅下車でも可,駐輪場はオープンの頃から設置されており、駐輪場が完全に無料開放だった頃も有り、立地の良さからラウンドワンと関係が無い利用や放置車両が目立った経緯がある為現在駐輪場は管理会社に委託されている。ラウンドワン利用者は一部無料扱いの設定が有り比較的優遇されているがこの駐輪場を通常利用した場合は周辺の駐輪場と比べ高めの料金設定になっている,,
ミラプリ,京都市中京区中之町554美松別館1F,プリクラ専門店。2016年4月現在休業中の模様,,,
店舗名不明だがAAAの可能性有,京都市中京区中之町546-4,UFOキャッチャー専門店。2016年9月頃開店。元は新京極通りのLeMusee京都本店があった場所にあった。（OPはアミューズメントトラスト）以降摘発されるまで店舗名がよく分からない状態で営業してたが「AAA」という名称の可能性も有るものの詳しく公表されておらず詳細は不明新京極通りの店舗上部にも各店舗の看板が設置されてるものの、この看板も交換される事も無く前の「LeMusse」の看板という状態だった2017年12月23日に大阪と京都の店舗でUFOキャッチャーを使った詐欺事件があり、当店も家宅捜索を受けて経営者が逮捕され以降は再開される事無く12月23日付けで閉店(2018年3月現在も跡地は閉店当時そのままの状態で放置されている状態),,,
ハリケーン京都河原町店,京都市中京区山崎町243,2015年3月下旬オープン、河原町のラウンドワンの向かいにあったUFOキャッチャー専門店2017年12月に閉店確認(詳しい閉店日は不明),,,
ハリケーン京都本店,京都市中京区新京極蛸薬師下ル東側町501,京阪祇園四条駅・阪急河原町駅各社バス四条河原町下車もしくは京阪三条駅・各社バス河原町三条地下鉄東西線京都市役所前駅下車でも可,ハリケーンが京都進出した時の1号店で2018年に休業するまでUFOキャッチャー専門店だった（店舗の外に太鼓の達人が置いてあった時期も有）2018年に入ってからは隣接する寺町京極店のみ営業、京都本店側の店舗には入れない状態だった（休業中は新京極側の入口を塞ぐ様にガチャガチャが置かれていた）2018年3月に告知があり物産店「キャラクターショップ　はんなりー」が3月中旬オープン（「はんなりー」は物販店でゲームセンターで無い為、当wikiには記載してません）。「はんなりー」の店内には前施設で使われてたUFOキャッチャー等の機械等はある程度残っているもののアニメグッツも販売している模様2018年3月現在は新京極通り側は「はんなりー」の看板になっているものの裏側に廻った寺町通りの裏側の入口に旧店舗のハリケーン京都本店の看板が撤去されずに残っている（ただしこの寺町側は倉庫になっているので入店出来ない）,,
こどものひろばレインボーランド,京都市伏見区桃山町西尾12-1イズミヤ六地蔵店2F,京阪六地蔵駅下車徒歩5分,,,
ファンタジーアイランド,京都市伏見区醍醐高畑町1-37アルプラザ醍醐店3F,地下鉄醍醐駅前下車すぐ京阪バス醍醐駅前下車すぐ,,,
ピュアハートキッズランド伏見桃山,京都市伏見区桃山町山ノ下32MOMOアミューズメント棟1F,JR・地下鉄六地蔵駅下車徒歩5分,2013年12月21日より現店舗名で営業中旧ファンタジーキッズリゾート伏見桃山,,
伏見サティー内ゲームコーナー,京都市伏見区御堂前町616伏見サティー4F,京阪電車伏見桃山駅下車徒歩10分,,,
メガドームDOSSE,京都市伏見区横大路下三栖宮ノ後30-1,市バス横大路車庫前下車徒歩5分,,,
ROUND 1 京都伏見店,京都市伏見区下鳥羽平塚町23,市バス国道下鳥羽下車徒歩5分京都らくなんエクスプレス国道毛利橋東・宝酒造前下車すぐ京阪バス伏見警察署前下車徒歩5分,各社バスでも最寄りの場所まで行けるが京都駅八条口より無料の送迎バスも有り（鉄道では駅から2km以上ある上にルートが複雑なので地元の人以外お勧め出来ない,,
キョーイチアミューズメントパーク吉祥院,京都市南区吉祥院石原長田町1-2,市バス久世橋東詰下車すぐ,2014年8月6日ボウリング場を先行リニュアルオープン、1階ゲームセンター部分のみ10月4日オープンタイトーレンタリースシステム利用店,,
ゲームメイト,京都市南区東九条西山王町31京都アバンティ6F,京都駅八条口,2013年10月31日オープンUFOキャッチャー専門店、以前は4階で営業してたが現在は6階に移動している,,
辻商店,京都市南区東九条上殿田町13,JR・近鉄・京都市地下鉄・各社バス京都駅八条口から徒歩5分,駄菓子屋とゲームセンターが一緒になっているお店京都駅八条口から徒歩圏内だが目立った大通り沿いでは無く小さな道沿いの住宅街の中にお店はあるので初めて行く人は要注意,,
namcoイオンモールKYOTO店,京都市南区西九条鳥居口町1イオンモールKYOTO-sakura館4F,京都駅八条口,イオンモールKYOTOにはイオン系列のモーリーファンタジーは無い為、館内で唯一のゲームコーナーです,,
モーリーファンタジー桂南店,京都市南区久世上久世町485ダイエー桂南店2F,阪急洛西口駅下車徒歩20分市バス上久世下車すぐ,旧らんらんらんど桂南店,,
モーリーファンタジー京都桂川店,京都市南区久世高田町376イオンモール京都桂川3F,阪急洛西口駅下車徒歩5分JR桂川駅すぐ,2014年10月17日オープン,,
モーリーファンタジー洛南店,京都市南区吉祥院御池町31イオン洛南店2F,JR西大路駅下車徒歩10分市バス船戸町下車すぐ,2014年3月2日にて施設改装で一旦閉店したが6月12日のリニュアルオープンで復活し名称変更,,
楽市楽座,京都市南区久世高田町376イオンモール京都桂川3F,阪急洛西口駅下車徒歩5分JR桂川駅すぐ,2014年10月17日オープン,,
USLAND桂南店,京都市南区久世上久世町485ダイエー桂南店2F,阪急洛西口駅下車徒歩20分市バス上久世下車すぐ,2016年2月13日オープン,,
スーパーボウル吉祥院,京都市南区吉祥院石原長田町1-2,市バス久世橋東詰下車すぐ,2014年5月まで営業,,
プレイランドわくわくランド,京都市山科区音羽野田町1西友山科店4F,京阪バス山階校前下車すぐ,,,
山科グランドボウル,京都市山科区西野楳本町113,京阪バス川田道下車すぐ,2013年12月21日オープン、現在はパチスロ・プリクラ等のみ,,
プレイランド,京都市山科区椥辻草海道町15-1ヒカリ屋山科店3F,地下鉄・京阪バス椥辻駅下車すぐ,2016年7月現在はヒカリ屋の1階にも子供向けのゲームコーナーが有り,,
らんらんらんど山科店,京都市山科区椥辻草海道町15-1ヒカリ屋山科店3F,地下鉄・京阪バス椥辻駅下車すぐ,,,
モーリーファンタジー綾部店,綾部市綾中町花ノ木30バザールタウン綾部アスパ館2F,JR綾部駅下車すぐ,2014年10月11日開店、旧らんらんらんど綾部店,,
アミューズメントスクエア モナコ宇治,宇治市大久保町旦椋122,京阪バス林停留所下車すぐ,各種ゲーム機がある程度置いてあり宇治では一番最新機種が揃っている,,
キッズUSLANDベルファ宇治店,宇治市槇島町清水48ベルファ宇治2F,近鉄向島駅下車徒歩20分,子供向けの滞在時間に応じて課金されるゲームコーナー,,
キョーイチボウル宇治,宇治市小倉町神楽田55-1,近鉄小倉駅下車徒歩3分,タイトーレンタリースシステム利用店,,
キョーイチアミューズメントパーク,宇治市小倉町神楽田55-1,近鉄小倉駅下車徒歩3分,パチスロやMJ、麻雀格闘倶楽部などは台数が多め,,
ゲームズミルク,宇治市大久保町北ノ山101-5-2F,近鉄大久保駅下車徒歩3分(自衛隊方面),2014年9月22日に2階へ移転し会員制ゲーセンになっている元々ゲーセンがあった1階部分は飲食店になっている,,
スーパーハンマー,宇治市伊勢田町浮面59ドン・キホーテ宇治店内,京阪バス名木北口停留所下車して西へ400m,UFOキャッチャー専門店旧ウィズワン宇治店,,
ぷらっとらんど,宇治市広野町西裏100平和堂100BAN店1F,近鉄大久保駅下車徒歩3分,子供向けゲームコーナー,,
ぷらっとらんど,宇治市槇島町清水48ベルファ宇治1F,近鉄大久保駅下車徒歩3分,スーパーTOKUYAの入口部分にあるUFOキャッチャーとプリクラのみ設置,,
プリッズ宇治店,宇治市莵道平町28アルプラザ宇治東3F,京阪三室戸駅下車徒歩15分,ナムコ系列のお店,,
レインボー小倉内ゲームコーナー,宇治市小倉町神楽田25レインボー小倉店3F,近鉄小倉駅下車すぐ,2015年11-12月ごろオープン,,
ファインワールド,亀岡市古世町西内坪101イオン亀岡店3F,JR亀岡駅下車すぐ,この手の店舗には珍しく「ガンダム戦場の絆」も置いてあった,,
アルプラザボウル亀岡,亀岡市篠町野条上又11-1アルプラザ亀岡店3F,JR馬堀駅下車徒歩15分,,,
西友亀岡店内ゲームコーナー,亀岡市追分町馬場通15-1西友亀岡店B1F,JR亀岡駅下車徒歩3分,4Fにあった大きなゲームコーナーは無くなってます現在は地下1階に移動してるが子供向けで少ししかありません,,
バーチャルバッティング亀岡ドーム,亀岡市千代川町小林植田24-1,JR並河駅又は千代川駅下車徒歩15分,ゲーム機は少ないが麻雀格闘倶楽部はある,,
BIG SANTA亀岡店(タカラ島亀岡店),亀岡市篠町野条上又11-1アルプラザ亀岡店3F,JR馬堀駅下車徒歩15分,2014年6月9日にて旧OPが撤退現在は新OPに変更され7月5日再開,,
ステーションボウル新田辺,京田辺市田辺津田35,近鉄新田辺駅又はJR京田辺駅下車すぐ,UFOキャッチャーやパチスロが数台有る程度,,
ユーイング,京田辺市田辺中央五丁目2-1アルプラザ京田辺店3F,JR京田辺駅下車すぐ近鉄新田辺駅下車徒歩5分,,,
アミューズメントパークタカラ島峰山店,京丹後市峰山町字新町1606-1エール峰山店(峰山マイン)4Ｆ,京都丹後鉄道峰山駅下車徒歩30分丹海バス試験場前又は新町下車,,,
プラザアピア峰山,京丹後市峰山町菅376,京都丹後鉄道峰山駅下車徒歩20分丹海バス菅下車すぐ,,,
イズミヤ大久保店内アミューズメントコーナー,城陽市平川室木85イズミヤ大久保店1F,京阪バス大竹下車すぐ近鉄大久保と久津川の間,ガチャガチャとトレーディングカードアーケードゲームのみ,,
スーパーボウル城陽（現在休業中）,城陽市奈島長尾17,JR山城青谷駅下車徒歩10分,タイトーレンタリースシステム利用店2017年12月31日より隣接するパチンコ屋と共に改装の為休業中,,
namcoアルプラザ城陽店,城陽市富野荒見田112アルプラザ城陽4F,JR長池駅下車徒歩5分,,,
バッターボックス城陽,城陽市観音堂甲田55,JR長池駅下車徒歩10分,,,
アミュージアム木津川店,木津川市州見台1-1ガーデンモール木津川2F,JR平城山駅下車徒歩15分,前施設キッズサーカスの場所をそのまま引継いだ感じで2018年4月20日オープンキッズサーカス時代には無かった子供向けのキッズパークも併設,,
開放倉庫山城店,木津川市山城町椿井畑岡40-1,JR棚倉駅下車徒歩20分,UFOキャッチャーとパチスロのみ,,
ユーアイランド,木津川市木津町大字相楽小字城西15アルプラザ木津店2F,近鉄山田川駅下車すぐ,,,
モーリーファンタジー高の原店,木津川市相楽台1-1-1イオンモール高の原4F,近鉄高の原駅下車すぐ,地図によっては京都府と奈良県の県境にお店がある様に表示されるこのお店が存在するのは京都府側で奈良県ではないので注意,,
こどものひろばレインボーランド,長岡京市開田4-7-1イズミヤ長岡店2F,阪急長岡天神駅前すぐ,,,
あそVIVA,福知山市字堀下高田2346,JR・京都丹後鉄道福知山駅下車徒歩20分,福知山集中豪雨災害の影響で2014年8月17日から休業中だったが同年11月29日に再オープン。ただしメダルコーナーは復活されず廃止となった,,
AVIX福知山店,福知山市東羽合町149,JR・京都丹後鉄道福知山駅下車徒歩10分,2016年8月31日でゲームセンター部分は一旦休業、同年9月9日より2Fへ移動し再開2FへはプリクラとUFOキャッチャーのみの設置でそれ以外の機器は撤去された（ゲーセン跡地部分にはスターバックスコーヒーが2017年1月26日オープン）,,
モーリーファンタジー福知山店,福知山市岩井79-8イオン福知山店2階,京都丹後鉄道荒河かしの木台駅下車徒歩10分,旧：ファンタジーアイランド…,,
キッズワールド,舞鶴市伊佐津200-5さとうバザールタウン舞鶴店,JR・京都丹後鉄道西舞鶴駅下車徒歩3分,主にキャッチャー系と子供向けゲームのみだったが、2018年2月頃から艦これやチュウニズムが各2台ずつ導入されている。太鼓の達人1台、プリ機も数台有り。,,
ドライブインダルマ,舞鶴市字丸田822-1,京都丹後鉄道東雲駅下車徒歩40分,営業時間は早朝から夕方。店内にはジュークボックスやゲーム筐体なども置いてあるドライブイン的には今では貴重になったうどんやラーメン等の自販機が現役稼動している事でマニアの間では有名なお店,,
ナムコランドらぽーる店,舞鶴市南浜町12-8エール東舞鶴店3F,JR東舞鶴駅下車徒歩2分,主にキャッチャー系、子供向けカードゲームがゲーセン内外に多数台有り。プリ機は4台。太鼓の達人、シンクロニカ共に2台で1play200円設定。時期によりごく稀に変動有り。(2018年2月現在),,
マリンボウル,舞鶴市字北吸247,京都交通三宅団地下車すぐ,レゲーが放置されてる状態で中にはまともに遊べないゲームも有ったが後に撤去等が進み、ある程度整理はされたボウリングのレーンの半分は手書きレーンが残ってたが、これも今は壁で覆ってあり見る事は出来なくなった,,
ナムコランドミップル店,宮津市字浜町3012宮津シーサイドマートMipple5F,京都丹後鉄道宮津駅下車徒歩10分,ナムコ系列のお店,,
アミパラ京都南店,向日市森本町佃15-7,各社バス国道東土川下車すぐ,2014年7月4日オープン、多種多様の機種があり本格的なゲームセンターになっている,,
あひるのたまご八幡店,八幡市欽明台北3-1スーパーセンタームサシ八幡店2F,JR松井山手駅下車徒歩20分,,,
室内遊園レインボーランド,八幡市八幡一ノ坪23-1イズミヤ八幡店1F,京阪バス御幸谷下車徒歩5分,,,
キッズUSLANDファミレ八幡店,八幡市八幡源氏垣外1-4ファミレ八幡3F,京阪八幡駅下車徒歩20分,,,
ビービーカフェ八幡店,八幡市八幡南山76,2017年7月31日閉店インターネットカフェ以外にもパチスロ、ビリヤード、カラオケ、ダーツ、麻雀格闘倶楽部など設置していた,,,
ジョイパーク,相楽郡精華町精華台9-2-4アピタ精華台店西館2Ｆ,奈良交通バス光台一丁目または国立国会図書館前下車,,,
VIVACE久御山,久世郡久御山町大字森小字大内301イオンタウン久御山内,京阪バスジャスコ久御山前下車,2000年にオープンで久御山店はビバーチ1号店。同店はイオンモール久御山店内では無く、イオンタウンというイオンモールと隣接した場所にお店が有りますビバーチ久御山の店内1Fにはアンパンマン、バイキンマン、ドキンちゃんなど御影石で出来たベンチが設置されている（開業当時の運営会社がトムス・エンタテイメントだった）,,
モーリーファンタジー久御山店,久世郡久御山町森南大内156-1イオンモール久御山2F,,,,
ザ・インドアゲーム,大阪市旭区中宮5-6-19,大阪市営バス 中宮停留所より徒歩3分地下鉄谷町線 千林大宮駅より徒歩17分地下鉄谷町線･今里筋線 太子橋今市駅より徒歩20分,,,
G-pala あべの,大阪市阿倍野区阿倍野筋3-10-1あべのベルタ 2F,地下鉄谷町線 阿倍野駅より徒歩2分JR各線/地下鉄御堂筋線･谷町線 天王寺駅近鉄南大阪線 大阪阿部野橋駅より徒歩9分,,,
セガ あべのキューズモール,大阪市阿倍野区阿倍野筋1-6-1あべのキューズモール 3F,JR各線/地下鉄御堂筋線･谷町線 天王寺駅近鉄南大阪線 大阪阿部野橋駅より徒歩7分,,,
セガワールド アポロ,大阪市阿倍野区阿倍野筋1-5-31きんえいアポロビル 3F,JR各線/地下鉄御堂筋線･谷町線 天王寺駅近鉄南大阪線 大阪阿部野橋駅より徒歩5分,旧:ハイテクランドセガ アミューズメントシアター,,
タイトーFステーション あべのアポロ店,大阪市阿倍野区阿倍野筋1-5-31きんえいアポロビル 4F,旧:ASPA 4,,,
天王寺パスカ,大阪市阿倍野区阿倍野筋2-4-51,地下鉄谷町線 阿倍野駅より徒歩1分JR各線/地下鉄御堂筋線･谷町線 天王寺駅近鉄南大阪線 大阪阿倍野橋駅より徒歩5分,,,
アミュージアム 茶屋町店,大阪市北区茶屋町15-34,阪急各線 梅田駅より徒歩7分,旧:チルコポルト 茶屋町店:音ゲープリクラ多数,,
ゲームゼロ,大阪市北区梅田1-2-2大阪駅前第2ビル B1F,JR東西線 北新地駅より徒歩3分地下鉄四つ橋線 西梅田駅より徒歩5分,,,
サイバーシティ2B1,大阪市北区梅田1-2-2大阪駅前第2ビル B1F45,,,,
ハイスピード,大阪市北区梅田1-1-3大阪駅前第3ビル B1F,,,,
ロイヤル,大阪市北区梅田1-1-3大阪駅前第3ビル B1F,,,,
ハイテクランドセガ ミスト2,大阪市北区梅田1-11-4大阪駅前第4ビル B1F,地下鉄谷町線 東梅田駅より徒歩2分JR東西線 北新地駅より徒歩5分,,,
梅田ジョイポリス,大阪市北区角田町5-15HEP FIVE 8～9F,阪急各線 阪急梅田駅より徒歩2分地下鉄御堂筋線 梅田駅より徒歩4分JR各線 大阪駅より徒歩7分阪神本線 阪神梅田駅より徒歩7分,,,
タイトーFステーション 梅田店,大阪市北区曽根崎2-16-26曽根崎お初天神通り内,地下鉄谷町線 東梅田駅より徒歩2分,大和企業株式会社運営旧:タイトースペシャル,,
ラウンドワン 梅田店,大阪市北区小松原町4-16梅田ナナイロ 4～7F,地下鉄谷町線 東梅田駅より徒歩4分,,,
namco 梅田店,大阪市北区小松原町3-3OSビル 1～3F,旧:ナムコランド 梅田店,,,
monte50明大モンテカルロ,大阪市北区小松原4-27小松原MDビル 2F～4F阪急東中央通り内,,,,
梅田ABC,大阪市北区堂山町5-4阪急東通り商店街内,地下鉄谷町線 東梅田駅より徒歩6分,,,
クラブセガ 東梅田,大阪市北区堂山町9-28スプラウトビル 1F阪急東通り商店街内,大阪市営バス 大融寺町停留所より徒歩2分地下鉄谷町線 東梅田駅より徒歩9分,旧:ハイテクランドセガ 紫光,,
ゲームセンター コーハツ,大阪市北区天神橋2-2-21コーハツビル 1F,地下鉄谷町線･堺筋線 南森町駅JR東西線 大阪天満宮駅より徒歩2分,旧:チャレンジャーコーハツ店,,
ゲームプラザ OLYMPIA,大阪市北区天神橋4-10-18天神橋筋4丁目北商店街内,JR大阪環状線 天満駅より徒歩2分地下鉄堺筋線 扇町駅より徒歩4分,,,
ソユー ウエスタンシティ,大阪市此花区島屋6-2-61ユニバーサル・シティーウォーク大阪 3F,JRゆめ咲線 ユニバーサルシティ駅より徒歩1分,,,
セガ 今福,大阪市城東区今福東1-9-34,大阪市営バス/近鉄バス 今福大橋停留所より徒歩2分地下鉄長堀鶴見緑地線 今福鶴見駅より徒歩5分,旧:セガワールド 今福,,
ラウンドワンスタジアム 城東放出店,大阪市城東区今福南3-4-38,京阪本線/地下鉄長堀鶴見緑地線/JR各線 京橋駅JR学研都市線 放出駅より無料シャトルバス運行大阪市営バス 寝屋川大橋停留所より徒歩3分,,,
わくわくアミーゴ 今福ファミリータウン店,大阪市城東区今福東1-10-5イズミヤファミリータウン B1F,大阪市営バス/近鉄バス 今福大橋停留所より徒歩3分地下鉄長堀鶴見緑地線 今福鶴見駅より徒歩3分,,,
namco マグスミノエ 1号店,大阪市住之江区泉1丁目1番82号マグスミノエ 1F 西側,地下鉄四つ橋線/ニュートラム 住之江公園駅より徒歩7分,旧:ナムコランド すみのえ店旧々:プリッズ すみのえ,,
namcoマグスミノエ 2号店,大阪市住之江区泉1丁目1番82号マグスミノエ 1F 東側,法的には別店舗,,,
AXE,大阪市中央区難波1-1-3,地下鉄御堂筋線･千日前線 なんば駅/近鉄難波線 大阪難波駅より徒歩5分,,,
アミューズメント ニコニコ,大阪市中央区道頓堀1-6-12ニコービル 1F,地下鉄御堂筋線 なんば駅より徒歩7分,,,
アルカブース,大阪府大阪市中央区道頓堀1-6-9,u-san運営B1Fは道頓堀つりぼり,,,
タイトーステーション 難波店,大阪市中央区難波千日前15-12,南海各線/地下鉄御堂筋線 なんば駅より徒歩5分,電子マネー対応店,,
namco 戎橋店,大阪市中央区難波3-2-27,南海各線/地下鉄御堂筋線 なんば駅より徒歩5分,旧：JJ COINS なんば店,,
難波ヒルズ,大阪市中央区難波3-2-34,旧：アミューズメントアババ,,,
ラウンドワン 北心斎橋店,大阪市中央区南船場3-6-183F～11F,大阪市営バス 心斎橋停留所より徒歩3分地下鉄御堂筋線･長堀鶴見緑地線 心斎橋駅より徒歩5分,B1F～2FはACCESS 心斎橋店,,
ラウンドワンスタジアム 千日前店,大阪市中央区難波1-3-1,地下鉄御堂筋線･千日前線 なんば駅/近鉄難波線 大阪難波駅より徒歩5分,,,
メインストリート 千日前店,大阪市中央区千日前2-11-1,,2015年2月8日より改装休業→ダイコクドラッグになったが2015年8月現在移転先が決定し準備中とのこと,,
namco イオンモール鶴見緑地店,大阪市鶴見区鶴見4-17-1イオンモール鶴見緑地 4F,大阪市営バス 鶴見停留所より徒歩2分地下鉄長堀鶴見緑地線 今福鶴見駅/横堤駅より徒歩6分,旧:ナムコランド マジカルフィールド店,,
モーリーファンタジー 鶴見店,大阪市鶴見区鶴見4-17-1イオンモール鶴見緑地内 イオン鶴見店 3F,,,,
ゲームセンター ぎんが,大阪市天王寺区下味原町1-22,JR大阪環状線/近鉄各線 鶴橋駅より徒歩1分,,,
玉造ゲームセンター,大阪市天王寺区玉造元町14-2,大阪市営バス 真田山停留所より徒歩3分JR大阪環状線 玉造駅より徒歩6分,,,
ハイテクランド,大阪市天王寺区上本町6-3-31-130うえほんまちハイハイタウン 1F,大阪市営バス 上本町六丁目停留所より徒歩1分地下鉄谷町線･千日前線 谷町九丁目駅より徒歩3分近鉄大阪線･難波線 大阪上本町駅より徒歩4分,,,
タイトーステーション 大阪日本橋店,大阪市浪速区日本橋4-9-14,南海各線/地下鉄御堂筋線 なんば駅より徒歩12分,電子マネー対応店,,
アテナ 日本橋,大阪市浪速区難波中2-1-22,南海各線/地下鉄御堂筋線 なんば駅より徒歩5分,,,
セガ 難波アビオン,大阪市浪速区難波中2-3-15MMOビル B1F～3F,旧:ハイテクランドセガ アビオン,,,
namco なんばパークス店,大阪市浪速区難波中2-10-70なんばパークス 6F,旧:ナムコランド なんばパークス店,,,
大スター,大阪市浪速区難波中1-18-35,,,,
あみゅぱら,大阪市浪速区恵美須東3-5-16,地下鉄堺筋線 恵美須町駅より徒歩5分,旧:アルカディア2,,
ニュースター,大阪市浪速区恵美須東3-5-19,スマートボール専門,,,
かすが娯楽場,大阪市浪速区恵美須東3-2-19,地下鉄御堂筋線・堺筋線 動物園前駅より徒歩3分,ジャンジャン横町内アサヒビールの提灯が目印,,
レトロゲーセン　ザリガニ,大阪市浪速区恵美須東1-21-4,地下鉄堺筋線・阪堺電軌阪堺線 恵比須町駅より徒歩２分南海高野線今宮戎駅より徒歩約10分,旧：新世界ガチャガチャ市場ラインナップが毎月入れ替わるレゲーとガチャ専門店。店員は基本的に常駐なしの模様。,,
楽市楽座 イオンモール大阪ドーム店,大阪市西区千代崎3-13-1イオンモール大阪ドームシティ 4F,阪神なんば線 ドーム前駅/地下鉄長堀鶴見緑地線 ドーム前千代崎駅大阪市営バス ドーム前千代崎停留所より徒歩2分,,,
モーリーファンタジー 大阪ドームシティ店,大阪市西区千代崎3-13-1イオンモール大阪ドームシティ内 イオン大阪ドームシティ店 3F,,,,
TVタウン,大阪市西成区萩之茶屋2-3-8,南海高野線 萩ノ茶屋駅より徒歩3分,商店街の中,,
ワンダーランドプレゴ 鶴橋店,大阪市東成区東小橋3-15-4,JR大阪環状線/近鉄各線/地下鉄千日前線 鶴橋駅より徒歩3分,,,
ラウンドワン 東淀川店,大阪市東淀川区菅原7-14-29,阪急京都線 上新庄駅/JR京都線 吹田駅/阪急千里線 吹田駅より無料シャトルバス運行大阪市営バス 豊新二丁目停留所より徒歩1分,,,
レインボーランド 上新庄店,大阪市東淀川区上新庄1-2-36イズミヤ上新庄店 3F,,,,
ポケット 平野駅前店,大阪市平野区平野北1-8-22イオンタウン平野 2F,JR大和路線 平野駅より徒歩3分,,,
モーリーファンタジー 喜連瓜破駅前店,大阪市平野区瓜破2-1-13イオン喜連瓜破ショッピングセンター内イオン喜連瓜破駅前店 4F,地下鉄谷町線 喜連瓜破駅より徒歩2分,旧:ファンタジーアイランド 喜連瓜破駅前店,,
モーリーファンタジー 長吉店,大阪市平野区長吉長原西1-1-10イオン長吉店 4F,地下鉄谷町線 出戸駅直結/大阪市営バス 出戸バスターミナル停留所より徒歩2分,旧:らんらんらんど 長吉店,,
モーリーファンタジー 野田阪神店,大阪市福島区海老江1-1-23ウイステ内 イオン野田阪神店 4F,阪神本線 野田駅/地下鉄千日前線 野田阪神駅より徒歩3分JR東西線 海老江駅より徒歩5分,旧:ファンタジーアイランド 野田阪神店,,
MECHA 天保山,大阪市港区海岸通り1-1-10天保山マーケットプレース 1F～2F,大阪市営バス 天保山(海遊館)停留所より徒歩1分地下鉄中央線 大阪港駅より徒歩7分,旧:セガワールド 天保山,,
GAME SPOT PALO 京橋店,大阪市都島区片町2-3-51イオン京橋店 2～3F,JR各線/京阪各線/長堀鶴見緑地線京橋駅より徒歩5分,旧:GAME STATION palo 京橋店,,
ゲームポイント シャトーEX,大阪市都島区東野田町3-9-3グランシャトービル 1F～2F,,,,
モーリーファンタジー 京橋店,大阪市都島区片町2-3-51イオン京橋店 4F,旧:らんらんらんど 京橋店,,,
HEARTFUL SQUARE NICOPA ベルファ都島店,大阪市都島区友渕町2-13-34ベルファ都島ショッピングセンター 3F,大阪市営バス 高倉町三丁目停留所より徒歩2分,,,
ハイテクランドセガ 西中島,大阪市淀川区西中島3-16深井センタービル 1F～2F,阪急京都線 南方駅/地下鉄御堂筋線 西中島南方駅より徒歩3分,,,
MECHA 新金岡店,堺市北区新金岡町5-1-6ドン･キホーテ新金岡店 2F,地下鉄御堂筋線 新金岡駅より徒歩5分,株式会社シン運営旧:DEJA.VU 新金岡店,,
モーリーファンタジー 堺北花田店,堺市北区東浅香山町4-1-12イオンモール堺北花田内 イオン堺北花田店 2F,地下鉄御堂筋線 北花田駅より徒歩3分,,,
モーリーファンタジー 新金岡店,堺市北区新金岡町4-1-11イオン新金岡店 3F,地下鉄御堂筋線 新金岡駅より徒歩5分,,,
アットチャレンジャー,堺市中瓦町2-3-12堺銀座商店街内 パーターさかもと第2ビル,南海高野線 堺東駅より徒歩2分,旧:GAME TiLT 堺東,,
ゲームパニック 堺,堺市堺区築港八幡町1-1堺浜シーサイドステージ内 堺浜えんため館 1F,南海高野線 堺東駅/南海本線 堺駅地下鉄四つ橋線/ニュートラム 住之江公園駅より無料シャトルバス運行南海バス 堺浜シーサイドステージ停留所より徒歩3分,株式会社NEWS運営元:株式会社アトラス運営,,
ゲームプラザ パール,堺市堺区北瓦町1-5-25堺銀座西商店街内,,,,
ソユーゲームフィールド堺鉄砲町店,堺市堺区鉄砲町1イオンモール堺鉄砲町3F,"南海本線 七道駅直結堺東駅・住之江公園駅の各駅より南海バスで10～20分駐車場約2,600台",電子マネー利用可能(機種による),,
モーリーファンタジー 堺鉄砲町店,堺市堺区鉄砲町1イオンモール堺鉄砲町内 イオンスタイル堺鉄砲町 3F,,,,
ラウンドワンスタジアム 堺駅前店,堺市堺区戎島町4-44-3,JR阪和線 堺市駅/南海高野線 堺東駅より無料シャトルバス運行南海本線 堺駅より徒歩3分,,,
レインボーランド 泉北店,堺市中区小阪270アンディ泉北内 イズミヤ泉北店 2F,南海バス 小阪停留所より徒歩2分,,,
KID'S CIRCUS ベスピア堺インター店,堺市西区太平寺711べスピア堺インター 2F,南海バス 平井大橋停留所より徒歩5分,,,
ナムコランド 鳳店,堺市西区鳳南町3-199-12アリオ鳳内 アリオモール 3F,JR阪和線 富木駅より徒歩15分JR阪和線 鳳駅より徒歩18分南海バス 富木/上北停留所より徒歩5分,,,
ハローズガーデン 鳳店,堺市西区鳳南町3-199-12アリオ鳳内 イトーヨーカドー鳳店 3F,旧:ピカキッズ 鳳店,,,
ハローズガーデン 津久野店,堺市西区下田町20-1イトーヨーカドー津久野店 2F,JR阪和線 津久野駅より徒歩6分南海バス 下田停留所より徒歩8分,旧:ピカキッズ 津久野店,,
モーリーファンタジー おおとり店,堺市西区鳳東町7-733おおとりウイングス 2F,JR阪和線 鳳駅より徒歩7分南海バス 鳳駅前停留所より徒歩2分,旧:らんらんらんど おおとり店,,
ゲームセンターGAME21アミューズメント21,堺市南区岩室108-1,南海バス 岩室停留所より徒歩2分,有限会社ジャパンアミューズクリエーション運営,,
ダイエー栂店 ゲームコーナー,堺市南区原山台2-2-2ダイエー栂店 3F,泉北高速線 栂･美木多駅より徒歩3分,,,
HEARFUL SQUARE NICOPA 原山台店,堺市南区原山台5-9-8クロスモール泉北A館 1F,泉北高速線 栂･美木多駅より無料シャトルバス運行,旧:AN.KIN.TAN 原山台店,,
ぷれいらんど373 泉ヶ丘店,堺市南区三原台1-1-3ジョイパーク泉ヶ丘 1F,泉北高速線 泉ヶ丘駅より8分,,,
ラウンドワン 泉北店,堺市南区原山台1-14-2,泉北高速線 泉ヶ丘駅･光明池駅より無料シャトルバス運行南海バス 原山台口停留所より徒歩7分南海バス 豊田南停留所より徒歩8分,,,
大美野スポーツドームOHMINO SportsDome,堺市東区大美野167-7,南海バス 西口園停留所より徒歩7分南海バス 下草尾停留所より徒歩10分南海高野線 萩原天神駅より徒歩23分,駐車場(無料):36台･定休日:火曜日株式会社遊休スペースマネージメント運営,,
セガワールド 松原,堺市東区八下町3-10,南海バス 野遠停留所より徒歩7分,,,
ラウンドワンスタジアム 堺中央環状店,堺市東区石原町2-241,南海高野線･泉北高速線･地下鉄御堂筋線 中百舌鳥駅近鉄南大阪線 河内松原駅より無料シャトルバス運行,,,
らんらんらんど 池田駅前店,池田市満寿美町2-2ダイエー池田駅前店 4F,阪急宝塚線 池田駅より徒歩1分,,,
アミューズメントスペース メリーランド泉大津,泉大津市旭町20-1アルザ泉大津第2棟商業ビル 4F,南海本線 泉大津駅より徒歩3分,旧:ドリームタウン 泉大津店(オペレーター変更),,
フタバボウル 泉大津店,泉大津市松之浜町1-2-53,南海本線 松ノ浜駅より徒歩5分,,,
レインボーランド 和泉府中店,泉大津市東豊中町1-5-5イズミヤ和泉府中店 4F,JR阪和線 和泉府中駅より徒歩12分,,,
宝島 イオンモール日根野店,泉佐野市日根野2496-1イオンモール日根野 2F,JR阪和線 日根野駅より徒歩7分,,,
namco りんくうシークル店,泉佐野市りんくう往来南3りんくうプレジャータウンシークル 1F,JR関西空港線/南海空港線 りんくうタウン駅より徒歩10分,旧:ゲームBALLY りんくう,,
ハローズガーデン 泉佐野店,泉佐野市下瓦屋2-2-77いこらも～る泉佐野 3F,南海本線 井原里駅より徒歩7分,,,
レインボーランド 泉佐野店,泉佐野市南中安松774イズミヤ泉佐野店 2F,南海本線 羽倉崎駅より徒歩22分JR阪和線 長滝駅より徒歩30分,,,
ゲーム ザ★ゴリラ,和泉市伏屋町4-10-51光明池スポーツガーデン敷地内別棟,泉北高速線 光明池駅より徒歩20分南海バス 変電所前停留所より徒歩5分,,,
セガワールド 和泉,和泉市肥子町2-4-41,JR阪和線 和泉府中駅より徒歩18分,,,
キッズプラザきゃらんど 和泉店,和泉市あゆみ野4-4-7ららぽーと和泉 2F,南海バス ららぽーと和泉前停留所より徒歩2分,株式会社プレジャーキャスト運営,,
ビリヤードナイン,和泉市室堂町277,泉北高速線 光明池駅よりバス運行,,,
モーリーファンタジー 和泉府中店,和泉市肥子町2-2-1イオン和泉府中店 4F,JR阪和線 和泉府中駅より徒歩8分,旧:ダイナレックス 和泉府中店,,
ラウンドワン ららぽーと和泉店,和泉市あゆみ野4-4-7ららぽーと和泉 4F,南海バス ららぽーと和泉前停留所より徒歩2分,,,
レインボーランド 和泉中央店,和泉市いぶき野5-1-11エコールいずみ内 イズミヤ和泉中央店 3F,泉北高速線 和泉中央駅より徒歩3分,,,
わくわくアミーゴ ダイエー光明池店,和泉市室堂町841-1ダイエー光明池店 3F,泉北高速線 光明池駅より徒歩5分,旧:らんらんらんど 光明池店,,
お宝家 茨木店,茨木市春日5-5-34,JR京都線 茨木駅より徒歩25分,,,
GAME DINO 茨木店,茨木市永代町5番ソシオビル B1F 110号,阪急京都線 茨木市駅より徒歩2分,,,
ディーノアネックス,茨木市永代町5番ソシオビル B1F,2013年3月 開店GAME DINO 茨木店とは別の営業所,,,
モーリーファンタジー 茨木店,茨木市松ヶ本町8-30-3イオンモール茨木内 イオンスタイル茨木 4F,JR京都線 茨木駅より徒歩7分,旧:ダイナレックス 茨木店,,
モーリーファンタジー･f 茨木店,茨木市松ヶ本町8-30-3イオンモール茨木 3F,,,,
ラウンドワン 茨木店,茨木市南清水町3-5,JR京都線 茨木駅/阪急京都線 茨木市駅より無料シャトルバス運行大阪モノレール線 豊川駅より徒歩15分,,,
モーリーファンタジー 金剛店,大阪狭山市半田1-35-1イオン金剛店 3F,南海高野線 金剛駅より徒歩8分,旧:らんらんらんど 金剛店,,
モーリーファンタジー 貝塚店,貝塚市地蔵堂74-2イオン貝塚店 2F,JR阪和線 和泉橋本駅より徒歩10分,,,
ゲームコーナー遊ING 交野店,交野市私部西1-33-20ジャンボスクエア交野店 B1F,京阪交野線 交野市駅より徒歩3分,,,
モーリーファンタジー 古川橋駅前店,門真市末広町41-2イオン古川橋駅前店 3F,京阪本線 古川橋駅より徒歩2分,旧:らんらんらんど 古川橋駅前店,,
わくわくアミーゴ ノバティ河内長野店,河内長野市本町24-1ノバティながの北館 4F,南海高野線/近鉄長野線 河内長野駅直結,旧:ノバティながの ナムコランド店,,
レインボーランド 河内長野店,河内長野市喜多町663イズミヤ 河内長野店 3F,南海高野線/近鉄長野線 河内長野駅より徒歩8分,株式会社ユーテック運営,,
アミュージアム 岸和田店,岸和田市下松町278-1,JR阪和線 下松駅より徒歩12分,駐車場有,,
Brick,岸和田市土生町2-32-7トークタウン専門店街 2F,JR阪和線 東岸和田駅より徒歩8分,,,
ぷれいらんど373 岸和田店,岸和田市春木若松町21-1ラ･パーク岸和田内 キスパショッピングセンター専門店街 2F,南海本線 春木駅より徒歩5分,,,
星狩物語 岸和田店,岸和田市作才町1丁目3-2,南海本線 岸和田駅より徒歩15分JR阪和線 東岸和田駅より徒歩20分南海ウイングバス南部 岸和田警察署前停留所より徒歩2分,,,
モーリーファンタジー 東岸和田店,岸和田市土生町2-32-7イオン東岸和田店 2F,JR阪和線 東岸和田駅より徒歩8分,旧:ファンタジーアイランド 東岸和田店,,
ラウンドワン 岸和田店,岸和田市八阪町2-11-1,JR阪和線 東岸和田駅･南海本線 岸和田駅より無料シャトルバス運行,,,
レインボーランド 西岸和田店,岸和田市港緑町2-1岸和田カンカンベイサイドモールEAST館内 イズミヤ西岸和田店 3F,南海本線 岸和田駅より徒歩15分,,,
なわてボウル ゲームコーナー,四條畷市美田町1-39なわてボウル内,京阪バス 国道中野停留所より徒歩1分JR学研都市線(片町線) 四条畷駅･忍ヶ丘駅より徒歩25分,西澤興産株式会社運営,,
楽市楽座 イオンモール四條畷店,四條畷市砂4-3-2イオンモール四條畷 3F,JR学研都市線 忍ヶ丘・四条畷駅京阪本線 寝屋川市駅よりバス運行,電子マネー利用可能(機種による),,
モーリーファンタジー 四條畷店,四條畷市砂4-3-2イオンモール四條畷内 イオンスタイル四條畷店 3F,,,,
ENTERTAINMENT FIELD ららぽーとEXPOCITY店,吹田市千里万博公園2-1ららぽーとEXPOCITY 3F,大阪モノレール線 万博記念公園駅より徒歩5分,電子マネー利用可能(機種による),,
GAME PLAZA GOLDLUSH,吹田市岸部北5-11-1びっくりドンキー千里店 1F,,株式会社サンパーク運営,,
チャレンジャー ガムガム,吹田市岸部南1-24-9,JR京都線 岸辺駅より南西へ徒歩5分,,,
フタバボウル 関大前店,吹田市千里山東1-7-18,阪急千里線 関大前駅より徒歩3分,,,
モーリーファンタジー 北千里店,吹田市古江台4-2-50イオン北千里店 5F,阪急千里線 北千里駅より徒歩4分,旧:ダイナレックス 北千里店,,
モーリーファンタジー 吹田店,吹田市朝日町2-101イオン吹田店 4F,JR京都線 吹田駅より徒歩3分,旧:らんらんらんど 吹田店,,
モーリーファンタジー 南千里店,吹田市千里山西6-56-1イオン南千里店 4F,阪急千里線 南千里駅より徒歩18分,旧:ファンタジーアイランド 南千里店,,
レインボーランド 千里丘店,吹田市山田南1-1イズミヤ千里丘店 2F,JR京都線 千里丘駅より徒歩28分,,,
STRiKESストライクス,泉南市馬場778泉南ショッピングセンター 3F,JR阪和線 和泉砂川駅より徒歩15分,辻野開発株式会社,,
SOYU ROCKET DRIVE 泉南店,泉南市りんくう南浜3-1イオンモールりんくう泉南 2F,南海ウイングバス南部 イオンモールりんくう泉南停留所すぐ南海本線 岡田浦駅/樽井駅より徒歩20分,,,
モーリーファンタジー りんくう泉南店,泉南市りんくう南浜3-12イオンモールりんくう泉南内 イオンりんくう泉南店 2F,,,,
タイトーFステーション 住道店,大東市赤井1-3-3ポップタウンオペラパーク住道 南館 3F,JR学研都市線 住道駅より徒歩7分,株式会社アスモ運営旧：あそびの広場 新住道店,,
レインボーランド 大東店,大東市住道2-1-103イズミヤ大東店 4F,JR学研都市線 住道駅より徒歩2分,,,
レインボーワールド 住道店,大東市赤井1-13-1ポップタウン住道 1番館 3F,JR学研都市線 住道駅より徒歩7分,2016/07上旬オープン予定旧:遊'sランド 住道店,,
アドアーズ 高槻店,高槻市大畑町27-6アドアーズ高槻ビル 1F,JR京都線 摂津富田駅より12分,,,
アミューズメントワン ドン･キホーテ高槻店,高槻市辻子3-6-3ドン･キホーテ高槻店,京阪バス 辻子停留所より徒歩2分,,,
モーリーファンタジー 摂津富田店,高槻市大畑町13-1ダイエー摂津富田店 2F,JR京都線 摂津富田駅より徒歩5分阪急京都線 富田駅より徒歩10分,旧:らんらんらんど 摂津富田店,,
モーリーファンタジー 高槻店,高槻市萩之庄3-47-2イオン高槻店 3F,阪急京都線 水無瀬駅・JR京都線 島本駅よりシャトルバス運行高槻市営バス 萩之庄南停留所/国道梶原停留所より3分,旧:モーリーファンタジー ジャスコ高槻店,,
ラウンドワンスタジアム 高槻店,高槻市辻子3-6-4,JR京都線 高槻駅/阪急京都線 高槻市駅より無料シャトルバス運行京阪バス 辻子/南辻子停留所より徒歩3分,,,
アミューズメントスポット VEGA,豊中市庄内西町3-1-5サンパティオ 3F,阪急宝塚線 庄内駅より徒歩1分,,,
セガ 新三国アルゴ7,豊中市神州町1-15アルゴセブン 2F,阪急宝塚線 三国駅より徒歩10分,,,
ラウンドワン 豊中店,豊中市名神口1-1-1,地下鉄御堂筋線/北大阪急行線 江坂駅より無料シャトルバス運行阪急宝塚線 服部天神駅より徒歩25分,,,
らんらんらんど 曽根店,豊中市曽根東町3-3-1ダイエー曽根店 6F,阪急宝塚線 曽根駅より徒歩1分,,,
ジョイシティ 富田林店,富田林市若松町西3-1560MEGAドン･キホーテ富田林店 1F,近鉄長野線 富田林駅より徒歩15分駐車料金終日無料(146台),株式会社アドバンスウイング運営,,
モーリーファンタジー 金剛東店,富田林市向陽台3-1-1エコールロゼ内 イオン金剛東店 4F,"南海バス/近鉄バス 中央センター前停留所より徒歩2分駐車料金終日無料(1,200台)",旧:ファンタジーアイランド 金剛東店,,
コスミックプラザABC,寝屋川市早子町18-14,京阪本線 寝屋川市駅より徒歩5分,,,
モンキートリック,寝屋川市香里南之町32-5YNレジデンス香里 2F,京阪本線 香里園駅より徒歩3分,2014年3月より2階に移転し再開,,
セガ ビバモール寝屋川,寝屋川市寝屋南2-22-2ビバモール寝屋川 モール棟 2F,"JR学研都市線 星田駅より徒歩20分京阪バス ビバモール寝屋川停留所より徒歩1分駐車料金終日無料(2,500台)",,,
YAZ 寝屋川店,寝屋川市石津中町25-26,京阪バス 石津停留所より徒歩9分京阪本線 香里園駅より徒歩25分駐車料金終日無料,,,
レインボーランド 寝屋川店,寝屋川市早子町23-1-104イズミヤ寝屋川店 5F,京阪本線 寝屋川市駅より徒歩3分提携駐車場駐車料金有料,,,
レインボーランド 東寝屋川店,寝屋川市打上元町16-3イズミヤ東寝屋川店 4F,JR学研都市線 東寝屋川駅より徒歩3分駐車料金無料(321台),,,
わくわくアミーゴ オークワ尾崎店,阪南市下出167-1オークワわくわくCITY尾崎店 2F,南海本線 尾崎駅より徒歩8分駐車料金無料,,,
アミューズメントパークTAKAIDA,東大阪市川俣1-1-41,JRおおさか東線 高井田中央駅地下鉄中央線 高井田駅より徒歩3分,2Fと5Fの一角のみ,,
AGスクエア フレスポ東大阪,東大阪市稲田新町3-9-64フレスポ東大阪 2F,"近鉄バス 稲田車庫前停留所より徒歩3分学研都市線 徳庵駅より徒歩20分駐車料金終日無料(1,300台)",旧:セガワールド フレスポ東大阪,,
X-BOWL,東大阪市稲田新町3-10-18SUPER COSMO SPACE＆AREA 6F,近鉄バス 稲田車庫前停留所より徒歩5分JR学研都市線 徳庵駅より徒歩18分駐車料金終日無料(800台収容),アライ興産株式会社運営元:株式会社タイトー運営,,
エンジョイパラダイス,東大阪市長栄寺7-3パーラーメトロ永和駅前店 2F,近鉄奈良線 河内永和駅より徒歩2分駐車料金無料(40台収容),株式会社ユティル運営,,
ジョイシティ 石切店,東大阪市西石切町7-3-46ドン･キホーテ パウ石切店 2F,近鉄けいはんな線 新石切駅より徒歩7分,株式会社アドバンスウイング運営旧:ドリームワン 石切店,,
セガワールド 布施,東大阪市長堂1-1-1ロンモール布施 1F～2F,近鉄大阪線/近鉄奈良線 布施駅より徒歩1分,,,
モーリーファンタジー 東大阪店,東大阪市荒本北2-3-22イオン東大阪店 1F,"近鉄けいはんな線 荒本駅より徒歩5分駐車料金有料(1,200台収容)",旧:ポップンパーク 東大阪店,,
ラウンドワン 東大阪店,東大阪市若江南町1-2-12,近鉄大阪線 長瀬駅より無料シャトルバス運行近鉄奈良線 若江岩田駅より徒歩20分駐車料金無料(164台収容),,,
レインボーランド 若江岩田店,東大阪市瓜生道1-10-52イズミヤ若江岩田店 4F,近鉄奈良線 若江岩田駅より徒歩15分駐車料金無料(520台収容),,,
わいわいランド 東大阪店,東大阪市吉田下島1-1イトーヨーカドー東大阪店 2F,"近鉄バス 吉田下島停留所より徒歩1分近鉄奈良線 河内花園駅より徒歩25分近鉄けいはんな線 吉田駅より徒歩25分駐車料金無料(1,500台収容)",株式会社友栄運営,,
！Exclamation,枚方市高野道1-20-10フォレオひらかた 2F,,株式会社エグゼ運営,,
セガ ニトリモール枚方,枚方市北山1-2-1ニトリモール枚方 2F,"京阪バス 国道田近・国道招提停留所より徒歩3分駐車料金終日無料(1,800台)",,,
セガワールド 枚方,枚方市須山町83-1サンシャインプラザ枚方内,京阪バス 総合スポーツセンター停留所より徒歩15分京阪交野線 星ヶ丘駅より徒歩40分駐車料金終日無料,,,
namco くずはモール店,枚方市楠葉花園町10-85くずはモール南館 2F,"京阪本線 樟葉駅より徒歩3分駐車料金有料(約3,000台)",,,
モーリーファンタジー 枚方店,枚方市岡本町7-1-203ビオルネ内 イオン枚方店 4F,京阪本線･交野線 枚方市駅より徒歩3分駐車料金有料(750台),,,
ラウンドワンスタジアム 枚方店,枚方市高野道1-20-20,京阪本線 枚方市駅･樟葉駅より無料シャトルバス運行京阪バス 高野道停留所/国道田近停留所より徒歩10分駐車料金無料(340台),,,
クラブセガ 藤井寺,藤井寺市沢田1-20-8,近鉄南大阪線 土師の里駅より徒歩15分近鉄南大阪線 藤井寺駅より徒歩25分駐車料金無料,,,
ゲームフェイス 松原店,松原市大堀1-1-9ボウルアロー松原店 1F,近鉄南大阪線 恵我ノ荘駅より徒歩25分駐車料金終日無料(360台),旧:セイタイトー ビッグアロー,,
プレイランド 松原中央店,松原市田井城1-1―1カナートモール松原 2F,近鉄南大阪線 高見ノ里駅より徒歩10分近鉄南大阪線 河内松原駅より徒歩15分駐車料金有料(164台収容),株式会社カンソー運営,,
Bb 箕面船場店,箕面市船場東3-13-11ビーバーワールド箕面船場 1F～RF,阪急千里線 北千里駅/北大阪急行線 千里中央駅より無料シャトルバス運行駐車料金有料(400台),108円/15分の時間制,,
ナムコランド みのおキューズモール店,箕面市西宿1-17-22みのおキューズモールEAST 3F,"北大阪急行線/大阪モノレール線 千里中央駅より直通シャトルバス運行(往復おとな:220円･往復こども:110円)阪急バス かやの中央停留所より徒歩5分駐車料金有料(2,180台)",旧:ナムコランド 箕面店,,
namco イオンモール大日店,守口市大日東町1番18号イオンモール大日 4F,"地下鉄谷町線/大阪モノレール線 大日駅より徒歩2分駐車料金有料(2,274台)",旧:ナムコランド イオンモール大日店旧旧:プラボ パラダイスガーデン店,,
モーリーファンタジー 大日店,守口市大日東町1-18イオンモール大日内 イオン大日店 3F,,,,
FREEDOM 大日店,守口市八雲東町1-21-18ドン･キホーテ大日店 1F,地下鉄谷町線/大阪モノレール線 大日駅より徒歩7分駐車料金有料(74台),,,
ラウンドワン 守口店,守口市佐太東町2-6-14ジャガーグリーン 2F,"地下鉄谷町線 大日駅/大阪モノレール線 大日駅･門真市駅京阪本線 門真市駅･守口市駅より無料シャトルバス運行地下鉄谷町線/大阪モノレール線 大日駅より徒歩22分駐車料金終日無料(1,200台)",,,
ゲームフェイス 八尾店,八尾市天王寺屋2-68ボウルアロー八尾店 1F,JR大和路線 志紀駅より徒歩12分駐車料金終日無料,旧:コスミックアロー,,
タイトーステーション アリオ八尾店,八尾市光町2-3アリオ八尾内 アリオモール 3F,"近鉄大阪線 近鉄八尾駅より徒歩8分駐車料金有料(2,500台)",電子マネー利用可能店br()旧:ラクガキ王国 in アリオ八尾,,
ピカキッズ 八尾店,八尾市光町2-3アリオ八尾内 イトーヨーカドー八尾店 3F,,,,
リトルパーク 八尾店,八尾市東本町4-2-50ゲオ八尾店 1F,近鉄大阪線 近鉄八尾駅より徒歩12分駐車料金有料(100台),2015年6月14日以降ゲーム機大量撤去中,,
レインボーランド 八尾店,八尾市沼1-1イズミヤスーパセンター八尾店 1F,"近鉄バス 沼一丁目東停留所より徒歩2分駐車料金終日無料(1,200台)",,,
アルゴ,神戸市中央区下山手通1-1-8,阪急三宮駅下車徒歩5分,,,
MSワールド三宮店,神戸市中央区三宮町2-11-1センタープラザ西館2F,JR三宮下車徒歩5分元町駅下車徒歩5分,2013年6月オープン　バンプレ景品が充実しているとるナビ掲載ページ,,
MSワールド三宮店02,神戸市中央区三宮町2-11-1センタープラザ西館2F,JR三宮下車徒歩5分元町駅下車徒歩5分,,,
ゲームミリオン,神戸市中央区三宮町1-7-16,JR三ノ宮駅下車徒歩5分,,,
三ノ宮サンクス,神戸市中央区琴ノ緒町5-4-5高架下404～407,JR三ノ宮駅下車東へ徒歩1分,紛れもなくセガエンタテインメントです,,
セガ神戸umieサウスモール,神戸市中央区東川崎町1-6-1umie SOUTH MALL内,JR神戸駅下車徒歩5分,,,
セガ神戸umieモザイク,神戸市中央区東川崎町1-6-1umie モザイク内,JR神戸駅下車徒歩5分,2014年4月18日開店,,
タイトーFステーション 三宮西館店,神戸市中央区三宮町2-11-1センタープラザ西館3F-17,JR元町駅下車徒歩7分,2015年7月28日開店,,
タイトーＦステーション HAT神戸店,神戸市中央区脇浜海岸通2-2-2ブルメールHAT神戸2F,阪神本線 岩屋駅・春日野道駅下車徒歩8分JR神戸線 灘駅下車徒歩10分,旧：T/SブルメールHAT神戸店旧：ラクガキ王国inHAT神戸,,
namco三宮店,神戸市中央区北長狭通1-1-1,阪急三宮駅高架下徒歩1分,本館：旧：ナムコランド三宮店。メダル・大型筐体が中心2号館：ビデオゲーム・プリクラ中心2号館は旧：プレイランドOS三宮店,,
遊スペース マジカル,神戸市中央区琴ノ緒町5-2-3,JR三ノ宮駅下車徒歩1分,三宮近辺では一番ゲーセンっぽいゲーセン2015年7月18日リニューアルオープン建屋の裏側に専用階段あり,,
ROUND 1 三宮駅前店,神戸市中央区小野柄通6-1-17,JR三ノ宮駅下車徒歩5分,,,
メトロプレイランド ZOO,神戸市兵庫区新開地3-3B-1-13,神戸高速鉄道新開地駅、高速神戸駅下車それぞれ徒歩5分,地下街にあり,,
ROUND 1 新開地店,神戸市兵庫区新開地2-3-4,神戸高速鉄道新開地駅下車徒歩1分,,,
らんらんらんど湊川店,神戸市兵庫区荒田町2-18-20ダイエー湊川店3F,,,,
セガフェニックスプラザ摩耶,神戸市灘区味泥6-1フェニックスプラザ1F,阪神西灘駅下車南東へ徒歩7分,2014/4/24開店,,
らんらんらんど板宿店,神戸市須磨区前池町3-2-1ダイエー板宿店4F,,,,
らんらんらんど名谷店,神戸市須磨区中落合2-2-2ダイエー名谷店3F,,,,
アミパラ垂水店,神戸市垂水区名谷町1400-18,第二神明道路北線 学園南ICより約1.5km垂水警察署を東へ5分,,,
らんらんらんど舞子店,神戸市垂水区舞子台6-20-17ダイエー舞子店2F,,,,
モーリーファンタジージェームス山店,神戸市垂水区青山台7-7-1イオンジェームス山店1F,,,,
遊スペース アローズ,神戸市西区丸塚2-81-1メガパレス内,第二神明道路 玉津ICより国道175号線を南へ約700m,,,
らんらんらんど西神中央店,神戸市西区糀台5-3-4ダイエー西神中央店3F,,,,
楽市楽座イオンモ－ル神戸北店,神戸市北区上津台8-1イオンモ－ル神戸北3F,中国道 神戸三田ICより車で5分,旧：アーバンスクエア イオンモ－ル神戸北店,,
モーリーファンタジー神戸北店,神戸市北区上津台8-1イオンモ－ル神戸北3F,中国道 神戸三田ICより車で5分,イオン棟の中です,,
らんらんらんど藤原台店,神戸市北区藤原台中町1-2-2ダイエー藤原台店4F,神戸電鉄 岡場駅下車徒歩5分,,,
イオン赤穂ファミリーランド,赤穂市中広字別所55-3イオン赤穂店2F,JR赤穂駅から東に徒歩15分,親テナントの名称が変わったので当然店舗名も変更,,
モーリーファンタジー和田山店,兵庫県朝来市和田山町枚田岡774イオン和田山店内2F,,旧：ジャスコ和田山店ファンタジーアイランド,,
プレイランド和田山店,朝来市和田山町枚田岡774イオン和田山店内1F,,旧：アーバンスクエア和田山店,,
ABCバッティングセンター,尼崎市西大物町12-41,阪神尼崎駅下車東へ徒歩5分,,,
ゲームプラザ カウンタック,尼崎市神田北通2-25-1,阪神尼崎駅下車北へすぐ,,,
セガ あまがさきキューズモール,尼崎市潮江1-3-1あまがさきキューズモール4F,JR尼崎駅下車徒歩約1分,旧：セガワールドCOCOEあまがさき,,
セガつかしん,尼崎市塚口本町4-8-1つかしん内 にしまち2F,阪急稲野駅下車徒歩5分JR猪名寺駅下車徒歩10分,2012年10月営業再開。旧：セガワールドつかしん,,
T/S 尼崎つかしん店,尼崎市塚口本町4-8-1つかしん内 ひがしまち北館3F,同上,旧：ラクガキ王国inつかしん,,
ROUND 1 尼崎店,尼崎市西難波町4-5-25,阪神出屋敷駅下車徒歩5分,,,
ROUND 1 JR尼崎駅前店,尼崎市潮江1-4-5プラストいきいき館4階,JR尼崎駅下車徒歩1分,,,
らんらんらんど塚口店,尼崎市南塚口町2-1-3ダイエー塚口店B1F,阪急塚口駅下車徒歩1分,,,
モーリーファンタジー尼崎店,尼崎市次屋3-13-18イオン尼崎店1F,,,,
アルクリオ　ゲームコーナー,淡路市志筑新島10－2イオン淡路店（専門店街アルクリオ）3F,,,,
テクモピアフォーレ伊丹店,伊丹市藤ノ木1-1-1イオンモール伊丹3F,JR伊丹駅下車徒歩1分,ダイヤモンドシティ時代からの愛称「テラス」が外れ、イオンモール伊丹に名称変更,,
モーリーファンタジー伊丹店,伊丹市藤ノ木1-1-1イオン伊丹3F,JR伊丹駅下車徒歩1分,旧：ファンタジーアイランド,,
エクスクラメーションR171店,伊丹市瑞穂町1-10サンクス2F,阪急伊丹駅下車徒歩20分国道171号線大鹿交差点そば,伊丹ドンキホーテの交差点向い側の本屋さん（サンクス）の二階,,
カリヨンパーク,伊丹市池尻4-1-1イオンモール伊丹昆陽4F,県道42号線(尼宝線)沿い,イオンモール伊丹と名称が似ているが、全く別の施設なので間違えないように,,
モーリーファンタジー伊丹昆陽店,伊丹市池尻4-1-1イオン伊丹昆陽3F,県道42号線(尼宝線)沿い,リンクはイオンファンタジーに張っています,,
ROUND 1 伊丹店,伊丹市昆陽7-29,国道171号沿い伊丹市役所より西へ700m,,,
アミパラ 加古川店,加古川市尾上町今福71-2ジョイパーク加古川内,国道250号線沿い,旧：K-CAT加古川店,,
加古川富士バッティングセンター,加古川市尾上町安田425,,,,
遊スペース スプラ,加古川市尾上町安田351メガコート内,山陽電鉄本線 浜の宮駅下車北に徒歩10分,,,
ROUND 1 加古川店,加古川市尾上町安田325-6,明姫幹線沿い安田交差点すぐ,,,
TFSイオン加古川店,加古川市平岡町新在家615-1イオン加古川店2F,東加古川駅が最寄,３階にも店舗あり,,
モーリーファンタジー加西北条店,加西市北条町北条308-1イオン加西北条2F,北条鉄道 北条町駅下車徒歩7分,,,
らんらんらんど川西店,川西市多田桜木1-1-1ダイエー川西店2F,能勢電鉄 鼓ヶ滝駅下車徒歩5分,,,
アミューズスペースミール,三田市対中町5－21,神戸電鉄三田線三田本町駅下車徒歩5分,バッティングセンター併設,,
ハローズガーデン 三田店,三田市けやき台1-6-4イオン三田ウッディタウン2番街,神戸電鉄公園都市線ウッディタウン中央駅下車徒歩3分,,,
ドライブインながさわ　山崎,宍粟市山崎町木の谷字山本4－1,,少しの遊具とUFOキャッチャー類のみ,,
ROUND 1 宝塚店,宝塚市栄町1-14-3,JR・阪急宝塚駅下車徒歩7分国道176号線沿い,,,
らんらんらんど宝塚中山店,宝塚市売布東の町21-22ダイエー宝塚中山店2F,阪急中山駅下車徒歩5分,,,
らんらんらんど竜野店,たつの市龍野町堂本字五反田250-1ダイエー竜野店3F,,,,
宝島 氷上店,丹波市氷上町本郷300番地ゆめタウン氷上2F,北近畿豊岡道氷上ICすぐ,,,
ヒカミスカイボウル,丹波市氷上町横田735,,種類が少ないらしいので初めて行く人は期待して行かない方が良い,,
namco豊岡店,兵庫県豊岡市中陰617 3F,JR豊岡駅下車徒歩20分,旧：プラボ豊岡店,,
ジョイプラザ豊岡店,豊岡市加広町7-32コープデイズ豊岡内2F,JR豊岡駅下車徒歩10分,ジョイプラザ豊岡はRRBではない,,
アイティキッズ・パーク,兵庫県豊岡市大手町4-5アイティ内4F,豊岡駅下車徒歩3分,,,
アミューズメントスペース タカラヤ,兵庫県豊岡市城崎町湯島395,JR城崎温泉駅下車徒歩10分御所の湯のななめ前,まぎれもない8号営業の店舗です。一般客も可,,
ゲームプラザ王冠,西宮市今在家町3-16,阪神西宮駅下車南へ徒歩1分,,,
セガららぽーと甲子園,西宮市甲子園8番町1番地100,阪神甲子園駅下車 南へ徒歩5分阪神甲子園球場横のららぽーと甲子園2F,旧：SWソニックタウンららぽーと甲子園タイトーステーションではありません,,
タロフォフォ,西宮市田中町5-21TSビル,阪神西宮駅下車西口より西へ徒歩2分,,,
プレイステーションネーブル西宮店,西宮市両度町6-10両度ビル1F,阪急西宮北口駅下車南西へ徒歩5分JR西ノ宮駅下車北東へ徒歩10分山手幹線沿い,,,
らんらんらんど西宮店,西宮市林田町2-24ダイエー西宮店B1F/2F,,,,
G-pala姫路,姫路市飾磨区加茂字釜池203-1,姫路バイパス中地ランプより南に車で5分,一部24時間営業ここはゲームアイビス飾磨店のあったところです。,,
遊楽舎　姫路花田店,兵庫県姫路市花田町上原田2-1ブックワン２Ｆ,R372「花田」交差点付近,ブックワン２F,,
ゲームスタジオジーフラット姫路駅前店(2号店),姫路市東駅前町59,姫路駅からパステルおみぞ商店街内に入って徒歩2分,UFOキャッチャー中心旧：ビッグジョイ,,
クラブセガ姫路OS,姫路市駅前町254姫路OSビルB1F,,開店当初から「姫路OS」です。,,
ザ･モール姫路店,姫路市今宿2017-1,,,,
山陽マルナカ広畑店,姫路市広畑区吾妻町29-3,,,,
セガワールド花北,姫路市増位新町1-6ヴィーナスシティ花北2F,JR播但線野里駅すぐ,,,
姫路セントラルパーク サイバーステーション,姫路市豊富町神谷1436-1,,,,
広畑富士バッティングセンター,姫路市広畑巳長町1－1,,,,
プリッズ姫路店,姫路市飾磨区細江520姫路リバーシティSC2F,山陽電鉄 飾磨駅下車徒歩10分,,,
まんがの広場キャンプ,姫路市西今宿3-9-17,JR播磨高岡駅前,,,
ぷらっとらんど姫路店,兵庫県姫路市延末435-3　イオンタウン姫路,JR、山陽姫路駅下車後徒歩10分イオンタウン姫路店2F,,,
ゲームアイビス太子店,揖保郡太子町太田2149,国道179号線沿い,"1F:UFOキャッチャー,レースゲーム等2F:アーケードゲーム,カードゲーム中心3F:メダルゲーム",,
モーリーファンタジー猪名川店,川辺郡猪名川町白金2-1イオンモール猪名川3F,,イオン棟の中です,,
アミューズメントCUE奈良三条店,奈良市三条町478-1,JR奈良駅下車徒歩5分,,,
アメイジングワールド,奈良市二条大路南1-3-1イトーヨーカドー奈良店5F,近鉄新大宮駅より徒歩約13分,キッズ向け中心,,
ぷらっとらんどイオン富雄,奈良市富雄元町2-6-1イオン富雄店2F,,キッズ向け中心,,
キッズサーカス奈良柏木店,奈良市柏木町456-1奈良パワーシティー1F,国道24号線 柏木交差点すぐ奈良パワーシティ ショッピングセンター内,,,
アミューズメントCUE大和高田店,大和高田市東中2-11-16,,,,
モーリーファンタジー大和高田店,大和高田市幸町3番地6オークタウン大和高田5F,,,,
ハローズガーデン 大和郡山店,大和郡山市田中町宮西517アピタ大和郡山店2F,,,,
ブック245,大和郡山市横田町75-1,近鉄筒井駅から徒歩40分,24H営業の古本屋とゲームセンターが合体した店舗国道24号線と国道25号線が交わる交差点沿いのニュー北京の建物の地下1階にある,,
楽市楽座 イオンモール大和郡山店,大和郡山市下三橋741-333イオンモール大和郡山3F,JR・近鉄郡山駅よりバス,専門店棟の中です,,
モーリーファンタジー大和郡山店,大和郡山市下三橋741-333イオンモール大和郡山3F,JR・近鉄郡山駅よりバス,イオン棟の中です,,
ゲームフェイス奈良健康ランド店,天理市嘉幡600-1,R24沿い。JR・近鉄天理駅、近鉄平端駅、JR郡山駅より無料送迎バスあり,入場は入館料（1620円）要今回よりOPであるフェイスにリンクを張っています。旧タイトーOP。,,
モーリーファンタジー天理店,天理市東井戸堂町381　ザ・ビッグエクストラ天理店,JR・近鉄天理駅徒歩15分,旧：ファンタジーアイランド…,,
アミパラ橿原店,奈良県橿原市十市町1222-1 ツインゲート橿原1F,,旧Ｋ－ＣＡＴツインゲート店,,
ソユーミクロガーデン,橿原市曲川町7丁目20-1イオンモール橿原3F,JR金橋駅より徒歩約10分だが高田市（×高田）駅から路線バスもあり,×イオンモール橿原アルル専門店棟の中です,,
モーリーファンタジー橿原店,橿原市曲川町7-20-1　イオンモール橿原2F,同上,旧：ファンタジーアイランド…イオン棟の中です,,
香具山ブックリ,奈良県橿原市南浦町910,近鉄畝傍御陵前駅から徒歩40分,24H営業ブック245の姉妹店だが麻雀格闘倶楽部やスロットのみ,,
モーリーファンタジー桜井店,桜井市上之庄278-1イオン桜井店2F,,,,
ファインワールド五條,五條市今井2-150イオン五條店2F,JR和歌山線 五條駅,,,
楽市楽座イオンモール奈良登美ヶ丘店,生駒市鹿畑町2501-1イオンモール奈良登美ヶ丘3F,近鉄けいはんな線学研奈良登美ヶ丘駅下車すぐ,旧：楽市楽座イオン奈良登美ヶ丘SC店、～イオン奈良登美ヶ丘SC店ほとんどメダル・プライズ,,
モーリーファンタジー登美ヶ丘店,生駒市鹿畑町2501-1イオンモール奈良登美ヶ丘2F,近鉄けいはんな線学研奈良登美ヶ丘駅下車すぐ,イオン棟の中です,,
アスパワールド,生駒市辻町480-1,阪奈道路沿い,旧：SW阪奈スポーツガーデンセガを引き継いで営業2015/1/16 改装の為休業(7月20日現在まだ改装中の模様),,
エムボウル,宇陀市榛原下井足49-1オークワサンクシティ3F,近鉄大阪線 榛原駅,,,
アピタ西大和店ゲームコーナー,北葛城郡上牧町大字上牧3000-1,,,,
レインボーランド広陵,北葛城郡広陵町安部450-1イズミヤ広陵店内,,,,
てんとう虫パーク 和歌山インター店,和歌山市松島348てんとう虫パーク和歌山店内 2F,国道24号線沿い和歌山インターから車で5分,旧：インターボウル100円15分系,,
ピタゴラス,和歌山市土入73-1,国道26号線延時交差点 和歌山バス「延時」徒歩1分,,,
プレイランドサーカス 太田店,和歌山市太田372-1,JR阪和線和歌山駅から徒歩4分ほど,元 駅裏ブックワン(現在はゲーセンのみ),,
プレイランドサーカス 松江店,和歌山市松江北1-3-13,南海加太線松江駅から徒歩3分ほど,,,
パームシティ和歌山ナムコランド,和歌山市中野31-1パームシティ和歌山店2F,,,,
ゲームランド BALLY,和歌山市毛見1527和歌山マリーナシティ内,JR海南駅からバスで15分南海和歌山市・JR和歌山駅よりバスで約1時間,旧：モンテカルロ（セガ系）ポルトヨーロッパの外にある為、入場料不要（＝園内から入場不可）,,
ラウンドワンスタジアム 和歌山店,和歌山市小雑賀739-3,県道和歌山海南線国体道路沿い,,,
ユーズランド 和歌山店,和歌山市中字楠谷573イオンモール和歌山 2F,和歌山大学前駅,2014年3月開店,,
モーリーファンタジー 和歌山店,和歌山市中字楠谷573イオンモール和歌山 1F,和歌山大学前駅,2014年3月開店,,
TFS セントラルシティ和歌山店,和歌山市小雑貨805-1セントラルシティ和歌山店 1F,和歌山バス「和田川橋」下車徒歩約1分,2014年9月開店株式会社アスモ運営,,
レトロゲームミュージアム「@Mu's(あっとみゅーず)」,和歌山市松島348てんとう虫パーク和歌山店内 1F,国道24号線沿い和歌山インターから車で5分,2016年2月開店,,
紀の川ボウル,岩出市西国分656-1,R24沿い,,,
トークランドボウル,有田市箕島51,JR箕島駅下車徒歩約8分,,,
プレイランド ドレミ,有田市新堂字弁天10-3オークワ箕島店内2F,JR箕島駅下車徒歩約5分,,,
ジョイパーク海南,海南市築地1番1シーサイド海南スーパーセンターオークワ海南店内,JR海南駅から徒歩10分海南インターから5分,株式会社アスモ運営,,
パロ 橋本彩の台,橋本市あやの台1-50-2オー・ストリート彩の台内,南海線林間田園都市駅よりあやの台行バス15分,,,
TFS オークワロマンシティ御坊店,御坊市湯川町財部631-2オークワロマンシティ内3F,,旧：ハロータイトー御坊直営からFCへ移行株式会社フエゴ運営,,
BIG-ONE,田辺市東山2-31-22,県道31号橋谷交差点そば,ローソン向かい,,
プリッズ田辺店,田辺市稲成町新江原3165パビリオンシティ田辺店C館2F,国道42号バイパス稲成ランプそば,,,
らんらんらんど田辺店,田辺市宝来町24-26グルメシティ田辺SC店1F・3F,,,,
TFS オークワ南紀店,新宮市佐野3-11-19スーパーセンターオークワ南紀店内,紀伊佐野駅が近いが新宮駅からバスも可,旧：S/T南紀直営からFC店舗へ移行株式会社バリーボンド運営,,
モーリーファンタジー新宮店,新宮市橋本2-14-23()イオン新宮SC2F,新宮駅からバス,,,
オートスナック由良苑 吉備店,有田郡有田川町大字明王寺148,JR藤並駅下車徒歩約15分国道42号沿い,ビデオゲームは麻雀系のみ半分ぐらいの筐体が稼動していない,,
あそびの広場 ピエロ,有田郡湯浅町大字湯浅1852-1オークワ湯浅店内2F,JR湯浅駅下車徒歩20分国道42号沿い,20時まで営業,,
アミパラ鳥取店,鳥取市南隈173-1イオンモール鳥取北別棟,,,,
アミューズメントTOP,鳥取市栄町718-3,,,,
アミューズサルビア,鳥取市富安1-21,鳥取駅よりダイエー側へ徒歩15分26号線沿い,,,
メカランドサルビア,鳥取市秋里271-2,国道9号沿い､南隈交差点を東へ,,,
セガ鳥取,鳥取市安長(字河原口)416,県道318号沿い､八千代橋の近く鳥取駅からバスでも可,旧：セガワールド鳥取,,
モーリーファンタジー鳥取店,鳥取市天神町1イオン鳥取店2F,,旧：ファンタジー…イオン棟の中です,,
モーリーファンタジー鳥取北店,鳥取市晩稲100番1イオン鳥取北店2F,,旧：ファンタジー…イオン棟の中です,,
てんまやパーク,米子市西福原2丁目1番10号,,,,
セガワールド米子,米子市両三柳(字忠次郎南)2778-2,境港方面R431号左側,,,
モーリーファンタジー米子駅前店,米子市末広町311イオン米子駅前店3F,,旧：ダイナレックスイオン米子駅前3F,,
モーリーファンタジーホープタウン店,米子市米原2-1-1ホープタウン3F,,旧：ダイナレックス…,,
スーパーヒーロー倉吉,倉吉市見日町633,バス・西倉吉方面行き/厚生病院前下車徒歩3分,道路隔てて斜め向かい側にスーパーヒーロー２がある倉吉市見日町589の辺り裏の遊歩道は国鉄の跡。,,
パロ 境港店,境港市竹内団地81番地3,JR境線高松町駅より徒歩18分 PLANT-5北隣り,,,
ニューラッキースタジオ,東伯郡三朝町大字三朝,,,,
泉娯楽場,東伯郡三朝町大字三朝923-3,,,,
アミューズメントUFO,東伯郡琴浦町徳万443,,パチンコ屋です,,
アミパラ米子店,西伯郡日吉津村大字日吉津1319-1イオンモール日吉津西館1F,米子ICから5分米子駅からバスも可,専門棟の中です。,,
モーリーファンタジー日吉津店,西伯郡日吉津村日吉津1160-1イオン日吉津店2F,,旧：イオンファンタジ－…イオン棟の中です。,,
オートパーラーやすぎ,安来市西荒島町33,JR荒島駅徒歩15分国道9号線沿いバスも可,全席喫煙可　休憩スペースあり昔から8号です。,,
わくわくランド,松江市黒田町字下ノ原427松江タウンスクエアキャスパル2F,,旧：アピアランド,,
セガ松江,松江市嫁島町12-15,JR乃木駅より徒歩10分松江市営バスも可,旧：セガワールド松江,,
VIVACE松江店,松江市東朝日町203-1,JR松江駅より徒歩14分,旧：AGスクエア松江OPは変わっていません。,,
モーリーファンタジー・ｆ松江店,松江市東朝日町151イオン松江店3F,松江駅からも徒歩圏だがバスのほうが楽,旧：イオンファンタジーワールド…,,
松江センターボウル,松江市寺町99-26,松江駅徒歩7分,,,
フラワーランドルート9,松江市出雲郷470-1,,余談だが、出雲郷は「あだかえ」。,,
ラピタランド,出雲市今市町87 ラピタ2F,,,,
パラオランド,出雲市今市町259-1 パラオ3F,,,,
youme CIRCUS,出雲市大塚町650-1ゆめタウン出雲店東館3F,,,,
出雲会館センターボウル,出雲市渡橋町112,,,,
G-pala出雲,出雲市渡橋町784-1,,旧：セガワールド出雲,,
モーリーファンタジー出雲店,出雲市渡橋町1066 イオン出雲店2F,,旧：ファンタジーアイランド…,,
VIVAショッピングセンター内ゲームコーナー,出雲市平田町1708-1,,2017年7月1日リニューアルオープン,,
らんらんらんど浜田店,浜田市周布町イ61番1トライアル浜田店1F,,旧：ナムコランド,,
ピノッキースパティオ浜田店,浜田市港町227-1ゆめタウン浜田3F,,2014年6月12日オープン旧：タカラ島 浜田店,,
ロードショウ浜田,浜田市新町23,,,,
ファンタジーランド浜田店,浜田市相生町139-8シティパルク浜田3F,,,,
ゲームスポット エース,益田市乙吉町イ97-4Tom'sビル1F,益田サティより徒歩一分石見交通 日赤前仮停留所そば,,,
ピノッキーズパティオ益田店,益田市高津7-21-12イズミゆめタウン益田2Ｆ,益田駅からバス,,,
メルヘンランド,大田市長久町土江97イオン大田店,R9沿い。静間駅徒歩15分,元ナムコランド,,
らんらんらんど江津店,江津市嘉久志町2306-30江津グリーンモール内2F,JR江津駅徒歩5分,旧：グリーンランド,,
セガ イオンモール岡山,岡山市北区下石井1-2-1イオンモール岡山 6F,岡山駅東口から徒歩5分,,,
モーリーファンタジーｆ 岡山店,岡山市北区下石井1-2-1イオンモール岡山 4F,岡山駅東口から徒歩5分,,,
岡山ジョイポリス,岡山市北区下石井2-10-1,岡山駅東口から徒歩10分,,,
アミパラ岡山店,岡山市北区青江1-13-8,国道2号線バイパス・青江交差点から北へ行き赤十字病院を西へ,,,
スターダスト,岡山市北区駅前町1-7,岡山駅東口から近く,,,
アミパラ・テクノランド,岡山市北区大和町1-7-12,法界院駅から徒歩10分バスなら「大和町」下車徒歩30秒,,,
プレビ エブリイOkanaka津高店,岡山市北区横井上83-3エブリイOkanaka津高 4F,岡山IC入口そば,,,
岡山ヤングボウル,岡山市北区北長瀬表町3-3-20,北長瀬駅を南へ徒歩10分県道162号沿い,,,
岡山フェアレーン,岡山市北区清心町16-31,岡山駅から徒歩15分バスも可,アミパラではありません。2Fに設置。8号営業です,,
ドライブイン旭川,岡山市北区建部町吉田1168,国道53号線沿い,,,
ネットジャパン,岡山市北区神田町2-5-21,十日市交差点そば,上記「NET J」に改名,,
ゲームアイビス岡山店,岡山市中区高屋308-1フレスポ高屋店,国道250号線沿いホンダの向かい,18歳未満の児童のみの入店もできるようになりました,,
アミューズメントプレイス・ギミック・セガ,岡山市中区藤崎599-12,倉田交差点を南へ3キロかなり遠いが岡山からバスも可,パチンコメトロ隣,,
ふぇすたらんど平島店,岡山市東区東平島1609番地マルナカ平島店1F,,,,
ラウンドワンスタジアム岡山妹尾店,岡山市南区妹尾3413-1,国道2号線妹尾西交差点を東へ路線バスなら汗入方面「荒田」下車徒歩6分だが岡山駅から送迎バスもあり,子供だけの入場は禁止,,
ベンダーショップＶＡＮ,岡山市南区箕島953-11,児島線(県道21号)沿い、宇野線跨線橋北,ほぼパチンコ＆パチスロ,,
ゲームセンターマックス,岡山市南区藤田564-113,県道30号線沿い、黄色のコンテナっぽい建物,パチンコ＆パチスロ専門,,
こころっこ岡南店,岡山市南区築港新町1-18-5,天満屋ハピータウン岡南店3F,,,
アミパラ倉敷店,倉敷市西中新田624-1,市役所そば,アミパラボウル1階,,
セガ倉敷,倉敷市西中新田535-2,市役所そば,セガワールド倉敷から改名,,
ピノッキーランド,倉敷市笹沖1274-1サブリーナタウン,笹沖交差点そば,,,
ユーズランド倉敷店,倉敷市水江1イオンモール倉敷2階,倉敷駅より定期バス,スウィートピーランドから改名,,
モーリーファンタジー倉敷店,倉敷市水江1イオンモール倉敷1階,倉敷駅より定期バス,キッズ共和国プラス内,,
ふぇすたらんど倉敷マスカット店,倉敷市松島字羽伏1163-2マルナカ倉敷マスカット店別棟3F,中庄駅徒歩5分県道162号線沿い,,,
ふぇすたらんど中島店,倉敷市中島2780-1マルナカ中島店内,水島臨海線 西富井駅より徒歩4分,,,
ファンタジスタ,倉敷市新倉敷駅前5-194,新倉敷駅徒歩10分,50円,,
タイトーFステーション マルナカ新倉敷店,倉敷市玉島爪崎981-1マルナカ新倉敷店1F,新倉敷駅徒歩10分,旧：アミューズメントコーナー新倉敷店岡山にタイトーがFC店舗で復帰,,
玉島プレイランド,倉敷市玉島740-1,国道429号線沿い,バッティングセンター併設,,
ドライブイン古城,倉敷市福田町福田2111-1,県道274号線 観音堂交差点を倉敷市街地方面へ古城池トンネル手前,参考,,
ポップンパーク水島店,倉敷市水島高砂町3番11号マックスバリューイオンタウン水島店1F,,,,
ファンタジーアイランド児島店,倉敷市児島駅前2-35天満屋ハピータウン児島店3F,,,,
パルドスパティオ,倉敷市笹沖1274-1ゆめタウン倉敷店3F,,,,
アベスト,倉敷市連島中央2丁目1-23,連島中東交差点を北東へ,ほぼパチンコ＆パチスロ,,
ゲームセンター アマゾン,倉敷市下津井吹上303-1鷲羽山ハイランド,児島IC近く,遊園地外で入場料不要,,
ハイランドボウル,倉敷市児島赤崎1580-1,児島IC近く,,,
サンフラワーボウル,倉敷市松島1177,中庄駅徒歩10分,ゲーム機全て撤去,,
らんらんらんど新倉敷店,倉敷市玉島1962-3トライアル倉敷店,新倉敷駅徒歩15分,現存せず,,
水島リバーレーン,倉敷市鶴の浦3丁目3-9,嘉永橋を南へ,2009年3月閉鎖,,
アミパラ津山店,津山市河辺1000-1イオン津山SC 2F,中国道 津山ICを降りて正面,,,
ファンタジーアイランド津山店,津山市河辺1000-1イオン津山店 2F,イオン津山SC内,,,
ユーズボウル津山店,津山市河辺字濱田844-1,中国道 津山ICを降りてすぐ隣,,,
ドライブイン那岐,津山市坂上180-1,,所在地に無し,,
プレイランド高梁,高梁市落合町阿部1700ゆめタウン高梁,,,,
ヒルゼン高原センター・ジョイフルパーク,真庭市蒜山上福田1205-197,,園内外どちらにもあり園内は入園料要,,
トイボックス,真庭市惣170ゆめタウン久世内,,旧：ナムコランド久世店,,
アメニティ倶楽部ミレニアムゆのごうボウルトリアス,美作市湯郷312,,,,
アミューズメントパークMG リブ総社店,総社市門田187番地天満屋ハピータウン リブ総社店3F,JR総社駅より徒歩10分,旧：H/T リブ総社,,
おもちゃ王国ゲームコーナー,玉野市滝1640-1,,,,
ポップンパーク玉野店,玉野市宇野1-38-1天満屋ハピータウン玉野店3F,,,,
ピノッキーランドゆめタウン井原店,井原市下出部町2-11-2ゆめタウン井原店3F,井原鉄道 高屋駅より徒歩15分,,,
笠岡シーサイドモール,笠岡市笠岡2388,JR笠岡駅 向かい,2Fにプレイランド,,
岡山健康プラザ金光,浅口市金光町佐方21-2,,2004年3月閉鎖,,
T/S広島紙屋町店,広島市中区紙屋町2-2-21,広島電鉄 紙屋町西または本通り駅より徒歩1～2分サンモールショッピングセンター隣り,旧：ZIP,,
T/S広島本通店,広島市中区本通3-5せらかぐ本通ビル,広島電鉄 立町駅より徒歩1～2分,旧：広島GIGO,,
セガ広島本通,広島市中区本通9-30ランドマークビル1F,,,,
ROUND 1 広島店,広島市中区立町3-11,ひろしま国際ホテルとなり,,,
アミューズメントパークワールド,広島市中区八丁堀11-6パークレーン1F,,,,
ビバーチャ・スポーツ施設,広島市中区南竹屋町10-17,,,,
ビバーチャ2,広島市中区平野町10-16ヒロデンボウル1F,R2号西に南竹屋町交差点300M,,,
namcoフジグラン広島店,広島市中区宝町2-1フジグラン広島店3F,,ナムコのお店が返り咲く,,
GIGAZONE広島駅前,広島市南区松原町2-22フタバ図書広島駅前店5F,JR広島駅下車すぐ,,,
AMG広島,広島市南区元宇品23-1,,営業時間と定休日に注意,,
セガワールド宇品,広島市南区宇品西3-4,,,,
T/Sゆめタウンみゆき店,広島市南区宇品西6-7-14,広島電鉄元宇品口駅下車徒歩10分,,,
ゆめKIDSゆめタウン広島,広島市南区皆実町2-8-17ゆめタウン広島店3F,,namcoゆめタウン広島店とは別,,
namcoゆめタウン広島店,広島市南区皆実町2-8-17ゆめタウン広島店3F,,旧：NLゆめタウン広島店,,
モーリーファンタジー宇品店,広島市南区宇品東6-1-15イオン宇品店3F,,,,
アミパラ広島店,広島市西区西観音町3-3,広島電鉄西観音町電停下車すぐ平和大通り沿いで、西区区役所から東へすぐ,旧の「アミパラ2000店」は現在も違う屋号,,
沖本商会,広島市西区南観音3-15-3,,2009年で開業33年目､隣に3～4台分の駐車場有り,,
打劇王,広島市西区草津新町1-20-65西区商工センター内,,,,
ナムコランド広島アルパーク店,広島市西区草津新町2-26-1アルパーク4F,JR新井口駅下車徒歩約3分,これは旧SWアルパークの場所です,,
モーリーファンタジーアルパーク広島店,広島市西区井口明神1-16-1アルパーク天満屋4F,,,,
フタバ図書アルティランド,広島市西区草津南4-7-1アルパーク北棟2階,JR新井口駅下車徒歩4分広島電鉄商工センター入口駅下車徒歩約3分,,,
ブラックジャックアクア店,広島市安佐南区大町東4-12-11,,,,
ゲームファンタジア店,広島市安佐南区緑井6-49フィエラ・ディ・プローバ7F,広島ICそば国道54号沿い,,,
セガワールド MEGA,広島市安佐南区中筋4-11-7フタバ図書MEGA 2F,アストラムライン中筋駅下車 徒歩5分,,,
セガワールド 大町,広島市安佐南区大町東3-27-4,アストラムライン毘沙門台駅下車 徒歩5分,,,
T/Sフジグラン緑井店,広島市安佐南区緑井1-5-2フジグラン緑井店3F,JR可部線 緑井駅下車すぐ,旧：H/T広島緑井,,
フタバ図書GIGA上安店ゲームコーナー,広島市安佐南区上安2-27-2 2F,アストラムライン上安駅下車すぐ,,,
モーリーファンタジー・ｆ広島祇園店,広島市安佐南区祇園3丁目2-1イオンモール広島祇園専門店棟3F,,旧：イオンファンタジーワールド祇園店,,
モーリーファンタジー広島祇園店,広島市安佐南区祇園3丁目2-1イオンモール広島祇園専門店棟3F,,旧：ファンタジーアイランド祇園店,,
namcoフジグラン高陽店,広島市安佐北区亀崎1-1-6()フジグラン高陽店別棟,下深川駅からバス,2014年6月開店,,
サンリブ可部,広島市安佐北区可部5-11-17サンリブ可部3F,,,,
ふぇすたらんど可部店,広島市安佐北区可部7-4-13山陽マルナカ可部店2F,,,,
フタバ図書GIGA高陽店ゲームコーナー,広島市安佐北区落合南2-2-１ 2F,,,,
マックスバリュ高陽店3階ゲームコーナー,広島市安佐北区口田4-6-32,,,,
ふぇすたらんど五日市店,広島市佐伯区八幡1-24-17 サンリブ内,,,,
アズロ・スパティオ店,呉市宝町5-10 ゆめタウン呉店3F,,,,
シネパーク広店,呉市広中町1-9 フタバ図書広店2F,JR呉線 広駅下車すぐ国道185号線沿い,,,
タカラ島 広店,呉市広本町2-17-1 山陽ジャスコ広店4F,,ドリームインフィニティ中国地区唯一の店舗に,,
ピノッキースパティオ大竹店,大竹市晴海1-5-1,,旧：フエゴワールド大竹,,
namcoフジグラン三原店,三原市円一町1-1-7 フジグラン三原2階,,旧：ナムコランド三原店,,
モーリーファンタジー三原店,三原市城町2-13-1イオン三原店2F,,,,
namcoフジグラン尾道店,尾道市東尾道19番地7,,旧：フジグラン尾道店子供の国,,
セガ尾道,尾道市新浜1-2-17,,旧：キッスロード・オプト・セガ,,
モーリーファンタジー尾道店,尾道市天満町17-23イオン尾道店2F,,,,
伊勢丘クラブ,福山市伊勢丘6丁目1-17,国道2号線伊勢丘入口より北へ約1km,住宅街の中にあるボウリング場,,
福山ドーム,福山市引野町4丁目6-6,国道2号線沿い南側東福山駅口交差点から東へ約500m,バッティングセンター2Fにプライズ・パチスロ中心のゲームコーナー,,
福山バッティングセンター,福山市春日町5丁目1-9,県道379号線沿いモスバーガー隣国道182号線広尾交差点より東へ約600m,,,
珊瑚,福山市大門町4-84-6,,,,
喫茶・きゃら,福山市瀬戸町地頭分442-1,,,,
シーハイル,福山市三吉町4-1-40-102,,,,
スペースV2スポーツ館,福山市三之丸町2-6,,,,
ナムコランド福山,福山市西町1-1-1福山ロッツ4F,JR福山駅下車西へ徒歩5分,JR福山駅～福山ロッツ間に無料巡回バスあり,,
あみぱらんど,福山市三吉町南2-8-24,国道2号線沿い北側イトーヨーカドー北隣,,,
アミパラキャッスル店,福山市東深津町4-16-25福山キャッスルボウル1Ｆ,国道2号線沿い北側福山東警察署から東へ車で3分,,,
福山パークレーン,福山市南手城町4-24-20,中国バス手城小学校バス停下車徒歩4分入江大橋北側,旧：プリッズパークレーン,,
ビッグボウル福山,福山市一文字町14-5,入江大橋南側を左折福山港方面へ,旧：プリッズビッグボウル店,,
ラウンドワン福山店,福山市明神町1-9-28,JR東福山駅下車徒歩約20分中国バス・井笠鉄道バス「千間土手中」下車すぐ,,,
フタバ図書アルティ福山本店,福山市明神町1-14-20,JR東福山駅下車徒歩約17分中国バス・井笠鉄道バス「明神前」下車徒歩約2分,ゲーム機は2階にあり、24時間営業,,
セガワールド福山,福山市瀬戸町山北300番地,JR備後赤坂駅下車徒歩15分,,,
アミューズメントパークMG ZIATH,福山市柳津町1-7-60,同上,旧：セイタイトーZIATH松永福山のMGは近接して2店舗あるので注意,,
ノンノン,福山市神辺町道上十三軒屋6-3,,,,
T/Sフジグラン神辺店,福山市神辺町大字新道上字2-10-26フジグラン神辺店3F,JR福塩線 道上駅下車徒歩20分,旧：ラクガキ王国神辺店国道486号線と国道182号線角,,
アミパラ神辺店,福山市神辺町大字新道上1-2-1,同上,フジグラン神辺店向かい,,
喫茶・じゅく,府中市広谷町877-7,,,,
ファミリープラザ,三次市十日市東4-1-30三次サングリーン1F,三次駅から東へ徒歩約5分,家族向け。ビデオ筐体なし,,
ジョイランド,三次市十日市中1-1-10CCプラザ3F,三次駅から西へ徒歩約5分,家族向け。ビデオ筐体なし,,
ビートル2,三次市南畑敷町603－3,八次駅徒歩3分だが三次からバスのほうがよい?,三次駅西より移転,,
すごろく屋,庄原市板橋町字宮之脇150-1,,旧:ザ・ビッグ庄原店ナムコランド,,
BJ東広島店,東広島市西条町御薗宇6120,西条ICより車で15分375号線経由円城寺入口交差点すぐ,賀茂ボウル隣接,,
アミパラここじゃ店,東広島市西条町下見6-10-19山手電気内,広島大学前の交差点より西へすぐ,,,
ナムコランド東広島店,東広島市西条町御薗宇4405番地フジグラン東広島店内,,,,
セガワールド東広島,東広島市西条中央7-2-14,,,,
TFSゆめタウン東広島店,東広島市西条土与丸1-5-7ゆめタウン東広島4F,JR西条駅下車徒歩約10分,,,
JJCLUB100廿日市店,廿日市市串戸1-8-18 2F,,,,
スペースＶ１廿日市,廿日市市本町4-23,山陽本線廿日市駅下車2号線沿い東へ徒歩15分,,,
廿日市アミューズメントパーク,廿日市市串戸1-8-18,,,,
フジグランナタリー店ナムコランド,廿日市市阿品3-1-1フジグランナタリー店2F,,,,
ピノッキースパティオ吉田店,安芸高田市吉田町吉田594-1 ゆめタウン吉田店2F,,2014年6月開店旧：タカラ島吉田店,,
ナムコランド広島店,安芸郡府中町大須2-1-1イオンモール広島府中3F,JR天神川駅・矢賀駅下車徒歩約7分,イオンモールでは愛称を使いません。,,
モーリーファンタジー広島府中店,安芸郡府中町大須2-1-1イオンモール広島府中3F,,イオン棟の中です,,
セガ海田,安芸郡海田町南大正町3-35,,旧：SWメガ海田,,
フジグラン安芸店子供の国,安芸郡坂町北新地2-3-30フジグラン安芸2F,,,,
THE 3RD PLANET 山口店,山口市湯田温泉6丁目8番号3号,湯田温泉バス停・下湯田バス停より徒歩,湯田自動車学校近く,,
TFS山口メルクス店,山口市大字黒川82-1ハイパーモールメルクス内,,旧：T/Sメルクス店2013年5月、FC店舗へ移行,,
AGスクエア小郡店,山口市小郡前田町3-6イオンタウン小郡内,,結果的には山口にセガのお店が返り咲き。,,
メリーゴーランド大内店,山口市大内長野581ザ・ビッグ大内店2F,,,,
てくもぴあ阿知須店,山口市阿知須4825-1サンリブ阿知須店2F,,,,
アミパラ下関店,下関市長府才川1-42-48,,長府警察署南側,,
ハイテクゲームセンター Ｔ＆Ｇ,下関市秋根本町2-1-11,新下関駅新幹線口より徒歩7分,ビデオレンタルＴ＆Ｇ併設、台数は極少数。18禁,,
まんがハウスまほーどう下関店,下関市秋根本町2-7-8,JR新下関駅、県道34号沿い,入場料不要コーナーに極少数,,
ラッキーパレス新下関,下関市秋根町1-6-14,,,,
ラッキーパレス向洋,下関市後田町1-8-20,,,,
ラウンドワン下関店,下関市東大和町1-3-15,下関駅徒歩10分,,,
らんらんらんど下関店,下関市竹崎町4-4-7シーモールエスト4F,,シーモールエストは旧ダイエー棟。,,
プレイランド サーカス,下関市山の田本町15-2,,地図はいったん外しています。開店は18時から,,
GAME パフェ,下関市竹崎町4-4-8シーモール専門店街5F,,旧：セガワールドシーモール下関,,
ゲームワールドD,下関市綾羅木新町3丁目951-13Mr.MAX2F,,,,
宇部アレックス,宇部市西宇部南3丁目5−53,宇部駅徒歩6分,旧「GAME ALEX」2017年2月リニューアル,,
namcoフジグラン宇部店,宇部市明神町3-1-1フジグラン宇部店2F,宇部岬駅徒歩8分宇部新川駅からバスもあり,ボウリング場併設,,
てくもぴあ宇部店,宇部市妻崎開作411-1,,,,
パークレーン宇部,宇部市昭和町4-11-20,,,,
ユーズボウル宇部,宇部市大字妻崎開作字崎24,流山交差点そば,,,
カッタの湯,宇部市海南町1675,,,,
ドラゴンボール,周南市河東町6-43,JR徳山駅から車で5分,,,
Apuo新南陽店,周南市清水2-2-1ゆめタウン新南陽3F,,,,
ビバーチ周南,周南市古市1-4-1イオンタウン周南内,新南陽駅徒歩15分,,,
フジ新南陽店ちびっこランド,周南市政所2-2-1フジ新南陽店4F,,,,
アミュージアム周南店,下松市中央町21-3THE MALL周南食遊館3F,JR下松駅から車で10分,2016年6月リニューアル,,
ふぇすたらんど下松店,下松市南花岡6丁目8-1サンリブ下松店内,,,,
ネオ・ブラボー,防府市高倉1-3-30,防府西IC、防府東ICより車で10分、佐波1交差点すぐ,,,
プリクラキャンパス,防府市佐波2-6-16,,,,
モーリーファンタジー防府店,防府市中央町1-3イオン防府店3F,,,,
ステップ,防府市天神1丁目7-29,,商店街の中,,
ピノッキースパティオ防府店,防府市八王子2－8－8イズミゆめタウン防府3F,,,,
ピノッキースパティオ南岩国店,岩国市南岩国町1-20-30ゆめタウン南岩国店2F,,,,
フジグラン岩国店アミューズメントパーク,岩国市麻里布町2-9-8フジグラン岩国店6F,,,,
WAIWAI岩国店,岩国市南岩国1-21-12,JR南岩国駅より西へ200m,,,
ギガゾーン岩国店,岩国市室の木,国道2号沿い,,,
ナムコランドおのだサンパーク店,山陽小野田市中川6-4-1おのだサンパーク内,南中川駅が最寄ですが小野田からバスのほうが楽,NLおのだサンパーク店は一部区域が8号です。,,
namcoゆめタウン小野田店,山陽小野田市中川6-4-1ゆめタウン小野田2F,南中川駅が最寄ですが小野田からバスのほうが楽,NLおのだサンパーク店とは別です,,
アミューズトマト,萩市椿東3025-5,東萩駅から北へ徒歩12分、国道191号沿い,2013年7月1日より平日の開店時間が12:00 → 16:00に変更,,
ジョイジョイランド,萩市御許町42-1アトラス萩内,,,,
アミューズメントスペースMAC萩店,山口県萩市大字椿東3000-5萩ロイヤルインテリジェントホテル2F,東萩駅下車すぐ,,,
ユーズボウル萩,萩市大字椿河尻2291‎萩市椿2291,,,,
ふぇすたらんど萩店,萩市唐樋町2-4サンリブ萩店内,,,,
フジ長門店ちびっこランド,長門市仙崎網田322-2,長門市駅徒歩16分,,,
長門ウェーブさんさんランド,長門市東深川803-8長門コミュニティータウンウェーブ内,長門市駅徒歩5分,,,
フラーボ・スパティオ店,柳井市南町4-5-3ゆめタウン柳井2F,,,,
モーリーファンタジー光店,光市浅江字木園1756-1イオン光店2F,,,,
アミューズメントパークMG徳島店,徳島市西新浜町1-45マルナカ徳島店2F,県道29号沿い,,,
アポロゲームセンター沖洲店,徳島市南沖洲1丁目93-1,県道38号沿い,16歳未満入場不可､ケーズデンキ前参考,,
セガ徳島スエヒロボウル,徳島市南末広町4-95-2,,2014年3月開店セガワールドスエヒロとは別店舗として扱います。,,
わくわくらんどタクト店,徳島市南島田町3-55キョーエイタクト店内,県道30号沿い,,,
パレパレ田宮店,徳島市南田宮2丁目2-46遊場1F,県道30号沿い,経営会社はアポロ沖洲店の親会社,,
ラウンドワン徳島･万代店,徳島市万代町4丁目19-1,,,,
ファミリーランド,徳島市寺島本町西1-5徳島そごう9F＆屋上,JR徳島駅徒歩約2分,,,
とくしまファミリーランド,徳島市渋野町入道22番地1,,とくしま動物園に隣接する施設､ゲームコーナーは2ヶ所あり入園料は発生しない､有料駐車場(1日310円),,
ドリームフィールド,徳島市西新浜町2-62-2ドリームフィールド内,徳島駅より南へ約5キロ,メディアカフェハートランド(ネットカフェ､バッティングセンターなどの施設)内ゲームコーナー､台数ごく少数,,
パロ小松島店,小松島市小松島町字領田20ショッピングプラザルピア内,国道55号沿い,敷地内建物に隣接した店舗,,
ナムコランド鳴門店,鳴門市撫養町大桑島字濘岩浜4-1パワーシティ鳴門店別棟,,,,
プレイランド,鳴門市撫養町小桑島字前浜23キョーエイ鳴門駅前店内4F,JR鳴門駅から徒歩約2分,,,
オートレストボックス24,三好市井川町吉岡197,国道192号沿い,コインスナックゲームコーナー的な感じ､小中学生は入店不可,,
ふぇすたらんど脇町店,美馬市脇町字拝原1711-1マルナカ脇町店2F,,,,
ファンタジーランドパルシー店,美馬市脇町大字猪尻字西分116-1ショッピングコアパルシー内,,古めの店,,
アミューズメントパークMGアワーズ店,阿波市阿波町伊沢田88ショッピングプラザアワーズ内,県道12号沿い,,,
コインスナック御所24,阿波市土成町吉田字原田市の一,県道12号沿い,コインスナックゲームコーナー,,
アペックス山川,吉野川市山川町前川197-1,県道3号沿い,ダイソーと建物は同じ､道路沿い看板や地図ではキョーエイ,,
プレイランド,吉野川市鴨島町上下島92-3アクアシティ内,,,,
ジャンボ山川,吉野川市山川町川田995,国道192号沿い,セルフうどんジャンボ山川店併設､コインスナックゲームコーナー,,
アペックス上板,板野郡上板町西分字カヤノ17-1,県道14号沿い,レンタルビデオ店と併設,,
タイトーステーション フジグラン北島店,板野郡北島町鯛浜字西ノ須81-1フジグラン北島店敷地内別棟,,旧：ハロータイトー北島,,
namcoゆめタウン徳島店,板野郡藍住町奥野字東中須88-1ゆめタウン徳島2階,,,,
メジャースポーツアイズミ,板野郡藍住町奥野東中須27メジャースポーツアイズミ内,,ヤマダ電機近くのスポーツ施設内ゲームコーナー､台数ごく少数,,
ゲームコーナーラッキー,名西郡石井町浦庄上浦256-5,JR下浦駅より西へ1.8㎞､国道192号沿い,コインスナックゲームコーナー,,
ポップジョイ石井,名西郡石井町高原字中須16-1,県道30号沿い,ボウリング場内ゲームコーナー,,
namcoフジグラン石井店,名西郡石井町高川原字天神544-1フジグラン石井店2F,県道30号沿い,旧：NL石井店,,
アミュージアム高松,高松市伏石町2144-9,レインボーロード、東バイパス　伏石町交差点,2017年7月リニューアル：音ゲー多・ボウリング併設,,
ソユーゲームフィールド高松店,高松市香西本町1-1イオンモール高松2F,,旧：SOYU GOLDEN CITY高松店,,
モーリーファンタジー高松店,高松市香西本町1-1イオンモール高松3F,,,,
ROUND 1 高松店,高松市松島町2-7-43,R11沿いことでん松島二丁目駅が近いです,,,
アミューズメントパークMG レインボー店,高松市多肥下町630マルナカ2F,,,,
MG BOWL 屋島店,高松市屋島西町(百石)1912-1パワーシティー屋島 生活館3F,,,,
やしま第一健康ランド,高松市屋島西町2274-5,,,,
戦(IKUSA),高松市高松町2554-18,R11沿いことでん屋島駅徒歩5分,16歳未満の児童も入店できます,,
ナムコランド十川店,高松市十川東町55-1フジグラン十川店別棟,,,,
モーリーファンタジー高松東店,高松市福岡町3-8-5イオン高松東店3F,,旧：MF高松サティ店,,
アミューズメントパーク11,高松市浜ノ町59−10‎シーサイドボウル内,JR高松駅徒歩10分､瀬戸大橋通り沿い,,,
セガ高松,高松市勅使町字山王535,R11 勅使交差点,旧：セガワールド高松　2012年10月19日リニューアル,,
ビバラスベガス,高松市西ハゼ町(字清水)18マルナカ栗林南店2F,,,,
ゆめタウン高松店ゆめランド,高松市三条町字中所 608-1ゆめタウン高松内,R11沿い,ゆめキッズから店名変更、音ゲーが太鼓の達人のみ,,
ゲオパーク東バイパス店,高松市太田下町2481-1ゲオ東バイパス店内,,,,
ゲオパークミラクルタウン店,高松市郷東町210-1ゲオミラクルタウン店内,,,,
縁日街道　中村座,高松市上天神町中の坪536パウ高松1F,R11、R193上天神交差点,"ドン・キホーテ内AM5時まで営業,ほぼプライズ機のみ",,
スーパー銭湯あかね温泉,高松市茜町13-1,,パチスロ､クレーン機など台数は極少数,,
関西急行フェリー（株）,高松市玉藻町1-3,,？,,
ヴィラ塩江,高松市塩江町上西字小向乙688-1,,？,,
高松空港,高松市香南町岡1312番地7,,？,,
ゼムスランド,高松市香川町大野916-1ウイングポート内,,ゼムスランドとは別に2Fゲームコーナーがあり、ビデオゲーム系もそちら。1Fにも乗り物系エレメカ有,,
サーカスサーカス坂出店,坂出市江尻町1000-1坂出中央ボウル1F,県道33号沿い坂出警察署前,JR坂出駅徒歩10分,,
H/T 丸亀,丸亀市川西町南1280-1フジグラン丸亀バッハ棟2F,,,,
セガ丸亀,丸亀市蓬莱町56-1パブリックプラザ丸亀内,,2011年3月再リニューアル旧：セガワールド丸亀,,
アミパラ丸亀店,丸亀市飯野町西分584-1XYZ（ジーズ）丸亀モール内,R11バイパス飯野交差点近く丸亀コミュニティバス飯野中津線「長友団地」下車,,,
ビッグウェーブ丸亀店,丸亀市新田町150ゆめタウン丸亀店3F,丸亀コミュニティバス飯野中津線「ゆめタウン前」下車,,,
丸亀ぽかぽか温泉,丸亀市山北町400-1,,ねぎラーメン小山前､施設はあるが…,,
マックスプラザ善通寺,善通寺市中村町1798－2マックスボウル1F,R11中村交差点角,食事可能AM5時まで営業（金土日以外はAM3時まで）,,
ふぇすたらんど豊浜店,観音寺市豊浜町姫浜1158-1マルナカ豊浜店内,,,,
観音寺グランドホテル,観音寺市観音寺町甲294-1,,？,,
ビッグウェーブ三豊店,三豊市豊中町本山22ゆめタウン三豊内,,,,
ファンパラダイス,さぬき市志度1057志度ファミリーボウル内,,ボーリング場内ゲームコーナー,,
アミューズメントパークMG 志度店,さぬき市志度2431-1パルティフジ志度店別棟,,旧：セイタイトー志度,,
クアタラソさぬき津田,さぬき市津田町鶴羽24番地2,,施設はあるが設置しているかは不明,,
クアパーク津田,さぬき市津田町松原地内,,施設はあるが設置しているかは不明,,
ふぇすたらんど白鳥店,東かがわ市白鳥町白鳥字城泉144-1マルナカ白鳥店内,,,,
モーリーファンタジー宇多津店,綾歌郡宇多津町浜二番丁16-1宇多津ビブレ1F,JR宇多津駅より北へ徒歩4分浜街道沿い,旧：ダイナレックス宇多津店,,
プレイランド,綾歌郡宇多津町浜一番町8-1ゴールドタワー内,,入園料と時間(又はﾊﾟｯｸ)料金が必要大型筐体や体感ｹﾞｰﾑ､ﾋﾞﾃﾞｵｹﾞｰﾑは全てﾌﾘｰﾌﾟﾚｲで大型筐体は貴重なものもあり,,
スポーツドーム宇多津,綾歌郡宇多津町浜二番町19,,,,
アミューズメントパークMG 宇多津店,綾歌郡宇多津町2419-1マルナカ新宇多津店内,県道33号(旧国道11号)沿い松下寿電子工業跡地,09年4月26日OPEN,,
瀬戸大橋四国健康村,綾歌郡宇多津町浜一番丁6-10,,施設はあるが…,,
モーリーファンタジー綾川店,綾歌郡綾川町萱原822-1イオンモール綾川3F,国道32号沿い,,,
モーリーファンタジー・F綾川店,綾歌郡綾川町萱原822-1イオンモール綾川3F,同上,旧：ファンタジーアイランド綾川店モーリーファンタジー綾川店とは別,,
アミューズメントT3,仲多度郡まんのう町東高篠1721-1マンガ図書館ティースリー1F‎,県道200号沿い,店舗環境悪し,,
ビレッジ美合,仲多度郡まんのう町勝浦1番地,,施設はあるが…,,
ビデオショップユニバーサル,小豆郡土庄町渕崎上森田2200-3,,？,,
オリンピアゲームコーナー,小豆郡土庄町形崎,,？,,
パラダイスアイランド,小豆郡土庄町字半の池甲1360-71,,？,,
アミューズメントパーク宝島三木店,木田郡三木町大字氷上482-2マルナカ三木店2F,,,,
太洋ボウル,高松市観光通2丁目10-15,,1Fゲームコーナーに別テナント入り(2015年末頃？),,
アミパラ松山店,松山市生石町655－1,JR松山駅より南西1kmバスも可,,,
アミューズメントパークMG 朝生田店,松山市朝生田町773-1第一自動車教習所ビル1F,,,,
アミューズメントパークMG 北条店,松山市下難波御領田甲227-2マルナカ北条店内,,小さなゲームコーナー,,
駅前スタジアム3,松山市大手町2-4-1,JR松山駅より南へ徒歩1分,利用5時間迄P無料,,
ゲームインベース,松山市大街道2-3-2,,プライズ専門店駐車場なし？,,
ショコラ,松山市柳井町1-13-12マンションクレール1F,,ゲーム機を少数設置したカードゲームなども扱っている店ファンサイト駐車場については未確認,,
ショッカー,松山市湊町4-9-8 1F,市駅から銀天街入って2分,駐車場なし？,,
セガ松山,松山市枝松5-7-32,小坂交差点を東に300ｍ松山市駅よりバス,旧：セガワールド枝松,,
T/S衣山店,松山市衣山1-188パルティフジ衣山店1F,伊予鉄高浜線衣山駅より徒歩数分,,,
namcoフジ姫原店,松山市姫原2-4-28フジ姫原別棟2F,,旧：NL姫原店18歳未満の児童も法律、条例の範囲で入場可。,,
namcoフジグラン松山店,松山市宮西1-2-1フジグラン松山店4F,,キッズ向け,,
バンバン2,松山市道後樋又5－28,旧 南海放送より東へ100ｍ,愛媛FCサポートショップ。愛媛FCファンクラブ会員特典あり。参考,,
バンバン衣山,松山市衣山1-248-1,伊予鉄高浜線衣山駅より徒歩,08年4月OPEN愛媛FCサポートショップ。愛媛FCファンクラブ会員特典あり。参考,,
アミューズメントパークMG 大街道店,松山市大街道1-4-17,伊予鉄市内電車大街道駅下車 南へ350ｍ,2014年3月開店,,
モーリーファンタジー松山店,松山市天山1丁目13番5号イオン松山店3F,,旧：ファンタジーアイランド松山店,,
プレイドーム松山,松山市余戸南4-9-40,伊予鉄鎌田駅より徒歩3分,ビデオゲーム専門,,
ラウンドワン松山店,松山市東長戸1-3-10,松山市駅からバス,台揺すり等は厳禁である。（中学生連行）明るい雰囲気だからと舐めると警察沙汰になります。,,
らんらんらんど南松山,松山市朝生田町5-1-25ジョー・プラ2F,,,,
松山中央ボウル,松山市中央1-3-20,,ボウリング場内ゲームコーナークレーン等少数のみ→現在撤去,,
TFS今治ワールドプラザ店,今治市東村1-14-2ワールドプラザ内,今治駅からバス,旧：セガワールド今治,,
ふぇすたらんど今治店,今治市馬越町4丁目8-1イオン今治店3F,,旧：ダイナレックス今治店およびモーリーファンタジー今治店,,
namcoフジグラン今治店,今治市東門町5-13-1フジグラン今治店2Fワンダーパーク今治内,今治駅からバス,旧：ナムコランド今治店,,
楽市楽座イオンモール今治店,愛媛県今治市にぎわい広場1番地1イオンモール今治店2F,今治駅よりシャトルバス有,,,
モーリーファンタジー今治新都市店,愛媛県今治市にぎわい広場1番地1イオンモール今治店2F,今治駅よりシャトルバス有,,,
桑名ボウル,今治市延喜甲198-1,,ボウリング場内ゲームコーナー設置台数極少数,,
アミューズメントパークMG 東予周布店,西条市周布715-1フジ東予店別棟,,,,
ナムコランド西条玉津店,西条市玉津564-1フジ西条玉津店2F　ワンダーパーク西条内,産業道路沿い伊予西条からバス,,,
アミューズメントパークMG 伊予三島店,四国中央市中之庄町(字汐汲道)75-1,国道11号沿い宮脇書店伊予三島店の隣,旧：セガワールド伊予三島,,
アミューズメントパークMG 川之江店,四国中央市妻鳥町(中足鍋)1764-1イオン別館,三島川之江ICより直進 車で3分,,,
ナムコランド川之江店,四国中央市妻鳥町1136-1フジグラン川之江店別館2F,国道192号沿い,,,
川之江中央ボウル,四国中央市川之江町2124,,ボウリング場内ゲームコーナー設置台数少ない,,
アミューズメントパークMG 新居浜店,新居浜市上泉町甲1996-1マルナカ新居浜本店2F,,11/11 OPEN,,
アミューズメントパークMG 新居浜駅前店,新居浜市坂井町2-3-8パルティ・フジ新居浜駅前店内,,,,
子供の国フジグラン新居浜店,新居浜市新須賀町2-10-7フジグラン新居浜店3F,,,,
ハイテクセガ新居浜,新居浜市徳常町6-8,徳常バス停より西へ徒歩10分,旧 シネックス1F,,
プラサカプコン新居浜店,新居浜市前田町8-8イオンモール新居浜2F,,,,
モーリーファンタジー新居浜店,新居浜市前田町8-8イオン新居浜店2F,,,,
ボウルオオクラ,新居浜市船木4616,,ボウリング場内ゲームコーナー設置台数少ない,,
アミューズメントパークMG 宇和島店,宇和島市保田字扇田甲899マルナカ宇和島店内,,,,
クアボウル,宇和島市高串1-435-1クアライフ宇和島内,JR北宇和島駅より徒歩10分,ボーリング場内ゲームコーナー営業時間 平日:13:00～24:00 土日祝日:10:00～24:00,,
ゲームプラザGANGAN,宇和島市保田甲1106-1ショッピングストアーいわむら2階,国道56号沿い,電源は自分で入れるか、1Fの店の人に頼む駐車台数は2～3台程度,,
namcoフジグラン北宇和島店,宇和島市伊吹町字タカヒ甲912-2フジ北宇和島店別棟,JR北宇和島駅より徒歩10分,旧：プリッズ宇和島店,,
namcoアクトピア大洲店,大洲市中村字宮之前246番地1,,旧：ナムコランドアクトピア大洲店,,
アクアボウル,大洲市大洲1024,国道56号沿い大洲消防署の裏の細い道入る,,,
namcoフジグラン北浜店,八幡浜市1259-9フジ八幡浜店3F,八幡浜港のほうが近い,2014年1月開店,,
らんらんらんど八幡浜駅前店,八幡浜市大字松柏丙フケ832-2ありがとうコーポレーションショッパーズ八幡浜駅前店3F,,,,
保内ボウル,八幡浜市保内町宮内1-5-1,,ボウリング場内ゲームコーナー設置台数極少数,,
namcoフジグラン重信店,東温市野田3-1-13フジグラン重信店2F,,,,
ナムコランド宇和店,西予市宇和町卯之町4-654フジ宇和店別棟2F,,,,
らんらんらんど宇和店,西予市宇和町卯之町5-390ありがとうコーポレーションショッパーズ宇和店1F,,,,
SOYU Forest Hunter松前店,伊予郡松前町筒井850エミフルMASAKI AM棟1F,伊予鉄古泉駅より専用バス or 徒歩,,,
ナムコランド砥部店,伊予郡砥部町重光239フジ砥部店2F,,,,
アミューズメントパークMG 内子店,喜多郡内子町内子1455フジ内子店内,R56沿い。内子駅が最寄,,,
ゲームコーナー(仮称),北宇和郡鬼北町近永390フジ広見店内,,プライズ機を中心に少数設置,,
ゲームコーナー(仮称),南宇和郡愛南町城辺乙544フジ南宇和店別館内,,08年8月ナムコ撤退後ゲーム機はいくつか残っている,,
ボウルサンパール,南宇和郡愛南町御荘平城681,,ボウリング場内ゲームコーナー設置台数極少数,,
アミュージアム高知,高知市介良字長丁乙317-1,高知道南国IC降りて車で10分,パワーシティ高知内,,
えの木,高知市旭町3-100-3,土佐電鉄旭町三丁目電停すぐ,駐車台数7台旧：えの木2,,
プレイプラン,高知市比島町3-16-17,高知駅(県交通)より中比島バス停徒歩2分,,,
u!帯屋町店,高知市帯屋町1-13-21,土佐電鉄堀詰駅徒歩2分,,,
ナムコランド葛島店,高知市小倉町3－30,,,,
セガワールドフジグラン,高知市朝倉東町52-15フジグラン高知3F,,,,
プラサカプコン高知店,高知市秦南町1-4-8イオンモール高知2F,,専門棟の中です。,,
モーリーファンタジー高知店,高知市秦南町1丁目4-8イオンモール高知2F,,「イオン」の中です。旧：ファンタジー…,,
ラウンドワン高知店,高知市南宝永町4番12号,宝永町（土佐電）徒歩3分,,,
ドーム23,高知市海老ノ丸26,,施設内ゲームコーナー,,
バッティングアンドスポーツドーム23,高知市針木東町27-5,荒倉トンネル北口,施設内ゲームコーナー,,
ボウルジャンボ,高知市廿代町2-1,,ボウリング場内ゲームコーナー,,
アミパラ高知,南国市篠原195-1,R55沿い,,,
セントラルエクストリームゲームパーク,南国市大埇甲2520-2,R55沿い,,,
サニーアクシス南国店アクシスキッズ,南国市大埇乙1009-1サニーアクシス店内,,,,
タイトーステーション野市店,香南市野市町西野2007-1,ごめん・なはり線「のいち」駅より徒歩3分,フジグラン野市の南側の棟,,
アミューズメントパークMG 野市店,香南市野市町西野2700マルナカ野市店2Ｆ,ごめん・なはり線「のいち」駅より徒歩3分,,,
戦(IKUSA)高知店,土佐市高岡町甲433-1,国道56号沿い､、サニーマート近くバスなら高岡方面「東芝（ひがししば）」下車,16歳未満の児童も法律、条例の範囲で入場可,,
アミューズメントパークMG 須崎店,須崎市西町2丁目7番15号フジ須崎店内2F,JR土讃線 土佐新荘駅から徒歩約5分,,,
アミューズメントパークMG 須崎神田店,須崎市神田2500-1マルナカ須崎店内,,,,
namcoフジグラン四万十店,四万十市具同2222フジグラン四万十内2F,,旧：NL四万十店,,
ゲオパーク四万十店,四万十市右山五月町8-13アピアさつき内,TKT中村駅徒歩8分,平日の営業は22：00まで,,
アミューズメントパークMG 四万十店,四万十市具同211マルナカ四万十店内,TKT具同駅徒歩10分,,,
ぐるぐる屋,福岡市東区箱崎4-7-55 2F,,2015年9月開店,,
namcoゆめタウン博多店,福岡市東区東浜1-1-1 ゆめタウン博多店2F,,,,
楽市楽座003,福岡市東区箱崎5-1-8,,駐車場有、営業時間 平日／10:00～27:00 金･土･祝前日／10:00～29:00,,
遊Big,福岡市東区二又瀬新町6-6,,無料駐車場有 営業時間 10:00～24:00、ゲームセンター併設のバッティングセンター,,
バナナパーティー香椎,福岡市東区千早3-6-37スポガ香椎内,,,,
ジーカム和白店,福岡市東区和白3-27-69,JR香椎線・西鉄貝塚線和白駅,無料駐車場有,,
モーリーファンタジー香椎浜店,福岡市東区香椎浜3-12-1イオンモール香椎浜2F,,,,
コロッケ倶楽部多の津店,福岡市東区多の津3-6-18,,無料駐車場有、カラオケ店でG-pala多の津の一部機器を引き継いでいるようです,,
プレジデント,福岡市東区松香台2-10-46,,18禁です,,
with東バイパス店,福岡市東区下原4-11-38,,,,
かしいかえんシルバニアガーデン,福岡市東区香住ヶ丘7-2-2,西鉄貝塚線香椎花園前駅すぐ,園内のゲームコーナー､キッズ系中心、入園料要(900円),,
光和,福岡市東区名島3-12-7,,"営業時間 11:00～24:00,ビデオゲームのみの小さな店",,
ゲームセンター・ニューズ,福岡市東区松香台1-7-27 1F,,,,
T/Sヨドバシ博多店,福岡市博多区博多駅中央街6-12 ヨドバシカメラ4F,"JR博多駅,地下鉄博多駅",有料駐車場有土日はサービスチケット配布あり,,
namco博多バスターミナル店,福岡市博多区博多駅中央街2-1 博多バスターミナル7F,JR博多駅 地下鉄博多駅,旧：ナムコワンダーパーク博多メダル側は～1号店、ビデオ側は～2号店。,,
T/Sキャナルシティ博多店,福岡市博多区住吉1-2-22　キャナルシティ博多4F･5F,西鉄バスキャナルシティ博多バス停 地下鉄中洲川端・天神南より徒歩10分,旧：クラブセガキャナルシティ有料駐車場有,,
T/S博多パピヨンプラザ店,福岡市博多区千代1-2-17,西鉄バス妙見バス停,パピヨンプラザ内一部筐体を引き継いでいるようです。旧：セガワールドパピヨンプラザ有料駐車場有,,
ラウンドワンスタジアム博多・半道橋店,福岡市博多区半道橋2-2-8,きよみ通り 都市高半道橋出口近く,無料駐車場有,,
トンボ博多店,福岡市博多区西月隈6-1-51,旧3号線沿い都市高西月隈ランプ近く,旧：セガワールド板付,,
遊遊パーク　フォレオ博多店,福岡市博多区東那珂1丁目14番46号　フォレオ博多2階,,,,
グリーンランド エスパ店,福岡市博多区博多駅前3-23-4,博多駅博多口より徒歩3分,カプセルホテル併設のゲームコーナービデオゲーム(全て麻雀)とプライズ等が少しあるのみ宿泊客以外も入場可能 24時間営業,,
ゲームランドグリーン,福岡市博多区竹下1-3-12,JR竹下駅 西鉄バス竹下バス停,"無料駐車場有,営業時間10:00～28:00",,
ロッキーワールド博多店,福岡市博多区半道橋2-6-33,3号線都市高半道橋料金所近く,無料駐車場有,,
アミューズメントスペースマック,福岡市博多区博多駅南4-21 2F,,ビデオゲーム等は無し,,
T/S福岡天神店,福岡市中央区天神2-6-35 サザンクロスビルB1F～5F,地下鉄天神駅､西鉄福岡駅徒歩5分,,,
ラウンドワン福岡天神店,福岡市中央区天神2-6-12,地下鉄天神駅､西鉄福岡駅徒歩5分,レジャスタ内アーケードは24時間営業 入場料無しのB1F～2Fアミューズメントの営業時間は 日の出～25:00,,
らんらんらんど笹丘店,福岡市中央区笹丘1-28-74,,ダイエー笹丘店B1F ビデオゲーム無し,,
大橋シティボウル,福岡市南区塩原4-13-23,,,,
有限会社サービスゲームス福岡東洋店,福岡市早良区原5-20-40,,,,
モーリーファンタジー原店,福岡市早良区原6-27-8イオン原店3F,,旧：ポップンパーク原店,,
G-stage七隈,福岡市城南区七隈8-4-8,地下鉄七隈駅､西鉄バス東七隈､七隈四つ角バス停から徒歩5分,"旧：ハイテクセガ七隈,福岡大学前七隈ファミリープラザ内有料駐車場有,ゲーム遊戯で駐車場代割引制度有",,
七隈ファミリーボウル,福岡市城南区七隈8-4-8,地下鉄七隈駅､西鉄バス東七隈､七隈四つ角バス停から徒歩5分,"福岡大学前七隈ファミリープラザボウリング場内のゲームコーナー有料駐車場有,営業時間 平日／10:00～24:00 休前日／10:00～25:00 土･日･祝日／9:00～24:00",,
フタバ図書GIGA福大前店,福岡市城南区片江5-51-16,西鉄バス長野町バス停,"2階部分に麻雀格闘倶楽部･QMA等ゲーム機複数有,無料駐車場有",,
T/Sマリノア店,福岡市西区小戸2-2704-2 マリノアシティ福岡2F,西鉄バス､昭和バスマリノアシティバス停,旧：ラクガキ王国inマリナタウン駐車場は有料であるも平日5時間迄､土･休日2時間迄無料,,
楽市楽座福重店,福岡市西区石丸4-263-1,国道202号沿い,駐車場有,,
楽市楽座イオンモール福岡伊都店,福岡市西区北原1-3-1イオンモール福岡伊都別館2F,九大学研都市駅,駐車場有,,
モーリーファンタジー福岡伊都店,福岡市西区北原1-3-1イオンモール福岡伊都本館3F,九大学研都市駅,駐車場有,,
スペースタイム25ダイエー福重店,福岡市西区拾六町1-7-1 3F,,,,
モーリーファンタジー岡垣店,遠賀郡岡垣町大字黒山338-1イオンスーパーセンター岡垣店1F,,イオン棟の中です,,
らんらんらんど 水巻店,福岡県遠賀郡水巻町樋口3-10　ダイエー水巻店 　1F,,,,
楽市楽座くりえいと宗像店,宗像市くりえいと1-4-4,赤間駅が近い,,,
楽市楽座サンリブ宗像店,宗像市くりえいと1-5-1サンリブ宗像店内2階,赤間駅が近い,楽市楽座くりえいと宗像店とは別,,
namcoゆめタウン宗像店,宗像市田久2-1-1ゆめタウン宗像店 2F,赤間駅が近い,,,
楽市楽座イオンモール福津店,福津市793　イオンモール福津3F,福間からバス,,,
モーリーファンタジー福津店,福津市793　イオンモール福津2F,福間からバス,,,
ふぇすたらんど古賀店,古賀市天神2-5-1 サンリブ古賀店2F,,旧：セガワールド古賀,,
AsobiDouraku 仲原店,糟屋郡粕屋町仲原2650-1,バスも可だが柚須駅のほうが早い,ちなみに、×糟屋町,,
最後の5ドル,糟屋郡粕屋町仲原2706,バスも可だが柚須駅のほうが早い,,,
楽市楽座イオンモール福岡店,糟屋郡粕屋町大字酒殿字老ノ木192-1イオンモール福岡2F,,ワイドレジャーはイオンモールが大好きなようです,,
モーリーファンタジー福岡店,糟屋郡粕屋町大字酒殿字老ノ木192-1イオンモール福岡2F内,,イオン棟の中です,,
サンゲームス新宮店,糟屋郡新宮町美咲3-1-40 1F,,元AsobiDouraku 新宮店,,
ピノキオランド新宮,糟屋郡新宮町下府字孫三谷1438-1,,,,
わいわいランド,糟屋郡新宮町美咲2丁目1-41　ハローデイ2F,JR福工大前駅より徒歩5分､新宮バス停そば,,,
ピノキオランド宇美店,糟屋郡宇美町宇美4-8-1,,,,
楽市楽座210トリアス店,糟屋郡久山町大字山田990　古賀橋トリアス内,R210沿い,,,
バンバン,糸島市前原中央2-4-15 1F,,,,
PueriLand志摩店,糸島市志摩津和崎字宮ノ元29-11,,イオンスーパーセンター志摩店 1F,,
ラウンドワン大野城店,大野城市御笠川1-18-16,,,,
サンゲームス大野城,大野城市瓦田5丁目11-28,県道112号沿い､大野城まどかぴあ前交差点近く春日原駅が最寄,,,
モーリーファンタジー大野城店,大野城市錦町4-1-11 イオン大野城店3F,,,,
だざいふ遊園地,太宰府市宰府4-7-8,西鉄大宰府駅,"入園料要,営業時間 平日／10:00～17:00 日曜祝日／10:00～17:30",,
大宰府Jボウル,太宰府市都府楼南5-6-128,西鉄二日市駅,,,
ゆめタウン筑紫野ゆめキッズ店,筑紫野市針摺東3-3-1 ゆめタウン筑紫野本館2階,,ナムコの直営から外れています,,
楽市楽座イオンモール筑紫野店,筑紫野市立明寺434-1 イオンモール筑紫野3F,天拝山駅下車すぐ,,,
モーリーファンタジー筑紫野店,筑紫野市立明寺434-1 イオンモール筑紫野3F,天拝山駅下車すぐ,イオン棟の中です,,
コインレストラン秋峰,筑紫野市大字天山428-1,県道112号沿い。朝倉街道駅からバスでも可。,,,
スペース1,小郡市小郡1466-3,国道500号線沿い。鳥栖－小郡境目付近,,,
楽市楽座イオン小郡店,小郡市大保字弓場110イオン小郡SC,大保駅は一見近いがやや離れます,,,
しまむら甘木店,朝倉市甘木ミノケ288-1,,,,
ビデオアメリカ甘木インター店,朝倉市一木1148-1,,,,
楽市楽座イオン甘木店,朝倉市甘木岩入380番地イオン甘木店2階,,,,
バナナパーティー久留米店,久留米市合川町2125　スポガ久留米内,,,,
ユーズボウル久留米店,久留米市東櫛原町字深町1110,,,,
MGMボウル,久留米市上津町字中尾山2203-96,"国道３号線沿い野添交差点,九州自動車道広川ＩＣ出て北へ約5分,西鉄久留米からバス",,,
ビデオアメリカ上津店,久留米市上津1-2-2,西鉄久留米からバス,,,
プラボ久留米店,久留米市新合川1-2-1 ゆめタウン久留米店2階,,,,
AsobiDouraku 一番街店,久留米市東町33-1,,,,
AsobiDouraku 東合川店,久留米市東合川6-1-3,久留米IC付近。バスもOK,,,
AsobiDouraku 新合川店,久留米市新合川1-6-7,西鉄久留米からバス,,,
楽市街道くるめ店,久留米市新合川2-7-10 久留米アミューズメントビル内,西鉄久留米からバス,,,
楽市楽座210久留米店,久留米市東合川2-2-1,西鉄久留米からバス,楽市街道くるめ店とは別,,
ふぇすたらんど久留米店,久留米市野中町1411-1 サンリブ久留米店内,,,,
ふぇすたらんど筑後店,筑後市徳久248-1 サンリブ筑後店2F,,営業時間 10:00～20:00,,
AsobiDouraku 筑後店,筑後市熊野251-1,羽犬塚駅からバス,旧：アミューズメントプラザ JOY,,
ゆめタウン八女店ゆめキッズ,八女市蒲原988-28 ゆめタウン八女2階,,ナムコの直営から外れています,,
マンモスランド,福岡県大川市榎津62-1,,,,
モーリーファンタジー大木店,三潴郡大木町大字蛭池1200番地イオンスーパーセンター大木店,,,,
大牟田J-GAME,大牟田市新栄町20-1,新栄町駅が近い,営業は25時までです（本店は営業延長許容地域内）,,
楽市楽座大牟田店,大牟田市大字唐船69番1,大牟田駅からバス,,,
楽市楽座イオンモール大牟田店,大牟田市岬町3-4 イオンモール大牟田内2階,大牟田駅からバス,上記の店舗とは別,,
モーリーファンタジー大牟田店,大牟田市岬町3-4 イオンモール大牟田2F,大牟田駅からバス,,,
G-stage小倉,北九州市小倉北区浅野2－14－5　あるあるCity2F,,あるあるCity2階,,
PEP魚町,北九州市小倉北区魚町1-2-9,,,,
ラウンドワンスタジアム小倉店,北九州市小倉北区西港町15-65,西小倉駅前からバス,,,
T/Sリバーウォーク店,北九州市小倉北区室町1-1-1 リバーウォーク北九州4F,,旧：T/Sリバーウォーク（インベーダーの看板がつくとお尻に「店」がつきます）,,
カジノ京町,北九州市小倉北区京町2-6-3,JR小倉駅南口から徒歩約5分,,,
メトロポリス小倉店,福岡県北九州市小倉北区西港町27-5小倉コロナワールド内,西小倉駅前からバス,,,
楽市楽座砂津店,北九州市小倉北区砂津3-1-1チャチャタウン小倉B棟3F,,,,
ハイパーメッセ,北九州市小倉南区北方4-6-7,,セガのお店に計上されていますが、直営ではありません。,,
TAC北方店,北九州市小倉南区北方4-1-11,モノレール北方駅が最寄,,,
G-Pala小倉店,北九州市小倉南区上葛原1-14-1,,旧ジョイプラザ小倉店,,
モーリーファンタジー徳力店,小倉南区守恒2-8-8イオン徳力店2F,,,,
楽市楽座サンリブシティ小倉店,北九州市小倉南区上葛原2-14-1,,,,
J倶楽部,北九州市戸畑区中本町3-11,,,,
アミューズメントMGM陣原店,北九州市八幡西区陣原1-2-12 エコフレンドリータウン陣原2F,陣原駅が近い,,,
楽市楽座黒崎店,北九州市八幡西区桜ヶ丘町1－3,R3沿い熊西駅が最寄,333は国道を意さない,,
ユーズボウル北九州店,北九州市八幡西区則松5-7-25,,,,
ふぇすたらんど木屋瀬店,北九州市八幡西区木屋瀬1-27-1,,サンリブ木屋瀬店2F,,
ふぇすたらんど三ヶ森店,北九州市八幡西区三ヶ森3-9-1,,サンリブ三ヶ森店1F・2F,,
パスカランド黒崎店,北九州市八幡西区西曲里町3-1,,,,
THE 3RD PLANET イオンタウン黒崎店,北九州市八幡西区西曲里町3-1,,,,
ふぇすたらんど高須店,北九州市若松区高須南2-2-1,,サンリブ高須2F,,
モーリーファンタジー若松店,北九州市若松区二島1-3-1イオン若松SC2F,,,,
アミューズ21,北九州市八幡東区枝光1-1-1,,スペースワールド内,,
楽市楽座イオンモール八幡東店,北九州市八幡東区東田3-2-102イオンモール八幡東3F,スペースワールド駅,,,
モーリーファンタジー八幡東店,北九州市八幡東区東田3-2-102イオンモール八幡東3F,スペースワールド駅,イオン棟の中です,,
トークファイブ　直方店,直方市大字下境889-1,,,,
プラサカプコン 直方店,福岡県直方市湯野原2-1-1　イオンモール直方2F,,,,
セガアリーナ中間,中間市上蓮花寺3-1-1,筑豊電鉄通谷駅,福岡では唯一のセガエンタテインメントのお店です,,
ＰＥＰなかま,中間市上蓮花寺3-1-1,筑豊電鉄通谷駅,,,
ふぇすたらんど田川店,田川市大字川宮1693-1サンリブ田川店2F,,,,
ゲームセンターみやま,田川郡香春町大字香春1003,一本松駅は比較的近い,,,
ジャンボパンチ希林,福岡県飯塚市秋松947,,バッティングセンター併設,,
ウィズダム,飯塚市柏の森１６２－３,,,,
G-stage飯塚店,飯塚市枝国680-2,,旧：セガワールド飯塚,,
楽市楽座穂波店,飯塚市若菜260-1,,駐車場有,,
楽市楽座イオン穂波店,福岡県飯塚市枝国長浦666-48　イオン穂波店2階,,駐車場有,,
ふぇすたらんど苅田店,京都郡苅田町殿川町1-7サンリブ苅田店内,,,,
No.1西工大店,京都郡苅田町与原2-3-2,小波瀬西工大前駅,,,
楽市楽座行橋店,行橋市西泉6丁目1-1コスタ行橋アミューズ棟2階,美夜古泉駅のほうが若干近い,旧：セガアリーナ行橋,,
遊道楽嘉瀬店,佐賀市嘉瀬町大字中原2488-1,,,,
遊道楽本庄店,佐賀市本庄町大字本庄969-1,,,,
ゲームナイスデイ,佐賀市本庄町大字本庄506-9,,ビデオゲーム皆無。UFOキャッチャーやプリクラが主。,,
ラウンドワンスタジアム佐賀店,佐賀市兵庫町大字藤木1110,,,,
namcoゆめタウン佐賀店,佐賀市兵庫町藤木1416 ゆめタウン佐賀2F,,旧：ナムコランド佐賀店,,
アミパラ佐賀店,佐賀市巨勢町大字牛島730 モラージュ佐賀 南館1F,,旧：プラサカプコン佐賀店,,
フエゴワールド佐賀店,佐賀市巨勢町大字牛島730 モラージュ佐賀 北館2F,,旧：H/Tモラージュ佐賀サイトは故意に消した？,,
楽市楽座303佐賀大和店,佐賀市大和町大字尼寺2965,,,,
ジョイプラザ佐賀店,佐賀市東与賀町下古賀一本杉151,,,,
サンゲームス鳥栖店,鳥栖市元町1353-1,西鉄鳥栖（バスです）,,,
楽市楽座鳥栖店,鳥栖市本鳥栖町字下鳥栖537-1 ジョイフルタウン2F,,,,
スペースタイム25 ゆめタウン鳥栖店,鳥栖市轟木町1173 2F,,,,
METEORITE鳥栖,鳥栖市轟木町1173 ゆめタウン鳥栖別館,,旧・テクモピア鳥栖店,,
フェスタ唐津店,唐津市大字鏡字潮水土井3711-1,,,,
ファズ(FAS)ゲームセンター,唐津市栄町2581,,,,
アミューズメントクラブ21,伊万里市新天町278-2,,,,
ソニックワールド伊万里店,伊万里市八谷搦189-3,松浦鉄道伊万里駅,,,
伊万里スターボウル,伊万里市立花町3026,,申し訳程度のゲームスペース,,
ゆめタウン武雄店ゆめキッズ,武雄市武雄町武雄4992 ゆめタウン武雄2F,,,,
ゲームファンタジオ武雄店,武雄市朝日町甘久1331 メリーランドタケオボウル内,高橋駅が近いが…,,,
AGスクエア佐賀武雄店,武雄市武雄町大字富岡12517-1,武雄温泉駅,実はセガが返り咲き。,,
スペースタイム25 ジャスコ江北店,杵島郡江北町大字山口字三本松1223,,,,
G-pala多久店,多久市北多久町大字小侍456番地1,,,,
らんらんらんど佐賀鹿島店,鹿島市大字森字水町80番地 メガセンタートライアル鹿島店1F,,,,
キッズパーク南長崎,長崎県長崎市磯道町37-5 レッドキャベツ南長崎店内1F,,旧:ダイエー南長崎店,,
ジョイフルサン江戸川ドリームランド,長崎市江川町232,,,,
長崎玉屋屋上プレイランド,長崎市新大工町5-35,,,,
長崎チトセピア,長崎市千歳町5-1,,,,
スペースタイム,長崎市新地13-4,,,,
ナムコランド長崎店,長崎市元船町10-1 夢彩都(ゆめさいと)4F,,,,
ラッキーボウル,長崎市大橋町25-6,,,,
セガワールド長崎ココウォーク,長崎市茂里町1-55 みらい長崎ココウォーク5階,,,,
モーリーファンタジー東長崎店,長崎市田中町1027-8 イオン東長崎SC2階,,,,
三冠王バッティングセンター,佐世保市相浦2687,MR相浦駅から徒歩約7分,,,
タイムJ・F,佐世保市島地町1-12松屋ビル1F,MR佐世保中央駅から徒歩約3分,,,
ニューカジノ95,佐世保市下京町6-15,MR佐世保中央駅から徒歩約4分,営業は25時まで（本店は営業延長許容地域内）,,
サンゲームス佐世保,佐世保市田原町28-1,MR左石駅から徒歩約5分だがバスのほうが優位？,,,
モーリーファンタジー大塔店,佐世保市大塔町14-2 イオン大塔店3階,JR大塔駅下車徒歩約5分,旧：ファンタジーアイランド…,,
楽市楽座イオン佐世保店,佐世保市島瀬町10-9 イオン佐世保店8階,MR佐世保中央駅から徒歩約3分,旧：スペースタイム25…（ワイドレジャーでは店舗名を楽市楽座に統一するようです）,,
アミパラ佐世保店,佐世保市大塔町18-15,JR大塔駅下車徒歩約5分,旧：セガワールド大塔,,
楽市楽座佐世保店,佐世保市大塔町1861-12,JR大塔駅下車徒歩約10分,西肥バスのほうが近いかもしれません,,
ハウステンボス内ゲームミュージアム,佐世保市ハウステンボス町１−１,長崎バスターミナルよりシャトルバス運行,別途入園料必要。一部のゲーム無料。プロジェクションマッピング太鼓の達人(抽選。18：30～),,
ソニックワールド大村店,大村市古賀島町383-1,,,,
セガワールドサンスパおおむら,大村市森園町663-3,諫早または大村からバス「サンスパ大村」下車,,,
モーリーファンタジー大村店,大村市幸町25-200 イオン大村SC2階,,,,
セガワールドもみの木村,諫早市小川町90-1,R57沿いですがバスでも行けるようです,ただし法的には「ハイテクセガ…」,,
ソニックワールド諫早店,諫早市永昌町17-62,諫早駅の裏,旧：ナムコランド諫早店,,
楽市楽座諫早店,諌早市長野町1086-17,,,,
アミューズメントプラザグルッペ,平戸市木引田町412,,,,
島原簡易保険保養センター,島原市白山町8362-3,,,,
モーリーファンタジー有家店,南島原市有家町山川135-1 イオン有家店1階,,,,
長崎オランダ村,西海市西彼町喰場郷1686-3,,施設閉園,,
Asobi Douraku時津店,西彼杵郡時津町元村郷863ー10,長崎駅からバス,,,
モーリーファンタジー時津店,西彼杵郡時津町浜田郷751-5 イオン時津SC2階,,,,
波佐見ボウル,東彼杵郡波佐見町折敷瀬郷2091-1,,,,
コスモス,西彼杵郡三和町布町843-1,,現在は長崎市,,
国民宿舎御床島荘,西彼杵郡崎戸町本郷362-1,,現在は西海市,,
川棚長寿村,東彼杵郡川棚町小串郷70-18,,,,
国民宿舎くじゃく荘,東彼杵郡川棚町小串郷54-4,,,,
namcoサンリブ清水店,熊本市北区麻生田3丁目1-1サンリブ清水 2F,,,,
namcoワンダーシティ南熊本店,熊本市中央区九品寺6-9-1ワンダーシティ南熊本内,南熊本駅が比較的近い,旧：namco南熊本店、プラボ南熊本店,,
ピノキオランドくまなん店,熊本市中央区平成3丁目23-30　サンリブくまなん店3F,,旧：セガワールドくまなん,,
スポラ九品寺,熊本市中央区九品寺5丁目10-15,南熊本駅が比較的近い,,,
ams下通り店,"熊本市中央区手取本町4-12　ファインビルB1,2F",通町筋電停,,,
大江ゲームセンター,熊本市中央区大江1-6-6,,,,
ラウンドワンスタジアム熊本店,熊本市西区春日7-25-15,熊本駅からバス,送迎バスはないので注意,,
ゆめタウンサンピアンゲームコーナー,熊本市東区上南部町2-2-2　ゆめタウンサンピアン3F,,旧：サンピアンナムコランド店,,
プレミアムams,熊本市東区新南部6-3-1,,,,
amsゲームス,熊本市南区出仲間6-12-7,,,,
テクモピア浜線店,熊本市南区田井島1-2-1　ゆめタウンはません3F,,,,
モーリーファンタジー八代店,八代市沖町六番割3987-3イオン八代SC2F,,イオン棟の中です,,
T/Sゆめタウン八代店,八代市建馬町3-1　ゆめタウン八代2F,,旧：H/T八代,,
リッチモンド,八代市旭中央通り20-3,,,,
G-pala八代,八代市永碇町1099番地1,,旧：アーバンスクエア八代臨港店2014年3月開店,,
パスカワールドグリーンランド,荒尾市本井手1574番54,,,,
ピノキオランド玉名店,玉名市亀甲字前田110　ビッグミカエル玉名店内,,,,
namcoイオンモール宇城店,宇城市小川町河江1-1イオンモール宇城2F,,旧：NL宇城店、namco…バリュー店母体店舗名が変わっています,,
楽市楽座小川店,宇城市小川町河江1-1イオンモール宇城別棟,,,,
ピノキオランド本渡店,天草市船之尾町279-6,,,,
モーリーファンタジー天草店,天草市亀場町食場後山下740イオン天草SC2F,,,,
FESTA人吉,人吉市宝来町1307-1　HITOYOSHI-REX内,人吉駅,,,
ニコニコ堂人吉店,人吉市上薩摩瀬町字園田880,,,,
ゲームセンター ウィンナー,水俣市大園町1-1-3,,,,
パスカワールド宇土,宇土市善道寺町95　宇土シティモール内,,,,
サンゲームス荒尾,荒尾市原万田700-1,荒尾駅は近い,旧：SW有明プラザ,,
ピノキオランド菊陽店,菊池郡菊陽町津久札2472　寿屋菊陽店内,,,,
T/Sゆめタウン光の森店,菊池郡菊陽町津久礼3310　ゆめタウン光の森2F,光の森駅徒歩4分,旧：H/T光の森,,
namcoゆめタウン光の森店,菊池郡菊陽町光の森7-39-1　ゆめタウン光の森南館3F,光の森駅徒歩4分,旧：ナムコランド光の森店,,
スポラ菊陽,菊池郡菊陽町津久礼2617-2,三里木駅徒歩16分,,,
モーリーファンタジー熊本店,上益城郡嘉島町上島字長池2232イオンモール熊本2F,,イオン棟の中です,,
楽市楽座イオンモール熊本店,上益城郡嘉島町上島字長池2232イオンモール熊本2F,,専門店棟の中です,,
大津ショッピングプラザアーク店ナムコランド,菊池郡大津町室137　大津ショッピングプラザアーク2F,,,,
楽市楽座サンロードシティ店,球磨郡錦町西715-32,,参考,,
楽市楽座イオン錦店,球磨郡錦町西715-1,,旧：スペースタイム25楽市楽座サンロードシティ店とは別,,
ギガ大在店,大分市大在中央2-8-3,,,,
フリッパーズクラブ,大分市片島字上河原148,下郡バイパス広瀬橋東交差点より北へ約700m公共交通では滝尾が最寄ですが…,,,
カラオケフリッパーズ,大分市片島字上河原148,同上,,,
T/S セントポルタ大分店,大分市中央町2-1-1,JR大分駅より徒歩3分,旧：T/I ウイング,,
アムス大在店ナムコランド,大分市大在浜2-1-1,,,,
ナムコランド明野店,大分市明野東1-1-1あけのアクロスタウン4階,,,,
ナムコランドわさだ店,大分市大字玉沢字楠本755-1トキハわさだタウン2F,ホワイトロード(国道210号線)沿い大分光吉I.Cから約2.2Km,,,
トライセン萩原店,大分市萩原4-227-7,,旧：プリッズ東大分店,,
スプロール稙田店,大分市玉沢688-1,,会員制の可能性あり,,
セガワールド高城,大分市牧1-161-8,牧駅でも可だがバスのほうが早い,,,
プラサカプコン大分店,大分市公園通り西2-1パークプレイス大分2F,大分米良ICから国道197号線BPを車で約5分,,,
タカラ島 高城店,大分市高城西町28-1イオン高城 VERDE21　2F,JR高城駅の裏側,,,
楽市楽座大分店,大分市大字勢家1137,大分からバス新川バス停下車,,,
ラウンドワン大分店,大分市萩原2-13-17,大分駅からバス送迎バスの利用も考慮,トライセン萩原に近隣,,
FESTAフリーモールわさだ店,大分市大字木上2102,南大分方面からR210を突っ走りR442との交差点を過ぎた先,トキハわさだタウンからさらに先中心地からはかなり遠い,,
モーリーファンタジーパークプレイス大分店,大分市公園通り西2-1イオンパークプレイス大分店2F,,,,
舞子浜温泉センター,大分市政所1-4-30,,,,
うめの湯,大分市山津町1-7-7,,,,
臼井プランニング,大分市迫字新殿860-1,,,,
ぶんご温泉,大分市下徳丸36-1,,,,
アサヒ温泉,大分市下郡1716-8,,ゲームコーナーへはフリーパスビデオゲームはない,,
豊の国健康ランド,大分市南春日町12-1,,ゲームコーナーへはフリーパスビデオゲームはない,,
天然温泉　天の川,大分市大字奥田659-1,,ゲームコーナーというよりゲースロの置かれた休憩室,,
ギガ津留店,大分市中津留1-1-18,国道197号線沿い中津留一丁目交差点そば,2013年7月店舗縮小、2016年8月末日営業終了,,
トキハ別府店ゲームコーナー,別府市北浜2-9-1トキハ別府店4階,JR別府駅下車徒歩5分,旧：NL別府店、namcoトキハ別府店ナムコの直営から外れています,,
ヤングセンター (南光物産),別府市北鉄輪1組,,,,
別府自衛隊PX,別府市鶴見4548-143,,,,
プレイトピアハイウェイ,別府市石垣西10-2-32,JR別府大学駅,,,
別府ラクテンチ,別府市流川通り18丁目,,,,
namco杉乃井ホテル店,別府市観海寺1組スギノイパレスUzone1階,,旧：杉乃井ホテルナムコランド店宿泊客でなくても来店可,,
スギノイパレス,別府市観海寺1組,,,,
城島後楽園ホテル,別府市東山123,,,,
セガワールド城島,別府市大字東山123-1,,現状不明。現セントレジャー城島高原,,
ハイテクランドセガハーバープレイス,別府市餅ヶ浜161-2,国道10号線沿い別府郵便局前バスならAPU方面「別府警察署前」にて,,,
遊えん知アミュスポ,大分県別府市新港町1-33,別府郵便局裏バスならAPU方面「別府警察署前」にて,,,
ビッグ・ウェーブ　ゆめタウン別府店,別府市楠町382-7ゆめタウン別府店3階,,,,
別府富士観ホテル,別府市若草町13-21,,,,
別府ポートサービス,別府市汐見町9-1 関西汽船ビル,,,,
かんぽの宿海南荘,別府市鶴見町457,,,,
シーサイドホテル美松,別府市北浜3-14-7,,,,
PSリズムカン中津,中津市古金谷2122-3,,,,
ゆめタウン中津店ゆめキッズ,中津市島田134-1ゆめタウン中津3F,,,,
セガワールド中津,中津市沖代町1-2-16,,,,
トライセン中津店,中津市下池永67-3,,,,
FESTAコスモタウン佐伯店,佐伯市鶴岡西町2-163コスモタウン佐伯内,佐伯駅からバス上岡駅は使い物になりません,,,
トキハインダストリー佐伯店ナムコランド,佐伯市池田2064 トキハインダストリー佐伯店2F,,,,
aaa（トリプル・エー）,佐伯市城東町1-9,佐伯駅からバス,,,
臼杵バッティングセンター,臼杵市市浜950,,,,
ファンタジーパーク臼杵,臼杵市江無田266-5,,,,
レンタルヒット高田,豊後高田市高田2106-1,,,,
スパランド真玉,豊後高田市城前156-1,,,,
かんぽの郷宇佐,宇佐市市川部1571,,,,
メルクス宇佐ナムコランド店,宇佐市大字法鏡寺500ハイパーモールメルクス宇佐内,,,,
トキハインダストリー三重店ナムコランド,豊後大野市三重町市場447-1トキハアクロスプラザ三重3F,,,,
G-pala日田,日田市大字友田字荻鶴986-1,光岡駅徒歩15分,旧：セガワールド日田,,
モーリーファンタジー挟間店,由布市挾間町北方77番地イオン挟間店2F,,,,
筋湯観光ホテル,玖珠郡九重町湯坪662,,,,
宝泉寺観光ホテル,玖珠郡九重町町田2032,,,,
グランドホテル山ノ湯,玖珠郡九重町町田2098,,,,
PSリズムカン玖珠,玖珠郡玖珠町塚脇627-3,,,,
ラウンドワンスタジアム宮崎店,宮崎市中村東3-4-60,南宮崎駅から徒歩圏だが宮交シティに行けるともっと近いでしょう,,,
namco宮交シティ店,宮崎市大淀4-6-28 宮交シティ3F,JR宮崎駅側,旧：らん２らんど宮交シティー店,,
ゲームセンターMEGA,宮崎市高千穂通1-3-22 エースランド2F,宮崎駅徒歩11分,旧：ナムコランド宮崎店,,
楽市楽座イオンモール宮崎店,宮崎市新別府町江口862-1 イオンモール宮崎内2F,,旧：アーバンスクエアイオンモール宮崎店,,
マンガ倉庫加納店,宮崎市加納乙240番1,JR加納駅,,,
縁日堂,宮崎市新名爪313,,,,
サンゲームス都城北店,都城市上川東4丁目5997-4,旧:アーバンスクエア都城北店R10沿い。公共交通は西都城駅からバス有,,,
ジョイプラザ都城店,都城市早水町38号5番地7,JR三股駅,,,
ビリヤードG'z,都城市牟田町4-2,JR西都城駅,,,
楽市楽座イオンモール都城駅前店,宮崎県都城市栄町4672-5 イオンモール都城駅前2F,JR都城駅,旧：楽市楽座イオンモールミエル都城駅前（イオンモールでは店舗の愛称はすべて廃しています）,,
マンガ倉庫都城店,都城市吉尾町840,,,,
セガ延岡,延岡市平原町5-1492-8,,旧：SWヒダカプラザ南九州のセガのお店は2店舗しかありません。,,
ナムコランド日向店,日向市日知屋14798-1 ハイパーモールメルクス日向内,R10沿い。一見遠いようだが公共交通でも可,,,
キラキラAsoboxイオン日向店,日向市大字日知屋字古田町61-1 イオンタウン日向D棟,,,,
ゲオパーク日向店,日向市大字日知屋16320-1,JR日向市駅,2014年1月　ゲームコーナーが閉鎖,,
ピノキオランド日南店,日南市材木町4-1 サピア日南ショッピングセンター2F,JR油津駅,,,
日南トイスタジアム,日南市星倉4-5-10,,,,
ファンタジーランド,串間市西方5590 ニシムタ串間店2F,JR串間駅,,,
サンゲームス天文館店,鹿児島市千日町５−６,天文館通電停・天文館バス停,平成２８年７月オープン・以前T/S天文館があったところ,,
T/S アミュプラザ鹿児島店,鹿児島市中央町1-1 アミュプラザ鹿児島5F,鹿児島中央駅,旧：BEAT GROOVERSちなみに、九州のタイトーのお店はすべてインベーダー化されています。,,
THE 3RD PLANET ジャングルパーク鹿児島店,鹿児島市与次郎1-11-1フレスポジャングルパーク2F,交通局前からバス,,,
モーリーファンタジー鹿児島店,鹿児島市東開町7イオンモール鹿児島3F,,イオン棟の中です,,
ラウンドワンスタジアム鹿児島宇宿店,鹿児島市宇宿2丁目2番2号,市電宇宿一丁目,送迎バスもあります,,
らんらんらんど鹿児島店,鹿児島市鴨池2-26-30ダイエー鹿児島店2F,,,,
らんらんらんど鹿児島谷山店,鹿児島市南栄5-10-51ダイエー鹿児島谷山店2F,,,,
ゲームセンターモンスター,鹿児島市荒田2-56-5,,,,
ファミリープラザめいわポニー,鹿児島市明和1-25-2,,,,
ファミリーランドポニータイヨー中山,鹿児島市中山町字後追31993,,,,
テクノパークミューズ,鹿児島市卸本町,,,,
タイヨー草牟田店,鹿児島市草牟田 2-19-22,,,,
山形屋,鹿児島市金生町 3-1,,,,
ゲームセンター電撃ベイサイド,鹿児島市浜町2番,鹿児島駅徒歩10分,旧：SWベイサイドプラザ,,
楽市楽座オプシアミスミ店,鹿児島市宇宿2丁目3番5号,鹿児島中央からバス,,,
サンアミューズ鹿屋店,鹿屋市札元2-3798,,,,
ファミリーランドポニーサンキュー寿,鹿屋市寿7丁目1-494 サンキュー寿店2F,,,,
プラッセだいわ鹿屋店ナムコランド,鹿屋市白崎町4-1プラッセだいわ鹿屋店3F,,,,
プレイランドポニー鹿屋店,鹿屋市本町,,,,
ファミリーランドポニー鹿屋店,鹿屋市,,,,
THE 3RD PLANET フレスポ国分店,霧島市国分広瀬2-4-1,,,,
ファミリーランドポニー新町店,霧島市国分新町980タイヨー新町店2F,,,,
ふぇすたらんど隼人店,霧島市隼人町見次545サンキュー隼人店1F,,,,
モーリーファンタジー隼人国分店,霧島市隼人町見次1229イオン隼人国分店2F,,旧：ダイナレックス…,,
G-pala隼人,霧島市隼人町見次532-8,隼人駅徒歩9分,旧：セガワールド国分ただし公安の許可証は「G-pala国分」,,
サンアミューズＧ２店,薩摩川内市永利町777 パワーランド川内内,空港バイパス沿いバスでも行けなくはないようです,,,
プラッセ川内店ナムコランド,薩摩川内市矢倉4213-1プラッセ川内店2F,,,,
ファミリーランドポニー永利店,薩摩川内市永利町712タイヨー永利店,,,,
プレイランドポニーダイワ向田店,薩摩川内市西向田町13-30,,地図では､プラッセ食品館向田店西向田町15-10 のタイヨー川内店では？,,
モーリーファンタジー姶良店,姶良市東餅田336イオン姶良店3F,,旧：ダイナレックス…,,
ふぇすたらんど重富,姶良市平松3675-1タイヨー重富店内,,,,
ふぇすたらんど西加治木,姶良市加治木町木田159番地2タイヨー西加治木店2F,,,,
プレイランドポニーダイワ阿久根,阿久根市鶴見町78,,,,
大和出水店,出水市本町 4-45,,,,
セガワールド出水,出水市六月田町347,HSOR出水駅からバス（「JRの出水駅」からは出ていません）,鹿児島に最後に残ったセガ,,
プラッセだいわ出水店ナムコランド,出水市本町4-45プラッセだいわ出水店内2F,,,,
ファミリーランドポニー北指宿,指宿市,,,,
ナムコランドプラッセだいわ指宿店,指宿市西方1675プラッセだいわ指宿2F,,,,
ファミリーランドポニータイヨー垂水,垂水市中央町32,,,,
プレイランドサンキュウ西志布志,志布志市志布志町安楽,,,,
電遊パーク志布志店,志布志市志布志町安楽100-1,志布志高校の近く,,,
ファミリーランドポニータイヨー大口,伊佐市里,,,,
サンゲームス串木野店,いちき串木野市東塩田町1番地串木野ゴールデンボウル内,R3沿い。串木野駅徒歩3分,ボウリング場併設ですが8号です,,
プレイランドポニーダイワ宮之城,薩摩郡宮之城町屋地2056,,現・さつま町,,
サンゲームス鹿屋,肝属郡肝付町富山1008番地5,志布志駅前からバス,鹿屋市ではありません,,
アミューズジョイBOX,那覇市首里儀保町3-16,沖縄都市モノレール儀保駅から徒歩1分,,,
アミューズぽぱい虹咲店,那覇市鏡原町2-2,沖縄都市モノレール奥武山公園駅から徒歩1分,営業時間12:00～23:00,,
天久ファミリースポーツランド,那覇市字天久889,第一天久バス停から徒歩5分,,,
小禄ボウリング,那覇市鏡原町34-40,沖縄都市モノレール奥武山公園駅から徒歩6分,ボウリング場内ゲームコーナー,,
ゲームインナハII,那覇市松尾2-22-19,開南バス停から徒歩2分,ゲームインナハの姉妹店ビデオゲーム中心,,
国場りうぼう,那覇市国場703,寄宮中学校前バス停から徒歩3分,,,
サラダボウル,那覇市辻3-4-1,三重城バス停から徒歩8分,ボウリング場内ゲームコーナー,,
ジョイジャングル inスカイレーン,那覇市具志875那覇空港ボウルスカイレーン内,那覇バス具志営業所から徒歩5分,ボウリング場内ゲームコーナー。2011年4月開店,,
TSUTAYA首里店 アミューズメントコーナー,那覇市首里久場川町2-122-1首里りうぼう1F,沖縄都市モノレール首里駅から徒歩5分首里りうぼう前バス停前,,,
namco那覇メインプレイス店,那覇市おもろまち4-4-9サンエー那覇メインプレイス2F,沖縄都市モノレールおもろまち駅から徒歩5分おもろまち一丁目バス停前,2012年9月24日ナムコランド那覇店から店名変更沖縄では初めての「namco」店名です。,,
マンガ倉庫那覇店 トレジャーハンター,那覇市高良3-1-12,沖縄都市モノレール赤嶺駅から徒歩3分,営業時間9:00～24:00（マンガ倉庫は24時間営業）メダルゲーム・MJ・WCCF・三国志大戦等設置,,
モーリーファンタジー 那覇店,那覇市金城5-10-2イオン那覇ショッピングセンター3F,沖縄都市モノレール小禄駅前,,,
ゲオパークコザミュージックタウン,沖縄市上地1-1-1コザミュージックタウン内,胡屋バス停から徒歩2分,有料駐車場有、ゲオパーク利用者は2時間無料,,
コザボウリングセンター,沖縄市中央3-5-39,胡屋バス停から徒歩5分,ボウリング場内ゲームコーナー,,
ドラゴンボウル,沖縄市登川2450,沖縄市農民研修センター前バス停から徒歩3分,ボウリング場内ゲームコーナー,,
ナムコランド 沖縄店,沖縄市池原5-1-24T.T BOWL沖縄(旧：スーパーボウルGX)内,池原団地前バス停前,ボウリング場内ゲームコーナーですが8号です。2009年7月1日プリッズ沖縄店から店名変更,,
マンガ倉庫泡瀬店,沖縄市与儀571,県総合運動公園前バス停から徒歩1分与儀バス停から徒歩約10分,2011年9月メダルコーナーオープン営業時間9:00～24:00（マンガ倉庫は24時間営業）,,
和合ファミリーランド,沖縄市照屋1-13-5,コザバス停から徒歩2分,会員制アミューズメント105円/15分店舗ブログ,,
サンエー具志川メインシティアミューズメントコーナー,うるま市江洲450-1サンエー具志川メインシティ1F,第一江洲バス停前江洲バス停から徒歩5分,旧：H/T具志川。タイトー沖縄撤退時に別OPへ営業譲渡営業時間9:00～24:00,,
ジョイジャングル,うるま市勝連南風原5111サンエー与勝シティ内,水井原バス停前,小規模スペース営業時間9:00～24:00,,
ジョイジャングル 田場店,うるま市田場1953-1ザ・ビッグ田場店内,具志川バスターミナルから徒歩1分,小規模スペース営業時間10:00～22:00,,
トイパラダイス具志川店,うるま市みどり町4-8-1,具志川商業高校入口バス停から徒歩1分安慶名バス停から徒歩6分,おもちゃ店内ゲームコーナー,,
ナムコランド 具志川店,うるま市前原幸崎原303イオン具志川ショッピングセンター2F,ジャスコ具志川入口バス停前東陽バス泡瀬営業所から徒歩3分,店内2F北側。営業時間10:00～24:00,,
ファンタジーアイランド 具志川店,うるま市前原幸崎原303イオン具志川ショッピングセンター2F,上に同じ,店内2F南側。営業時間10:00～22:00,,
ジョイジャングル 経塚店,浦添市経塚652-1サンエー経塚シティ2F,沖縄療育園前バス停から徒歩2分経塚バス停から徒歩3分,営業時間9:00～23:30プライズ・メダルゲーム中心、音ゲーは太鼓の達人のみ,,
T.T BOWLてだこ,浦添市伊祖2-9-2,伊祖入口バス停前(国道330号)大平バス停から徒歩6分,ボウリング場内ゲームコーナー旧：マスターズボウルてだこ,,
ミルキーランド マチナト店,浦添市城間2008-1サンエーマチナトショッピングセンター2階,第二城間バス停から徒歩1分,旧：T/Pマチナト。タイトー沖縄撤退時に別OPへ営業譲渡プライズ中心。音ゲー無し,,
らんらんらんど 浦添店,浦添市城間4-7-1浦添ショッピングセンター3F,城間三丁目バス停から徒歩1分第二城間バス停から徒歩4分,プライズ・メダルが中心,,
リトルパーク西原,浦添市当山2-2-3バークレーズコート ゲオ西原店内,総領事館前バス停前,営業時間10:00～25:30プライズ・音ゲー・麻雀格闘倶楽部等設置,,
アミューズメントスペースイーグル,宜野湾市真栄原2-12-5,第二真栄原バス停から徒歩1分,,,
ガリバー宜野湾店,宜野湾市上原2-11-5TSUTAYA宜野湾上原店2F,上原バス停から徒歩3分,営業時間10:00～23:50トータルアミューズメント・ガリバー系列店。店舗ブログ,,
ギノワンボウル,宜野湾市我如古4-6-7,佐真下バス停から徒歩3分,ボウリング場内ゲームコーナー,,
ゲームランド ジョイキャッスル,宜野湾市宇地泊558-10サンエー宜野湾コンベンションシティ2F,兼久原バス停から徒歩1～3分コンベンションセンター前バス停から徒歩約10分,2012年7月5日オープンプライズ・メダルゲーム中心,,
ラウンドワンスタジアム沖縄・宜野湾店,宜野湾市真志喜3-28-8,真志喜中学校前バス停から徒歩4分コンベンションセンター前バス停から徒歩約10分沖縄都市モノレールおもろまち駅から無料シャトルバス有り,16歳未満の入場は保護者同伴に限り可,,
カヌチャベイホテル＆ヴィラズ,名護市字安部156-2,三原バス停から徒歩約15分,ホテル内ゲームコーナー。営業時間8:00～24:00,,
キタボウリングセンター,名護市城2-11-20,東江バス停から徒歩5分,ボウリング場内ゲームコーナー,,
名桜ボウル,名護市字宇茂佐1703-8,ワタンジャ原バス停前,ボウリング場内ゲームコーナー,,
モーリーファンタジー名護店,名護市名護見取川原4472イオン名護ショッピングセンター1F,第二名座喜原バス停から徒歩約20分名護バスターミナルから徒歩約30分,旧：ファンタジーアイランド ジャスコ名護店,,
リトルパーク名護,名護市東江5-22-25 ゲオ名護店内,世冨慶バス停前,,,
イオンタウンとよみ店 ゲームコーナー,豊見城市字根差部710,イオンタウンとよみ前バス停前,,,
ジョイジャングル,豊見城市字翁長744-1サンエー糸満ロードショッピングセンター2F,翁長バス停前,営業時間9:00～24:00,,
ジョイジャングル ウイングシティ店,豊見城市字高安261-2サンエー豊見城ウイングシティ2F,総合公園前バス停から徒歩1分豊見城中央公民館前バス停から徒歩3分,旧：ナムコランド豊見城店,,
ジョイジャングル inとみとん,豊見城市豊崎1-411豊崎ライフスタイルセンターTOMITON2F,豊崎入口バス停前豊見城南高校前バス停から徒歩約15分,営業時間10:00～22:00,,
瀬長島ファミリーランド,豊見城市字瀬長155,那覇バス具志営業所から徒歩約15分,,,
ゲームスポット プラネット,糸満市西崎6丁目18-11F,西崎入口バス停から徒歩5分,,,
サンエーしおざきシティアミューズメントコーナー,糸満市潮崎町2-2サンエーしおざきシティ1F,潮崎二丁目バス停前糸満市役所入口バス停から徒歩8分,旧：H/Tしおざき。タイトー沖縄撤退時に別OPへ営業譲渡,,
らんらんらんど 糸満店,糸満市兼城400番地サンプラザ糸満内,西崎入口バス停から徒歩3分,,,
ゲーム王国,南城市大里字高平高宮城原97-2イオンタウン南城大里1F,南小学校前バス停から徒歩1分,2012年11月23日オープン。営業時間9:00～22:00プライズ・メダルゲーム中心,,
沖縄かりゆしビーチリゾート・オーシャンスパ ゲームプラザ,国頭郡恩納村名嘉真ヤーシ原2591-1ウィングタワー地下1F,伊武部バス停から徒歩7分,ホテル内ゲームコーナー。営業時間10:00～24:00(季節変動あり)プライズ・メダルゲーム・太鼓の達人・エアホッケー等設置,,
サンマリーナホテル クラブアミューズメント,国頭郡恩納村字冨着66-1 2F,サンマリーナホテル前バス停から徒歩1分,ホテル内ゲームコーナー。営業時間10:00～24:00,,
リザンシーパークホテル谷茶ベイ,国頭郡恩納村字谷茶1496,谷茶の丘バス停から徒歩4分,ホテル内ゲームコーナー。営業時間8:00～24:00,,
チサンリゾート沖縄美ら海,国頭郡本部町字石川938,石川入口バス停から徒歩2分,ホテル内ゲームコーナー,,
ホテルマハイナウェルネスリゾートオキナワ,国頭郡本部町字山川1456,南ゲートバス停から徒歩5分,ホテル内ゲームコーナー,,
アミューズメントドラパレ,中頭郡北谷町美浜15-68,美浜アメリカンビレッジ北口バス停から徒歩1分桑江バス停から徒歩6分,,,
クラブセガ北谷,中頭郡北谷町美浜9-8シーサイドスクエア1F,美浜アメリカンビレッジ北口バス停から徒歩2分桑江バス停から徒歩7分,美浜アメリカンビレッジ内最南端、最西端セガのお店,,
ジョイジャングル ハンビー店,中頭郡北谷町北前1-2-3サンエーハンビータウン2F,ハンビータウン前バス停前北谷バス停から徒歩約10分,旧：ミルキーランド ハンビータウン店2013年3月16日リニューアルオープン,,
T.T BOWL美浜アメリカンビレッジ,中頭郡北谷町美浜9-8シーサイドスクエア2F,上に同じ,ボウリング場内ゲームコーナートータルアミューズメント・ガリバー系列。設置ゲーム機情報,,
テクモピア北谷,中頭郡北谷町美浜3-1-3,桑江バス停から徒歩4分,OPは琉球テクモピア（2011年3月31日コーエーテクモウェーブから営業譲渡）1Fプライズ・大型機、2Fメダルゲーム,,
ビバ・カーニバル,中頭郡北谷町美浜15-69カーニバルパーク・ミハマ,美浜アメリカンビレッジ北口バス停から徒歩1分桑江バス停から徒歩6分,観覧車が目印,,
ファンタジーアイランド 北谷店,中頭郡北谷町美浜8-3イオン北谷ショッピングセンター2F,美浜アメリカンビレッジ南口バス停前軍病院前バス停から徒歩6分,営業時間10:00～22:00,,
ジョイジャングル inカデナ,中頭郡嘉手納町字兼久372ネーブルカデナ南館2F,海浜公園前バス停から徒歩2分,旧：アミュージアム ネーブルカデナ店跡地に2010年6月開店,,
沖縄残波岬ロイヤルホテル,中頭郡読谷村字宇座1575,残波ロイヤルホテルバス停前読谷バスターミナルから徒歩約30分,ホテル内ゲームコーナープライズ、太鼓の達人、MJ4等設置,,
ナムコランド イオンタウン読谷ショッピングセンター店,中頭郡読谷村古堅740イオンタウン読谷ショッピングセンター内,イオンタウン読谷バス停前大湾バス停から徒歩約15分,,,
サンエー西原シティアミューズメントコーナー,中頭郡西原町嘉手苅130サンエー西原シティ2F,小那覇バス停前西原町役場前バス停から徒歩1分,旧：H/T西原。タイトー沖縄撤退時に別OPへ営業譲渡営業時間9:00～24:00,,
アミュージアム 南風原店,島尻郡南風原町字宮城371-1,南部保健所前バス停から徒歩5分,映画館併設,,
スポーツワールドサザンヒル,島尻郡南風原町宮平460-1,那覇バス新川営業所から徒歩約10分,,,
ファンタジーアイランド 南風原店,島尻郡南風原町字宮平264イオン南風原ショッピングセンター2F,南部保健所前バス停から徒歩3分沖縄都市モノレール首里駅から無料シャトルバス有り,営業時間10:00～22:00,,
ミルキーランド 津嘉山店,島尻郡南風原町津嘉山1471-2サンエーつかざんシティ2F,翔南製糖前バス停から徒歩1分,旧：H/T津嘉山。タイトー沖縄撤退時に別OPへ営業譲渡,,
ラウンドワン沖縄・南風原店,島尻郡南風原町字兼城552番地,印刷団地前バス停から徒歩1分,,,
ジョイジャングル,宮古島市平良字西里1003-1TSUTAYA沖縄宮古島店(旧：BOOKBOX宮古店)2F,下地鮮魚店前バス停から徒歩6分,,,
宮古ボウリングセンター,宮古島市平良字下里1259-5,「元うえのバス停前」バス停から徒歩6分,ボウリング場内ゲームコーナー,,
ゲームコーナーどきわくパニック,石垣市真栄里301-1サンエー石垣シティ内,サンエー前バス停前,営業時間9:00～22:00,,
ジョイジャングル やいま店,石垣市真栄里292-2イオンタウンやいま内,サンエー前バス停から徒歩2分,,,
TSUTAYA石垣店,石垣市真栄里440-3,八重山支庁前バス停から徒歩2分,,,
マックスバリュ平真店 ゲームコーナー,石垣市登野城632,かねひで前バス停から徒歩5分,たぶん日本最南端,,
