name,address,access,remarks,latitude,longitude
FESTAフリーモールわさだ店,大分市大字木上2102,南大分方面からR210を突っ走りR442との交差点を過ぎた先,トキハわさだタウンからさらに先中心地からはかなり遠い,,
モーリーファンタジーパークプレイス大分店,大分市公園通り西2-1イオンパークプレイス大分店2F,,,,
舞子浜温泉センター,大分市政所1-4-30,,,,
うめの湯,大分市山津町1-7-7,,,,
臼井プランニング,大分市迫字新殿860-1,,,,
ぶんご温泉,大分市下徳丸36-1,,,,
アサヒ温泉,大分市下郡1716-8,,ゲームコーナーへはフリーパスビデオゲームはない,,
豊の国健康ランド,大分市南春日町12-1,,ゲームコーナーへはフリーパスビデオゲームはない,,
天然温泉　天の川,大分市大字奥田659-1,,ゲームコーナーというよりゲースロの置かれた休憩室,,
ギガ津留店,大分市中津留1-1-18,国道197号線沿い中津留一丁目交差点そば,2013年7月店舗縮小、2016年8月末日営業終了,,
トキハ別府店ゲームコーナー,別府市北浜2-9-1トキハ別府店4階,JR別府駅下車徒歩5分,旧：NL別府店、namcoトキハ別府店ナムコの直営から外れています,,
ヤングセンター (南光物産),別府市北鉄輪1組,,,,
別府自衛隊PX,別府市鶴見4548-143,,,,
プレイトピアハイウェイ,別府市石垣西10-2-32,JR別府大学駅,,,
別府ラクテンチ,別府市流川通り18丁目,,,,
namco杉乃井ホテル店,別府市観海寺1組スギノイパレスUzone1階,,旧：杉乃井ホテルナムコランド店宿泊客でなくても来店可,,
スギノイパレス,別府市観海寺1組,,,,
城島後楽園ホテル,別府市東山123,,,,
セガワールド城島,別府市大字東山123-1,,現状不明。現セントレジャー城島高原,,
ハイテクランドセガハーバープレイス,別府市餅ヶ浜161-2,国道10号線沿い別府郵便局前バスならAPU方面「別府警察署前」にて,,,
遊えん知アミュスポ,大分県別府市新港町1-33,別府郵便局裏バスならAPU方面「別府警察署前」にて,,,
ビッグ・ウェーブ　ゆめタウン別府店,別府市楠町382-7ゆめタウン別府店3階,,,,
別府富士観ホテル,別府市若草町13-21,,,,
別府ポートサービス,別府市汐見町9-1 関西汽船ビル,,,,
かんぽの宿海南荘,別府市鶴見町457,,,,
シーサイドホテル美松,別府市北浜3-14-7,,,,
PSリズムカン中津,中津市古金谷2122-3,,,,
ゆめタウン中津店ゆめキッズ,中津市島田134-1ゆめタウン中津3F,,,,
セガワールド中津,中津市沖代町1-2-16,,,,
トライセン中津店,中津市下池永67-3,,,,
FESTAコスモタウン佐伯店,佐伯市鶴岡西町2-163コスモタウン佐伯内,佐伯駅からバス上岡駅は使い物になりません,,,
トキハインダストリー佐伯店ナムコランド,佐伯市池田2064 トキハインダストリー佐伯店2F,,,,
aaa（トリプル・エー）,佐伯市城東町1-9,佐伯駅からバス,,,
臼杵バッティングセンター,臼杵市市浜950,,,,
ファンタジーパーク臼杵,臼杵市江無田266-5,,,,
レンタルヒット高田,豊後高田市高田2106-1,,,,
スパランド真玉,豊後高田市城前156-1,,,,
かんぽの郷宇佐,宇佐市市川部1571,,,,
メルクス宇佐ナムコランド店,宇佐市大字法鏡寺500ハイパーモールメルクス宇佐内,,,,
トキハインダストリー三重店ナムコランド,豊後大野市三重町市場447-1トキハアクロスプラザ三重3F,,,,
G-pala日田,日田市大字友田字荻鶴986-1,光岡駅徒歩15分,旧：セガワールド日田,,
モーリーファンタジー挟間店,由布市挾間町北方77番地イオン挟間店2F,,,,
筋湯観光ホテル,玖珠郡九重町湯坪662,,,,
宝泉寺観光ホテル,玖珠郡九重町町田2032,,,,
グランドホテル山ノ湯,玖珠郡九重町町田2098,,,,
PSリズムカン玖珠,玖珠郡玖珠町塚脇627-3,,,,
ラウンドワンスタジアム宮崎店,宮崎市中村東3-4-60,南宮崎駅から徒歩圏だが宮交シティに行けるともっと近いでしょう,,,
namco宮交シティ店,宮崎市大淀4-6-28 宮交シティ3F,JR宮崎駅側,旧：らん２らんど宮交シティー店,,
ゲームセンターMEGA,宮崎市高千穂通1-3-22 エースランド2F,宮崎駅徒歩11分,旧：ナムコランド宮崎店,,
楽市楽座イオンモール宮崎店,宮崎市新別府町江口862-1 イオンモール宮崎内2F,,旧：アーバンスクエアイオンモール宮崎店,,
マンガ倉庫加納店,宮崎市加納乙240番1,JR加納駅,,,
縁日堂,宮崎市新名爪313,,,,
サンゲームス都城北店,都城市上川東4丁目5997-4,旧:アーバンスクエア都城北店R10沿い。公共交通は西都城駅からバス有,,,
ジョイプラザ都城店,都城市早水町38号5番地7,JR三股駅,,,
ビリヤードG'z,都城市牟田町4-2,JR西都城駅,,,
楽市楽座イオンモール都城駅前店,宮崎県都城市栄町4672-5 イオンモール都城駅前2F,JR都城駅,旧：楽市楽座イオンモールミエル都城駅前（イオンモールでは店舗の愛称はすべて廃しています）,,
マンガ倉庫都城店,都城市吉尾町840,,,,
セガ延岡,延岡市平原町5-1492-8,,旧：SWヒダカプラザ南九州のセガのお店は2店舗しかありません。,,
ナムコランド日向店,日向市日知屋14798-1 ハイパーモールメルクス日向内,R10沿い。一見遠いようだが公共交通でも可,,,
キラキラAsoboxイオン日向店,日向市大字日知屋字古田町61-1 イオンタウン日向D棟,,,,
ゲオパーク日向店,日向市大字日知屋16320-1,JR日向市駅,2014年1月　ゲームコーナーが閉鎖,,
ピノキオランド日南店,日南市材木町4-1 サピア日南ショッピングセンター2F,JR油津駅,,,
日南トイスタジアム,日南市星倉4-5-10,,,,
ファンタジーランド,串間市西方5590 ニシムタ串間店2F,JR串間駅,,,
サンゲームス天文館店,鹿児島市千日町５−６,天文館通電停・天文館バス停,平成２８年７月オープン・以前T/S天文館があったところ,,
T/S アミュプラザ鹿児島店,鹿児島市中央町1-1 アミュプラザ鹿児島5F,鹿児島中央駅,旧：BEAT GROOVERSちなみに、九州のタイトーのお店はすべてインベーダー化されています。,,
THE 3RD PLANET ジャングルパーク鹿児島店,鹿児島市与次郎1-11-1フレスポジャングルパーク2F,交通局前からバス,,,
モーリーファンタジー鹿児島店,鹿児島市東開町7イオンモール鹿児島3F,,イオン棟の中です,,
ラウンドワンスタジアム鹿児島宇宿店,鹿児島市宇宿2丁目2番2号,市電宇宿一丁目,送迎バスもあります,,
らんらんらんど鹿児島店,鹿児島市鴨池2-26-30ダイエー鹿児島店2F,,,,
らんらんらんど鹿児島谷山店,鹿児島市南栄5-10-51ダイエー鹿児島谷山店2F,,,,
ゲームセンターモンスター,鹿児島市荒田2-56-5,,,,
ファミリープラザめいわポニー,鹿児島市明和1-25-2,,,,
ファミリーランドポニータイヨー中山,鹿児島市中山町字後追31993,,,,
テクノパークミューズ,鹿児島市卸本町,,,,
タイヨー草牟田店,鹿児島市草牟田 2-19-22,,,,
山形屋,鹿児島市金生町 3-1,,,,
ゲームセンター電撃ベイサイド,鹿児島市浜町2番,鹿児島駅徒歩10分,旧：SWベイサイドプラザ,,
楽市楽座オプシアミスミ店,鹿児島市宇宿2丁目3番5号,鹿児島中央からバス,,,
サンアミューズ鹿屋店,鹿屋市札元2-3798,,,,
ファミリーランドポニーサンキュー寿,鹿屋市寿7丁目1-494 サンキュー寿店2F,,,,
プラッセだいわ鹿屋店ナムコランド,鹿屋市白崎町4-1プラッセだいわ鹿屋店3F,,,,
プレイランドポニー鹿屋店,鹿屋市本町,,,,
ファミリーランドポニー鹿屋店,鹿屋市,,,,
THE 3RD PLANET フレスポ国分店,霧島市国分広瀬2-4-1,,,,
ファミリーランドポニー新町店,霧島市国分新町980タイヨー新町店2F,,,,
ふぇすたらんど隼人店,霧島市隼人町見次545サンキュー隼人店1F,,,,
モーリーファンタジー隼人国分店,霧島市隼人町見次1229イオン隼人国分店2F,,旧：ダイナレックス…,,
G-pala隼人,霧島市隼人町見次532-8,隼人駅徒歩9分,旧：セガワールド国分ただし公安の許可証は「G-pala国分」,,
サンアミューズＧ２店,薩摩川内市永利町777 パワーランド川内内,空港バイパス沿いバスでも行けなくはないようです,,,
プラッセ川内店ナムコランド,薩摩川内市矢倉4213-1プラッセ川内店2F,,,,
ファミリーランドポニー永利店,薩摩川内市永利町712タイヨー永利店,,,,
プレイランドポニーダイワ向田店,薩摩川内市西向田町13-30,,地図では､プラッセ食品館向田店西向田町15-10 のタイヨー川内店では？,,
モーリーファンタジー姶良店,姶良市東餅田336イオン姶良店3F,,旧：ダイナレックス…,,
ふぇすたらんど重富,姶良市平松3675-1タイヨー重富店内,,,,
ふぇすたらんど西加治木,姶良市加治木町木田159番地2タイヨー西加治木店2F,,,,
プレイランドポニーダイワ阿久根,阿久根市鶴見町78,,,,
大和出水店,出水市本町 4-45,,,,
セガワールド出水,出水市六月田町347,HSOR出水駅からバス（「JRの出水駅」からは出ていません）,鹿児島に最後に残ったセガ,,
プラッセだいわ出水店ナムコランド,出水市本町4-45プラッセだいわ出水店内2F,,,,
ファミリーランドポニー北指宿,指宿市,,,,
ナムコランドプラッセだいわ指宿店,指宿市西方1675プラッセだいわ指宿2F,,,,
ファミリーランドポニータイヨー垂水,垂水市中央町32,,,,
プレイランドサンキュウ西志布志,志布志市志布志町安楽,,,,
電遊パーク志布志店,志布志市志布志町安楽100-1,志布志高校の近く,,,
ファミリーランドポニータイヨー大口,伊佐市里,,,,
サンゲームス串木野店,いちき串木野市東塩田町1番地串木野ゴールデンボウル内,R3沿い。串木野駅徒歩3分,ボウリング場併設ですが8号です,,
プレイランドポニーダイワ宮之城,薩摩郡宮之城町屋地2056,,現・さつま町,,
サンゲームス鹿屋,肝属郡肝付町富山1008番地5,志布志駅前からバス,鹿屋市ではありません,,
アミューズジョイBOX,那覇市首里儀保町3-16,沖縄都市モノレール儀保駅から徒歩1分,,,
アミューズぽぱい虹咲店,那覇市鏡原町2-2,沖縄都市モノレール奥武山公園駅から徒歩1分,営業時間12:00～23:00,,
天久ファミリースポーツランド,那覇市字天久889,第一天久バス停から徒歩5分,,,
小禄ボウリング,那覇市鏡原町34-40,沖縄都市モノレール奥武山公園駅から徒歩6分,ボウリング場内ゲームコーナー,,
ゲームインナハII,那覇市松尾2-22-19,開南バス停から徒歩2分,ゲームインナハの姉妹店ビデオゲーム中心,,
国場りうぼう,那覇市国場703,寄宮中学校前バス停から徒歩3分,,,
サラダボウル,那覇市辻3-4-1,三重城バス停から徒歩8分,ボウリング場内ゲームコーナー,,
ジョイジャングル inスカイレーン,那覇市具志875那覇空港ボウルスカイレーン内,那覇バス具志営業所から徒歩5分,ボウリング場内ゲームコーナー。2011年4月開店,,
TSUTAYA首里店 アミューズメントコーナー,那覇市首里久場川町2-122-1首里りうぼう1F,沖縄都市モノレール首里駅から徒歩5分首里りうぼう前バス停前,,,
namco那覇メインプレイス店,那覇市おもろまち4-4-9サンエー那覇メインプレイス2F,沖縄都市モノレールおもろまち駅から徒歩5分おもろまち一丁目バス停前,2012年9月24日ナムコランド那覇店から店名変更沖縄では初めての「namco」店名です。,,
マンガ倉庫那覇店 トレジャーハンター,那覇市高良3-1-12,沖縄都市モノレール赤嶺駅から徒歩3分,営業時間9:00～24:00（マンガ倉庫は24時間営業）メダルゲーム・MJ・WCCF・三国志大戦等設置,,
モーリーファンタジー 那覇店,那覇市金城5-10-2イオン那覇ショッピングセンター3F,沖縄都市モノレール小禄駅前,,,
ゲオパークコザミュージックタウン,沖縄市上地1-1-1コザミュージックタウン内,胡屋バス停から徒歩2分,有料駐車場有、ゲオパーク利用者は2時間無料,,
コザボウリングセンター,沖縄市中央3-5-39,胡屋バス停から徒歩5分,ボウリング場内ゲームコーナー,,
ドラゴンボウル,沖縄市登川2450,沖縄市農民研修センター前バス停から徒歩3分,ボウリング場内ゲームコーナー,,
ナムコランド 沖縄店,沖縄市池原5-1-24T.T BOWL沖縄(旧：スーパーボウルGX)内,池原団地前バス停前,ボウリング場内ゲームコーナーですが8号です。2009年7月1日プリッズ沖縄店から店名変更,,
マンガ倉庫泡瀬店,沖縄市与儀571,県総合運動公園前バス停から徒歩1分与儀バス停から徒歩約10分,2011年9月メダルコーナーオープン営業時間9:00～24:00（マンガ倉庫は24時間営業）,,
和合ファミリーランド,沖縄市照屋1-13-5,コザバス停から徒歩2分,会員制アミューズメント105円/15分店舗ブログ,,
サンエー具志川メインシティアミューズメントコーナー,うるま市江洲450-1サンエー具志川メインシティ1F,第一江洲バス停前江洲バス停から徒歩5分,旧：H/T具志川。タイトー沖縄撤退時に別OPへ営業譲渡営業時間9:00～24:00,,
ジョイジャングル,うるま市勝連南風原5111サンエー与勝シティ内,水井原バス停前,小規模スペース営業時間9:00～24:00,,
ジョイジャングル 田場店,うるま市田場1953-1ザ・ビッグ田場店内,具志川バスターミナルから徒歩1分,小規模スペース営業時間10:00～22:00,,
トイパラダイス具志川店,うるま市みどり町4-8-1,具志川商業高校入口バス停から徒歩1分安慶名バス停から徒歩6分,おもちゃ店内ゲームコーナー,,
ナムコランド 具志川店,うるま市前原幸崎原303イオン具志川ショッピングセンター2F,ジャスコ具志川入口バス停前東陽バス泡瀬営業所から徒歩3分,店内2F北側。営業時間10:00～24:00,,
ファンタジーアイランド 具志川店,うるま市前原幸崎原303イオン具志川ショッピングセンター2F,上に同じ,店内2F南側。営業時間10:00～22:00,,
ジョイジャングル 経塚店,浦添市経塚652-1サンエー経塚シティ2F,沖縄療育園前バス停から徒歩2分経塚バス停から徒歩3分,営業時間9:00～23:30プライズ・メダルゲーム中心、音ゲーは太鼓の達人のみ,,
T.T BOWLてだこ,浦添市伊祖2-9-2,伊祖入口バス停前(国道330号)大平バス停から徒歩6分,ボウリング場内ゲームコーナー旧：マスターズボウルてだこ,,
ミルキーランド マチナト店,浦添市城間2008-1サンエーマチナトショッピングセンター2階,第二城間バス停から徒歩1分,旧：T/Pマチナト。タイトー沖縄撤退時に別OPへ営業譲渡プライズ中心。音ゲー無し,,
らんらんらんど 浦添店,浦添市城間4-7-1浦添ショッピングセンター3F,城間三丁目バス停から徒歩1分第二城間バス停から徒歩4分,プライズ・メダルが中心,,
リトルパーク西原,浦添市当山2-2-3バークレーズコート ゲオ西原店内,総領事館前バス停前,営業時間10:00～25:30プライズ・音ゲー・麻雀格闘倶楽部等設置,,
アミューズメントスペースイーグル,宜野湾市真栄原2-12-5,第二真栄原バス停から徒歩1分,,,
ガリバー宜野湾店,宜野湾市上原2-11-5TSUTAYA宜野湾上原店2F,上原バス停から徒歩3分,営業時間10:00～23:50トータルアミューズメント・ガリバー系列店。店舗ブログ,,
ギノワンボウル,宜野湾市我如古4-6-7,佐真下バス停から徒歩3分,ボウリング場内ゲームコーナー,,
ゲームランド ジョイキャッスル,宜野湾市宇地泊558-10サンエー宜野湾コンベンションシティ2F,兼久原バス停から徒歩1～3分コンベンションセンター前バス停から徒歩約10分,2012年7月5日オープンプライズ・メダルゲーム中心,,
ラウンドワンスタジアム沖縄・宜野湾店,宜野湾市真志喜3-28-8,真志喜中学校前バス停から徒歩4分コンベンションセンター前バス停から徒歩約10分沖縄都市モノレールおもろまち駅から無料シャトルバス有り,16歳未満の入場は保護者同伴に限り可,,
カヌチャベイホテル＆ヴィラズ,名護市字安部156-2,三原バス停から徒歩約15分,ホテル内ゲームコーナー。営業時間8:00～24:00,,
キタボウリングセンター,名護市城2-11-20,東江バス停から徒歩5分,ボウリング場内ゲームコーナー,,
名桜ボウル,名護市字宇茂佐1703-8,ワタンジャ原バス停前,ボウリング場内ゲームコーナー,,
モーリーファンタジー名護店,名護市名護見取川原4472イオン名護ショッピングセンター1F,第二名座喜原バス停から徒歩約20分名護バスターミナルから徒歩約30分,旧：ファンタジーアイランド ジャスコ名護店,,
リトルパーク名護,名護市東江5-22-25 ゲオ名護店内,世冨慶バス停前,,,
イオンタウンとよみ店 ゲームコーナー,豊見城市字根差部710,イオンタウンとよみ前バス停前,,,
ジョイジャングル,豊見城市字翁長744-1サンエー糸満ロードショッピングセンター2F,翁長バス停前,営業時間9:00～24:00,,
ジョイジャングル ウイングシティ店,豊見城市字高安261-2サンエー豊見城ウイングシティ2F,総合公園前バス停から徒歩1分豊見城中央公民館前バス停から徒歩3分,旧：ナムコランド豊見城店,,
ジョイジャングル inとみとん,豊見城市豊崎1-411豊崎ライフスタイルセンターTOMITON2F,豊崎入口バス停前豊見城南高校前バス停から徒歩約15分,営業時間10:00～22:00,,
瀬長島ファミリーランド,豊見城市字瀬長155,那覇バス具志営業所から徒歩約15分,,,
ゲームスポット プラネット,糸満市西崎6丁目18-11F,西崎入口バス停から徒歩5分,,,
サンエーしおざきシティアミューズメントコーナー,糸満市潮崎町2-2サンエーしおざきシティ1F,潮崎二丁目バス停前糸満市役所入口バス停から徒歩8分,旧：H/Tしおざき。タイトー沖縄撤退時に別OPへ営業譲渡,,
らんらんらんど 糸満店,糸満市兼城400番地サンプラザ糸満内,西崎入口バス停から徒歩3分,,,
ゲーム王国,南城市大里字高平高宮城原97-2イオンタウン南城大里1F,南小学校前バス停から徒歩1分,2012年11月23日オープン。営業時間9:00～22:00プライズ・メダルゲーム中心,,
沖縄かりゆしビーチリゾート・オーシャンスパ ゲームプラザ,国頭郡恩納村名嘉真ヤーシ原2591-1ウィングタワー地下1F,伊武部バス停から徒歩7分,ホテル内ゲームコーナー。営業時間10:00～24:00(季節変動あり)プライズ・メダルゲーム・太鼓の達人・エアホッケー等設置,,
サンマリーナホテル クラブアミューズメント,国頭郡恩納村字冨着66-1 2F,サンマリーナホテル前バス停から徒歩1分,ホテル内ゲームコーナー。営業時間10:00～24:00,,
リザンシーパークホテル谷茶ベイ,国頭郡恩納村字谷茶1496,谷茶の丘バス停から徒歩4分,ホテル内ゲームコーナー。営業時間8:00～24:00,,
チサンリゾート沖縄美ら海,国頭郡本部町字石川938,石川入口バス停から徒歩2分,ホテル内ゲームコーナー,,
ホテルマハイナウェルネスリゾートオキナワ,国頭郡本部町字山川1456,南ゲートバス停から徒歩5分,ホテル内ゲームコーナー,,
アミューズメントドラパレ,中頭郡北谷町美浜15-68,美浜アメリカンビレッジ北口バス停から徒歩1分桑江バス停から徒歩6分,,,
クラブセガ北谷,中頭郡北谷町美浜9-8シーサイドスクエア1F,美浜アメリカンビレッジ北口バス停から徒歩2分桑江バス停から徒歩7分,美浜アメリカンビレッジ内最南端、最西端セガのお店,,
ジョイジャングル ハンビー店,中頭郡北谷町北前1-2-3サンエーハンビータウン2F,ハンビータウン前バス停前北谷バス停から徒歩約10分,旧：ミルキーランド ハンビータウン店2013年3月16日リニューアルオープン,,
T.T BOWL美浜アメリカンビレッジ,中頭郡北谷町美浜9-8シーサイドスクエア2F,上に同じ,ボウリング場内ゲームコーナートータルアミューズメント・ガリバー系列。設置ゲーム機情報,,
テクモピア北谷,中頭郡北谷町美浜3-1-3,桑江バス停から徒歩4分,OPは琉球テクモピア（2011年3月31日コーエーテクモウェーブから営業譲渡）1Fプライズ・大型機、2Fメダルゲーム,,
ビバ・カーニバル,中頭郡北谷町美浜15-69カーニバルパーク・ミハマ,美浜アメリカンビレッジ北口バス停から徒歩1分桑江バス停から徒歩6分,観覧車が目印,,
ファンタジーアイランド 北谷店,中頭郡北谷町美浜8-3イオン北谷ショッピングセンター2F,美浜アメリカンビレッジ南口バス停前軍病院前バス停から徒歩6分,営業時間10:00～22:00,,
ジョイジャングル inカデナ,中頭郡嘉手納町字兼久372ネーブルカデナ南館2F,海浜公園前バス停から徒歩2分,旧：アミュージアム ネーブルカデナ店跡地に2010年6月開店,,
沖縄残波岬ロイヤルホテル,中頭郡読谷村字宇座1575,残波ロイヤルホテルバス停前読谷バスターミナルから徒歩約30分,ホテル内ゲームコーナープライズ、太鼓の達人、MJ4等設置,,
ナムコランド イオンタウン読谷ショッピングセンター店,中頭郡読谷村古堅740イオンタウン読谷ショッピングセンター内,イオンタウン読谷バス停前大湾バス停から徒歩約15分,,,
サンエー西原シティアミューズメントコーナー,中頭郡西原町嘉手苅130サンエー西原シティ2F,小那覇バス停前西原町役場前バス停から徒歩1分,旧：H/T西原。タイトー沖縄撤退時に別OPへ営業譲渡営業時間9:00～24:00,,
アミュージアム 南風原店,島尻郡南風原町字宮城371-1,南部保健所前バス停から徒歩5分,映画館併設,,
スポーツワールドサザンヒル,島尻郡南風原町宮平460-1,那覇バス新川営業所から徒歩約10分,,,
ファンタジーアイランド 南風原店,島尻郡南風原町字宮平264イオン南風原ショッピングセンター2F,南部保健所前バス停から徒歩3分沖縄都市モノレール首里駅から無料シャトルバス有り,営業時間10:00～22:00,,
ミルキーランド 津嘉山店,島尻郡南風原町津嘉山1471-2サンエーつかざんシティ2F,翔南製糖前バス停から徒歩1分,旧：H/T津嘉山。タイトー沖縄撤退時に別OPへ営業譲渡,,
ラウンドワン沖縄・南風原店,島尻郡南風原町字兼城552番地,印刷団地前バス停から徒歩1分,,,
ジョイジャングル,宮古島市平良字西里1003-1TSUTAYA沖縄宮古島店(旧：BOOKBOX宮古店)2F,下地鮮魚店前バス停から徒歩6分,,,
宮古ボウリングセンター,宮古島市平良字下里1259-5,「元うえのバス停前」バス停から徒歩6分,ボウリング場内ゲームコーナー,,
ゲームコーナーどきわくパニック,石垣市真栄里301-1サンエー石垣シティ内,サンエー前バス停前,営業時間9:00～22:00,,
ジョイジャングル やいま店,石垣市真栄里292-2イオンタウンやいま内,サンエー前バス停から徒歩2分,,,
TSUTAYA石垣店,石垣市真栄里440-3,八重山支庁前バス停から徒歩2分,,,
マックスバリュ平真店 ゲームコーナー,石垣市登野城632,かねひで前バス停から徒歩5分,たぶん日本最南端,,
